name,descripcion,latitud,longitud,coordenadas,tipo,direccion,bd
 Centro de Apoyo al Trabajador Migrante: Comité de Promoción para el Desarrollo de Mexicali ,Centros de Atención Social,32.6603047,-115.4597261,"(32.6603047, -115.4597261)",OSC / ONG,"Calle Jabonera #6, Colonia Nueva, Mexicali, Baja California 21100,Mexicali, Baja California",redes
" Comedor Cobina, A.C. ",Centros de Atención Social,32.6601716,-115.4923303,"(32.6601716, -115.4923303)",OSC / ONG,"Av. Lerdo 416, Col. Centro, C.P. 21200,Mexicali, Baja California",redes
 HIAS Mexicali ,Centros de Atención Social,32.6584928,-115.3724971,"(32.6584928, -115.3724971)",OSC / ONG,"Calle México 151, Primera, 21100 Mexicali, B.C. A un costado de la Secretaria de relaciones Exteriores.,Mexicali, Baja California",redes
 Dispensario Médico Dr. Cañedo ,Centros de Atención Social,32.6583229,-115.4371825,"(32.6583229, -115.4371825)",OSC / ONG,"Calle Sur # 701,Mexicali, Baja California",redes
" Centro de Reintegración Familiar de Menores Migrantes, A.C. ""Albergue del Desierto"" ",Centros de Atención Social,32.65025805,-115.5059043,"(32.65025805, -115.50590429985988)",OSC / ONG,"Carpinteros 1515 G y H Col. Industrial C. P. 21010,Mexicali, Baja California",redes
 Módulo de Atención Centro de Apoyo al Trabajador Migrante y Albergue del Desierto ,Centros de Atención Social,32.65025805,-115.5059043,"(32.65025805, -115.50590429985988)",OSC / ONG,"Carpinteros 1515 G y H Col. Industrial C. P. 21010,Mexicali, Baja California",redes
 Centro Pastoral Mana de Mexicali IAP ,Centros de Atención Social,32.6457407,-115.458184,"(32.6457407, -115.458184)",OSC / ONG,"Av. Jesús García 1799, Col. Nacozari C.P. 21030,Mexicali, Baja California",redes
" Cáritas Región Mexicali, A.C. El Buen Samaritano ",Centros de Atención Social,32.639538,-115.498107,"(32.639538, -115.498107)",OSC / ONG,"Celaya S/N, Parroquia San José Obrero, Col. Bellavista, C.P. 21150,Mexicali, Baja California",redes
" Coordinadora del Programa de Apoyo al Trabajador Migrante Deportado, A.C. ""Casa Betania"" ",Centros de Atención Social,32.6072504,-115.4436791,"(32.6072504, -115.4436791)",OSC / ONG,"Lago Hudson # 2408 Col. Xochimilco, C.P. 21380,Mexicali, Baja California",redes
 Casa de Ayuda Alfa y Omega ,Centros de Atención Social,32.56754405,-114.9958286,"(32.567544049999995, -114.99582857842219)",OSC / ONG,"Av, Benito Juárez #92, Col. Zona Centro, C.P. 21100,Mexicali, Baja California",redes
" Coalición Prodefensa del Migrante, A.C. Módulo de Atención ",Centros de Atención Social,32.5443709,-116.8915208,"(32.5443709, -116.8915208)",OSC / ONG,"Garita Puerta México/ Garita Mesa de Otay,Tijuana, Baja California",redes
 Albergue Temporal Zona Norte ,Centros de Atención Social,32.540333,-117.0515263,"(32.540333, -117.0515263)",OSC / ONG,"Calle Arias Bernal # 112 CP 22100,Tijuana, Baja California",redes
 Madres y familias deportadas en acción ,Centros de Atención Social,32.5375158,-117.0296459,"(32.5375158, -117.0296459)",OSC / ONG,"Vía de la Juventud Ote 8800, Defensores de Baja California, CP 22010,Tijuana, Baja California",redes
 Espacio Migrante ,Centros de Atención Social,32.5370491,-117.0339699,"(32.5370491, -117.0339699)",OSC / ONG,"Avenida Miguel Negrete 8350, Zona Urbana Rio Tijuana,Tijuana, Baja California",redes
" Salesiano de Tijuana Desayunador ""Padre Chava"" ",Centros de Atención Social,32.5367633,-117.0321805,"(32.5367633, -117.0321805)",OSC / ONG,"Av. Melchor Ocampo #700, Zona Centro CP 22000,Tijuana, Baja California",redes
 Albergue Ejército de Salvación ,Centros de Atención Social,32.5353256,-117.012417,"(32.5353256, -117.012417)",OSC / ONG,"Av. Aquiles Serdan 11585, Colonia Libertad, Parte Baja CP 22300,Tijuana, Baja California",redes
 Albergue Ejército de Salvación Puerta de la Esperanza ,Centros de Atención Social,32.5338243,-117.0067312,"(32.5338243, -117.0067312)",OSC / ONG,"Calle 17 #550, Adolfo Ruiz Cortinez, Col. Libertad, Parte Baja  CP 22400,Tijuana, Baja California",redes
 Club Amigos de Codet ,Centros de Atención Social,32.5260874,-117.0087706,"(32.5260874, -117.0087706)",OSC / ONG,"Ave. Padre Kino 10159 Zona Río CP 22320,Tijuana, Baja California",redes
 HIAS Tijuana ,Centros de Atención Social,32.5231727,-116.9373809,"(32.5231727, -116.9373809)",OSC / ONG,"Ricardo Flores Magón 8119, Zona Centro, 22000 Tijuana, B.C.,Tijuana, Baja California",redes
" Unión de Comités Comunitarios de Tijuana, A.C. Módulo de Atención al Migrante Chiapaneco ",Centros de Atención Social,32.5216801,-116.9930421,"(32.5216801, -116.9930421)",OSC / ONG,"Av. Las Lomas # 590 Colonia Buena Vista CP 22010,Tijuana, Baja California",redes
" Casa Hogar Cavit Alejandro, A.C. ",Centros de Atención Social,32.496316,-117.0838684,"(32.496316, -117.0838684)",OSC / ONG,"Francisco I. Madero No. 104 Colonia Divina Providencia CP 22525,Tijuana, Baja California",redes
" Asociación Casa del Migrante La Divina Providencia, I.A.P. ",Centros de Atención Social,32.4761753,-114.7765312,"(32.4761753, -114.7765312)",OSC / ONG,"Avenida Zaragoza # 912, Col. Comercial, C.P. 83449,San Luis Río Colorado, Sonora",redes
 Casa Hogar El Puente ,Centros de Atención Social,32.4685104,-116.9611622,"(32.4685104, -116.9611622)",OSC / ONG,"De Los Toros 14103, Amparo Sanchez, 22183 Tijuana, B.C.,Tijuana, Baja California",redes
 Border  Line Crisis Center A. C. ,Centros de Atención Social,32.4531281,-116.8646068,"(32.4531281, -116.86460682638275)",OSC / ONG,"MIGUEL NEGRETE LAS CALIFORNIA'S PARK 22000 TIJUANA, B.C. Mexico,Tijuana, Baja California",redes
 Fundacion Mano con Mano por Baja California A.C. ,Centros de Atención Social,32.4406334,-117.0322012,"(32.4406334, -117.0322012)",OSC / ONG,"Real de San Antonio 5834 Col. Real de San Antonio CP 22666,Tijuana, Baja California",redes
" Albergue San Vicente: Instituto de Derechos Humanos de Indigentes y Migrantes, A.C. ",Centros de Atención Social,31.86697,-116.6009704,"(31.86697, -116.6009704)",OSC / ONG,"Calle Novena #691, Colonia Bustamante, Ensenada, Baja California 22840,Ensenada, Baja California",redes
" Diocesan Migrant and Refugee Services, Inc (DMRS) ",Centros de Atención Social,31.76232195,-106.4919642,"(31.76232195, -106.49196419678495)",OSC / ONG,"2400 Yandell Dr El Paso, TX 79903,El Paso, Texas",redes
 Mexicanos en Exilio ,Centros de Atención Social,31.76232195,-106.4919642,"(31.76232195, -106.49196419678495)",OSC / ONG,"1430 E Yandell El Paso, TX 79902,El Paso, Texas",redes
 Hope Border Institute ,Centros de Atención Social,31.76015175,-106.4915897,"(31.76015175, -106.49158969919804)",OSC / ONG,"8330 Park Haven Ave, El Paso, TX 79907, United States,El Paso, Texas",redes
 Las Americas IAC (Immigrant Advocacy Center) ,Centros de Atención Social,31.73565255,-106.2696219,"(31.735652549999998, -106.26962185075779)",OSC / ONG,"1500 E Yandell Dr. El Paso, TX 79902,El Paso, Texas",redes
" Derechos Humanos Integrales en Acción, A.C. ",Centros de Atención Social,31.7347737,-106.4790691,"(31.7347737, -106.4790691)",OSC / ONG,"20 de Noviembre 4305 Col. El Colegio,Juárez, Chih. CP 32310 Ciudad Ciudad Juárez, Chihuahua",redes
" Centro de Atención a Migrantes Deportados (CAMDEP), Iniciativa Kino para la Frontera ",Centros de Atención Social,31.3301058,-110.9644867,"(31.3301058, -110.9644867)",OSC / ONG,"Bulevard Luis Donaldo Colosio # 55 Col. Del Rosario, C.P. 84000,Nogales, Sonora",redes
 Casa Hogar Nuestros Pequeños Hermanos ,Centros de Atención Social,31.3247237,-110.9643924,"(31.3247237, -110.9643924)",OSC / ONG,"Pima 1, Lomas de Fátima, Nogales, Sonora C.P. 84020,Nogales, Sonora",redes
 Casa YMCA para menores migrantes ,Centros de Atención Social,31.3232513,-109.5547837,"(31.3232513, -109.5547837)",OSC / ONG,"Calle 1a entre 12 y 13 Agua Prieta, Sonora 84200,Agua Prieta, Sonora",redes
" Centro de Atención al Migrante Exodus, A.C. (CAME) ",Centros de Atención Social,31.31126215,-109.5357251,"(31.311262149999997, -109.53572505051642)",OSC / ONG,"Av. Anáhuac 108 Colonia Centro Ferrocarril C.P. 84200,Agua Prieta, Sonora",redes
 Comedor Iniciativa Kino para La Frontera ,Centros de Atención Social,31.3082998,-110.9583265,"(31.3082998, -110.9583265)",OSC / ONG,"Bulevar Luis Donaldo Colosio SN/N Col. del Rosario C.P. 84000,Nogales, Sonora",redes
 Casa de Luz ,Centros de Atención Social,30.4784427,-115.9216186,"(30.4784427, -115.9216186)",OSC / ONG,"No disponible,Tijuana, Baja California",redes
 Hecate Society Tijuana ,Centros de Atención Social,30.4784427,-115.9216186,"(30.4784427, -115.9216186)",OSC / ONG,"No disponible,Tijuana, Baja California",redes
 Contra Viento y Marea ,Centros de Atención Social,30.4784427,-115.9216186,"(30.4784427, -115.9216186)",OSC / ONG,"No disponible,Tijuana, Baja California",redes
 Madres Soñadoras Internacionales / DREAMers Moms USA / Tijuana A.C. ,Centros de Atención Social,30.4784427,-115.9216186,"(30.4784427, -115.9216186)",OSC / ONG,"No disponible,Tijuana, Baja California",redes
 Puente TJ United ,Centros de Atención Social,30.4784427,-115.9216186,"(30.4784427, -115.9216186)",OSC / ONG,"No disponible,Tijuana, Baja California",redes
" Frontera y Dignidad de Acuña A.C. ""Casa del Migrante EMAUS"" ",Centros de Atención Social,29.3115169,-100.9227355,"(29.3115169, -100.9227355)",OSC / ONG,"Doctor Coss 47, Col. Centro C.P.26200,Ciudad Acuña, Coahuila",redes
 Casa del Peregrino de Piedras Negras A.C. Frontera Digna Casa del Migrante ,Centros de Atención Social,28.7048519,-100.5219842,"(28.7048519, -100.5219842)",OSC / ONG,"Anáhuac # 605 Oriente Col. Centro CP 26000,Piedras Negras, Coahuila",redes
 Uno de siete migrando A.C. ,Centros de Atención Social,28.7009818,-106.104707,"(28.7009818, -106.104707)",OSC / ONG,"Calle Camargo #101, Col. Revolución C.P. 31135,Chihuahua, Chihuahua",redes
" Casa del Migrante Amar, A.C. ",Centros de Atención Social,27.4920063,-99.5026535,"(27.4920063, -99.5026535)",OSC / ONG,"Canales 2112, Sector Centro, C.P. 88160,Nuevo Laredo, Tamaulipas",redes
 Casa del Migrante Nazareth A.C. ,Centros de Atención Social,27.4875676,-99.484875,"(27.4875676, -99.484875)",OSC / ONG,"Calle Francisco I. Madero 350, Colonia Viveros, 88070 Nuevo Laredo, Tamps.,Nuevo Laredo, Tamaulipas",redes
" Red Paisano México-USA, AC. ",Centros de Atención Social,27.3880753,-99.5561154,"(27.3880753, -99.5561154)",OSC / ONG,"Obregon 1810, Nuevo Laredo, Tamaulipas C.P 88000,Nuevo Laredo, Tamaulipas",redes
 Casa del Migrante Senda de Vida ,Centros de Atención Social,26.0990021,-98.2974517,"(26.0990021, -98.2974517)",OSC / ONG,"Calle Bordo de Protección No. 5,Reynosa, Tamaulipas",redes
 Albergue Ejército de Salvación ,Centros de Atención Social,25.7121685,-100.2985977,"(25.7121685, -100.2985977)",OSC / ONG,"Carvajal y de la Cueva 1716 Norte, Col, Primero de Mayo, 64580,Monterrey, Nuevo León",redes
 Institución Normativa de los Indigentes (Casa INDI) ,Centros de Atención Social,25.6998424,-100.3259301,"(25.6998424, -100.32593010005391)",OSC / ONG,"Av Bernardo Reyes 2616 Bella Vista, 64400 Monterrey, N.L.,Monterrey, Nuevo León",redes
 Ayuda Humanitaria al Migrante Casa Monarca ,Centros de Atención Social,25.6944425,-100.4998078,"(25.6944425, -100.49980776797868)",OSC / ONG,"Priv. Nicolás Bravo 510, Col. Nueva Santa Catarina C.P. 66350,Santa Catarina, Nuevo León",redes
 Albergue y Comedor Público para Mujeres Migrantes Vislumbrando un Nuevo Horizonte ,Centros de Atención Social,25.6768957,-100.3393574,"(25.6768957, -100.3393574)",OSC / ONG,"Av. 5 de Mayo 494, Col. Centro C.P. 64000,Monterrey, Nuevo León",redes
 HIAS Monterrey ,Centros de Atención Social,25.6373305,-100.308514,"(25.6373305, -100.308514)",OSC / ONG,"Eglantina 1709, Jardín de Las Torres, 64754 Monterrey, N.L.,Monterrey, Nuevo León",redes
 Bienestar Familiar Lagunero A.C. ,Centros de Atención Social,25.5323748,-103.430479,"(25.5323748, -103.430479)",OSC / ONG,"Calle Popocatepetl 510 Fracc. Carolinas CP 27040,Torreón, Coahuila",redes
 Frontera con Justicia A.C. Casa del Migrante de Saltillo ,Centros de Atención Social,25.4042551,-101.0248406,"(25.4042551, -101.0248406)",OSC / ONG,"Juan de Erbáez # 2406 Col. Landín CP 25070,Saltillo, Coahuila",redes
 Lasos de Union por Durango AC ,Centros de Atención Social,23.974331,-104.0465283,"(23.974331, -104.0465283)",OSC / ONG,"Villa Union Poanas, Durango,Durango, Durango",redes
 Fundación Despierta al Mundo A.C. ,Centros de Atención Social,23.7149186,-99.1467543,"(23.7149186, -99.1467543)",OSC / ONG,"Villa de Aguayo 255, Fracc. Haciendas del Santuario, Cd. Victoria, Tamaulipas, México,Ciudad Victoria, Tamaulipas",redes
" Cáritas Mazatlán, I.A.P (Albergue al peregrino) ",Centros de Atención Social,23.254348,-106.4268821,"(23.254348, -106.4268821)",OSC / ONG,"Toma de Celaya 86, Col. Francisco Villa, C.P. 82127,Mazatlán, Sinaloa",redes
 Albergue Una Gota en el Océano ,Centros de Atención Social,23.2375837,-106.3860717,"(23.2375837, -106.3860717)",OSC / ONG,"Bahía Magdalena 20, Col. Rincón de Urías, C.P. 82070,Mazatlán, Sinaloa",redes
 Albergue Ejército de Salvación ,Centros de Atención Social,23.2107755,-106.4197138,"(23.2107755, -106.4197138)",OSC / ONG,"C. Gutierrez Nájera #514 Colonia Centro 82000,Mazatlán, Sinaloa",redes
 Casa de la Caridad Cristiana CCC ,Centros de Atención Social,22.1647974,-100.9775358,"(22.1647974, -100.9775358)",OSC / ONG,"Calle Juan Álvarez #210, esquina vía México-Laredo, barrio de Tlaxcala,San Luis Potosí, San Luis Potosí",redes
 Casa Del Migrante San Luis Potosi. Programa de Cáritas SLP ,Centros de Atención Social,22.15287,-100.9770271,"(22.15287, -100.97702706837606)",OSC / ONG,"Álvaro Obregón 626, Centro Historico, 78000,San Luis Potosí, San Luis Potosí",redes
 Centro Crecer San Francisco De Los Romo ,Centros de Atención Social,22.0741242,-102.2701389,"(22.0741242, -102.2701389)",OSC / ONG,"Av. México esquina Venezuela Fracc. San José Buenavista,Aguascalientes, Aguascalientes",redes
 Centro Crecer San Marcos ,Centros de Atención Social,21.9989758,-102.1995373,"(21.9989758, -102.1995373)",OSC / ONG,"Av. Aguascalientes #604 Col. San Marcos,Aguascalientes, Aguascalientes",redes
 SEMIGRANTE (Tiquicheo) ,Centros de Atención Social,21.9864731,-99.0175071,"(21.9864731, -99.0175071)",OSC / ONG,"Guerrero S/N, Colonia Centro, C.P. 61370,Tiquicheo, Michoacán",redes
 Centro Crecer José María Matamoros ,Centros de Atención Social,21.9641777,-102.3496074,"(21.9641777, -102.3496074)",OSC / ONG,"Matamoros #704 Centro Jesús María,Aguascalientes, Aguascalientes",redes
 Centro Crecer Rincón De Romos ,Centros de Atención Social,21.96408705,-102.283281,"(21.96408705, -102.2832810327379)",OSC / ONG,"Fracc. Haciendas de San José del Rincón,Aguascalientes, Aguascalientes",redes
 Centro Crecer Olivares Santana ,Centros de Atención Social,21.9615899,-102.2704338,"(21.9615899, -102.2704338)",OSC / ONG,"Benjamín de la Mora S/N Fracc. Olivares Santana,Aguascalientes, Aguascalientes",redes
 Centro Crecer La Salud ,Centros de Atención Social,21.9311864,-102.2688076,"(21.9311864, -102.2688076)",OSC / ONG,"Calle De La Luna 125, Laurel, Barrio de la Salud, C.P. 20240,Aguascalientes, Aguascalientes",redes
 Centro Crecer Constitución ,Centros de Atención Social,21.93065,-102.2849828,"(21.93065, -102.28498277897444)",OSC / ONG,"Art. 24 esquina con Art. 14 Col. Constitución,Aguascalientes, Aguascalientes",redes
 Centro Crecer Nazario Ortiz Garza ,Centros de Atención Social,21.9049946,-102.26619,"(21.9049946, -102.26619)",OSC / ONG,"Calle Agustín Pradillo #302, Col. Progreso, C. P. 20179,Aguascalientes, Aguascalientes",redes
 Casa Migrante Camino a la Vida ,Centros de Atención Social,21.88601,-102.307635,"(21.88601, -102.307635)",OSC / ONG,"José Guadalupe Posada #828, (a un lado del Panteón de la Cruz) C.P 20050,Aguascalientes, Aguascalientes",redes
 Centro Crecer La Estrella ,Centros de Atención Social,21.8806701,-102.2753972,"(21.8806701, -102.27539720591936)",OSC / ONG,"Calle La Lira #1009, Col. La Estrella, C. P. 20150,Aguascalientes, Aguascalientes",redes
 Centro Crecer Obraje ,Centros de Atención Social,21.8586252,-102.3053952,"(21.8586252, -102.3053952)",OSC / ONG,"Prof. Enrique Olivares Santana #119, Col. Obraje, C. P. 20230,Aguascalientes, Aguascalientes",redes
 Centro Crecer Calvillo ,Centros de Atención Social,21.8411316,-102.7150395,"(21.8411316, -102.7150395)",OSC / ONG,"Serapio Figueroa 119, Ejidal, 20804,Aguascalientes, Aguascalientes",redes
 Centro Crecer Pabellón De Arteaga ,Centros de Atención Social,21.7167602,-102.4114054,"(21.7167602, -102.4114054)",OSC / ONG,"C. Pedro Parga S/N Frac Trojes de San Pedro,Aguascalientes, Aguascalientes",redes
 Casa de la Esperanza San José ,Centros de Atención Social,21.5088255,-104.8892938,"(21.5088255, -104.8892938)",OSC / ONG,"Padre Enrique Mejía 194, Col. Centro, C.P. 63000,Tepic, Nayarit",redes
 Centro Casa Origen Nayarit ,Centros de Atención Social,21.501593,-104.895176,"(21.501593, -104.895176)",OSC / ONG,"Privada Margarita No. 32, Col. Villas de San Juan, C.P. 63130,Tepic, Nayarit",redes
 Misión derechos humanos de la sierra gorda de Querétaro A.C. ,Centros de Atención Social,21.2141788,-99.4762632,"(21.2141788, -99.4762632)",OSC / ONG,"Mariano Matamoros No. 14 Zona Centro 76340 Jalpan de Serra, Querétaro, México,Jalpan de Serra, Querétaro",redes
 Dream in Mexico A.C. ,Centros de Atención Social,21.1218598,-101.6825081,"(21.1218598, -101.6825081)",OSC / ONG,"Virtual,León, Guanajuato",redes
 Caminamos Juntos ,Centros de Atención Social,20.9122595,-100.7445762,"(20.9122595, -100.7445762)",OSC / ONG,"Abierto por cita. Solicitar cita previa. Zona Centro 37700 San Miguel de Allende, Guanajuato,San Miguel de Allende, Guanajuato",redes
 Fundación Comunitaria del Bajío ,Centros de Atención Social,20.6760812,-101.3498669,"(20.6760812, -101.3498669)",OSC / ONG,"Manuel Altamirano No. 480-1 C.P. 35600,Irapuato, Guanajuato",redes
 Instituto Jalisciense para los Migrantes ,Centros de Atención Social,20.674638,-103.3661476,"(20.674638, -103.3661476)",OSC / ONG,"Calle Penitenciaria 180, Colonia Americana, CP. 44160,Guadalajara, Jalisco",redes
" Irapuato Vive, AC ",Centros de Atención Social,20.6729881,-101.3490121,"(20.6729881, -101.3490121)",OSC / ONG,"Jesús García 356 Zona Centro C.P. 36510,Irapuato, Guanajuato",redes
"Dignidad y Justicia en el Camino, AC (FM4-Paso Libre)",Centros de Atención Social,20.6674802,-103.3790077,"(20.6674802, -103.3790077)",OSC / ONG,"Calderón de la Barca #468-A, Col. Arcos Vallarta, C.P. 44130,Guadalajara, Jalisco",redes
" Albergue para migrantes Toribio Romo, A.C. ",Centros de Atención Social,20.6416217,-100.3984202,"(20.6416217, -100.3984202)",OSC / ONG,"Priv. Campesinos 1, Col. San Pedrito Peñuelas, C.P. 76140,Querétaro, Querétaro",redes
 La casa del migrante del Cerro del Cuatro ,Centros de Atención Social,20.605528,-103.370684,"(20.605528, -103.370684)",OSC / ONG,"Constitución 332 esquina con Ignacio Mejia, Col. Cerro del 4 C.P. 45599,Tlaquepaque, Jalisco",redes
 Centro de Apoyo Marista al Migrante  (CAMMI) ,Centros de Atención Social,20.6016889,-100.3850034,"(20.6016889, -100.38500341158252)",OSC / ONG,"Marte No. 2 Esq. Av. Universidad Col. Centro CP. 76000 Querétaro, Qro. (Universidad Marista de Querétaro),Querétaro, Querétaro",redes
 Casa San Carlos Borromeo ,Centros de Atención Social,20.5611765,-101.2012816,"(20.5611765, -101.2012816)",OSC / ONG,"Moroleón #107, Col. Guanajuato C.P. 36790,Salamanca, Guanajuato",redes
 Casa del migrante ABBA ,Centros de Atención Social,20.5458105,-100.7950601,"(20.5458105, -100.7950601)",OSC / ONG,"Calle, Eufemio Zapata #216. Colonia, Emiliano Zapata. Celaya Guanajuato. C.P 38030,Celaya, Guanajuato",redes
" Albergue Manos Extendidas para los Necesitados, AC ",Centros de Atención Social,20.5275419,-100.8030489,"(20.5275419, -100.8030489)",OSC / ONG,"16 de Septiembre 428 Celaya, Guanajuato, C.P. 38057 (casi enfrente del templo del Barrio del Zapote),Celaya, Guanajuato",redes
 Centro Regional de la Red de Mujeres de Bajío ACCEREMUBA ,Centros de Atención Social,20.5230916,-100.8135865,"(20.5230916, -100.8135865)",OSC / ONG,"Alvaro Obregón 381-5, Planta Alta, zona Centro, CP 3800,Celaya, Guanajuato",redes
" El Diamante de Fuego, AC ",Centros de Atención Social,20.1265924,-98.7543876,"(20.1265924, -98.7543876)",OSC / ONG,"V Carranza 528, San Clemente C.P. 42070,Pachuca, Hidalgo",redes
 Casa del Migrante El Samaritano ,Centros de Atención Social,20.0438802,-99.2473813,"(20.0438802, -99.2473813)",OSC / ONG,"Av. del Bosque 360, U.H. Antonio Osorio de León, Col. Bojay, Atitalaquia, Hidalgo. C.P. 42970,Atitalaquia, Hidalgo",redes
 HERMANAS de los Sagrados Corazones Casa del Migrante “El Samaritano” ,Centros de Atención Social,20.043333,-99.244722,"(20.043333, -99.244722)",OSC / ONG,"Av. del Bosque 360, U.H. Antonio Osorio de León, Col. Bojay, Atitalaquia, Hidalgo.,Bojay, Hidalgo",redes
 SEMIGRANTE (Paracho) ,Centros de Atención Social,19.7507753,-102.0251101,"(19.7507753, -102.0251101)",OSC / ONG,"Plaza Principal S/N, Col. Centro, C.P. 60250,Paracho, Michoacán",redes
 SEMIGRANTE Morelia ,Centros de Atención Social,19.6920399,-101.16194,"(19.6920399, -101.16194)",OSC / ONG,"Colegio Militar 248 Chapultepec Nte. C.P. 58260 Morelia,  Michoacán,Morelia, Michoacán",redes
 Albergue Casa del Migrante San Juan Diego ,Centros de Atención Social,19.5793867,-99.7581572,"(19.5793867, -99.7581572)",OSC / ONG,"Camino Tequixquiac km 50.5, Barrio San Bartolo,Huehuetoca, Estado de México",redes
 AS Movilidad AC ,Centros de Atención Social,19.49760965,-99.1752356,"(19.49760965, -99.1752355999221)",OSC / ONG,"Avenida México Coyoacán # 295 PB 1,de México, 03330 Ciudad Ciudad de México, Ciudad de México",redes
 Deportados Unidos en la Lucha ,Centros de Atención Social,19.4912701,-99.0574659,"(19.4912701, -99.0574659)",OSC / ONG,"Valle de Arriba 66-2 Valle de Aragon 1era seccion., 57100,Nezahualcóyotl,, de México Ciudad Ciudad Nezahualcóyotl Estado Estado de México",redes
 Otros Dreams en Acción ,Centros de Atención Social,19.4873745,-99.1934659,"(19.4873745, -99.1934659)",OSC / ONG,"José María Marroquí 83 Colonia Centro, Centro, 06000 Centro, CDMX,Ciudad de México, Ciudad de México",redes
 Fundación Carlos Slim ,Centros de Atención Social,19.4632715,-99.0409468,"(19.4632715, -99.0409468)",OSC / ONG,"Lago Zurich 245, Col. Ampliación Granada,Ciudad de México, Ciudad de México",redes
 UVEMAC ,Centros de Atención Social,19.4612583,-99.0437537,"(19.4612583, -99.0437537)",OSC / ONG,"Av. Lago Xochimilco # 381. Col. Ampliación Vicente Villada,Nezahualcóyotl, 57710  Ciudad Ciudad Nezahualcóyotl, Estado de México",redes
 Casa de los Amigos A.C. APOFAM ,Centros de Atención Social,19.4380716,-99.154505,"(19.4380716, -99.154505)",OSC / ONG,"Ignacio Mariscal 132,Ciudad de México, Ciudad de México",redes
 New Comienzos A.C. ,Centros de Atención Social,19.43270105,-99.13315494,"(19.43270105, -99.13315493660969)",OSC / ONG,"Plaza de la República Centro Histórico, CDMX,Ciudad de México, Ciudad de México",redes
 SMR: Scalabrinianas Misión con Migrantes y Refugiados ,Centros de Atención Social,19.4326296,-99.1331785,"(19.4326296, -99.1331785)",OSC / ONG,"No disponible,Ciudad de México, Ciudad de México",redes
 Casa La Banda ,Centros de Atención Social,19.4326296,-99.1331785,"(19.4326296, -99.1331785)",OSC / ONG,"No disponible,Ciudad de México, Ciudad de México",redes
 Las Vanders ,Centros de Atención Social,19.4326296,-99.1331785,"(19.4326296, -99.1331785)",OSC / ONG,"No disponible,Ciudad de México, Ciudad de México",redes
 Casa Refugio Citlaltépetl ,Centros de Atención Social,19.4326296,-99.1331785,"(19.4326296, -99.1331785)",OSC / ONG,"Citlaltépetl # 25,de México, 6170 Ciudad Ciudad de México, Ciudad de México",redes
 Mi Valedor ,Centros de Atención Social,19.4315171,-99.1514848,"(19.4315171, -99.1514848)",OSC / ONG,"Bucareli 69 C,Ciudad de México, Ciudad de México",redes
 América sin muros ,Centros de Atención Social,19.42734345,-99.16521488,"(19.427343450000002, -99.16521487737674)",OSC / ONG,"Paseo de la Reforma 296, Piso 19, Del. Benito Juárez,Ciudad de México, Ciudad de México",redes
 Servicios Jesuitas a Migrantes SJM ,Centros de Atención Social,19.4245972,-99.15204001,"(19.4245972, -99.15204000971002)",OSC / ONG,"Orizaba 39 Roma Nte. Cuauhtémoc 06700,de México, CDMX Ciudad Ciudad de México, Ciudad de México",redes
 Asociación Mexicana de Uniones de Crédito del Sector Social (AMUCSS) ,Centros de Atención Social,19.4183227,-99.1625655,"(19.4183227, -99.1625655)",OSC / ONG,"Hermosillo 14 código 2, Roma Sur Cuauhtémoc 06760,de México, CDMX Ciudad Ciudad de México, Ciudad de México",redes
" Iniciativa Ciudadana para la Promoción de la Cultura del Diálogo, AC ",Centros de Atención Social,19.415222,-99.165413,"(19.415222, -99.165413)",OSC / ONG,"Tepic 83 Col. Roma Sur,Delegación Cuauhtémoc, Ciudad de México",redes
 Médicos sin fronteras ,Centros de Atención Social,19.4148639,-99.176429,"(19.4148639, -99.176429)",OSC / ONG,"Fernando Montes de Oca 56, Col. Condesa, Del. Cuauhtémoc,Ciudad de México, Ciudad de México",redes
 Fundación Origen A.C. ,Centros de Atención Social,19.414389,-99.2147747,"(19.414389, -99.2147747)",OSC / ONG,"Juan O'donojú 221, Lomas Virreyes, Lomas de Chapultepec IV Secc, 11000,de México, CDMX Ciudad Ciudad de México, Ciudad de México",redes
 Cooperativa Fotosíntesis ,Centros de Atención Social,19.4084336,-99.1394535,"(19.4084336, -99.1394535)",OSC / ONG,"Fray Juan de Torquemada No. 76 Colonia Obrera C.P 06800,Ciudad de México, Ciudad de México",redes
 Colectivo de Prácticas Narrativas ,Centros de Atención Social,19.4070945,-99.1878396,"(19.4070945, -99.1878396)",OSC / ONG,"Gobernador Luis G. Viera 38, Col. San Miguel Chapultepec II Sección,,Ciudad de México, Ciudad de México",redes
 Comisión Mexicana para la Defensa y Promoción de los Derechos Humanos ,Centros de Atención Social,19.403565,-99.1701222,"(19.403565, -99.1701222)",OSC / ONG,"Tehuantepec #142, Col. Roma Sur,Delegación Cuauhtémoc, Ciudad de México",redes
 Albergue de Migrantes Casa Tochán ,Centros de Atención Social,19.397957,-99.1956197,"(19.397957, -99.1956197)",OSC / ONG,"Calle Pavo Real Entre 40 y 41, Colonia Pino Suárez, C.P. 01141,Delegación Álvaro Obregón, Ciudad de México",redes
" Corrientes, artísticas, sociales, ambientales. ",Centros de Atención Social,19.3837691,-99.1669696,"(19.3837691, -99.1669696)",OSC / ONG,"Marroquí 83 esquina con Ayuntamiento, Col. Centro, Del. Cuauhtémoc,Ciudad de México, Ciudad de México",redes
 Fundación para la justicia y el estado democrático de derecho ,Centros de Atención Social,19.3837691,-99.1669696,"(19.3837691, -99.1669696)",OSC / ONG,"Calle Palenque 269, Col. Narvarte Oriente, Del. Benito Juárez,Ciudad de México, Ciudad de México",redes
 Fondo Semillas ,Centros de Atención Social,19.38343475,-99.17825995,"(19.38343475, -99.17825994952753)",OSC / ONG,"Fragonard 84, Col. San Juan, Del. Benito Juárez,Ciudad de México, Ciudad de México",redes
" Instituto para la Seguridad y la Democracia, AC (INSYDE) ",Centros de Atención Social,19.3833943,-99.1792214,"(19.3833943, -99.1792214)",OSC / ONG,"Carolina 80, Cd. de los Deportes, Noche Buena, 03710,Delegación Benito Juárez, Ciudad de México",redes
 Ejército de Salvación Salvation Army ,Centros de Atención Social,19.3831142,-99.1741181,"(19.3831142, -99.1741181)",OSC / ONG,"San Borja #1456, Col. Vértiz Narvarte,Delegación Benito Juárez, Ciudad de México",redes
 Misioneras de San Carlos Borromeo Scalabrinianas ,Centros de Atención Social,19.3829715,-99.18009787,"(19.3829715, -99.18009786941066)",OSC / ONG,"Calle Zapote 31, San Fernando,Ciudad de México, Ciudad de México",redes
 Sin Fronteras IAP ,Centros de Atención Social,19.3770818,-99.1943878,"(19.3770818, -99.1943878)",OSC / ONG,"Carlos Dolci # 96. Col. Alfonso XII,de México, 01460 Ciudad Ciudad de México, Ciudad de México",redes
" Instituto de Estudios y Divulgación sobre Migración, AC (INEDIM) ",Centros de Atención Social,19.3576908,-99.1226831,"(19.3576908, -99.1226831)",OSC / ONG,"Calle Mexicali 4 Hipódromo 06100,de México, CDMX Ciudad Ciudad de México, Ciudad de México",redes
 Comisión Nacional de los Derechos Humanos ,Centros de Atención Social,19.3250371,-99.2284244,"(19.3250371, -99.2284244)",OSC / ONG,"Periférico Sur 3469, Col. San Jerónimo Lídice,Ciudad de México, Ciudad de México",redes
" Centro de los Derechos del Migrante, Inc ",Centros de Atención Social,19.32160295,-99.18493018,"(19.32160295, -99.18493018260631)",OSC / ONG,"Calle Zamora #169-4 C.P. 06140,Ciudad de México, Ciudad de México",redes
" Fundar, Centro de Análisis e Investigación, AC ",Centros de Atención Social,19.3178414,-99.1419825,"(19.3178414, -99.1419825)",OSC / ONG,"Cerrada de Alberto Zamora 21, Col. Villa Coyoacán.,Delegación Coyoacán, Ciudad de México",redes
 Centro Fray Julián Garces A. C. ,Centros de Atención Social,19.3116764,-98.2442069,"(19.3116764, -98.2442069)",OSC / ONG,"Calle 11 No. 214,Loma Xicohténcatl, Tlaxcala",redes
 Centro Casa Origen ,Centros de Atención Social,19.3008141,-99.7743733,"(19.3008141, -99.7743733)",OSC / ONG,"Calle sin nombre CP 50960,Villa Victoria, Estado de México",redes
 Iniciativa Ciudadana para la promoción de la cultura y el diálogo A.C. ,Centros de Atención Social,19.0656727,-98.2347693,"(19.0656727, -98.2347693)",OSC / ONG,"Calle 7 Poniente # 509 Interior 10,Puebla, Puebla",redes
 Parroquia de la Asunción Ayuda Humanitaria a Migrantes en Tránsito ,Centros de Atención Social,18.9570892,-98.270555,"(18.9570892, -98.270555)",OSC / ONG,"Calle 45 Norte 206, Col. Aquiles Serdán C.P. 72140,Puebla, Puebla",redes
 Comedor para migrantes Las Patronas ,Centros de Atención Social,18.8131068,-96.9262761,"(18.8131068, -96.9262761)",OSC / ONG,"Calle 14 s/n Col. Guadalupe Amatlán de los Reyes,Amatlán de los Reyes, Veracruz",redes
 Casa del Migrante Santa Faustina Kowalska ,Centros de Atención Social,18.1626665,-94.5529821,"(18.1626665, -94.5529821)",OSC / ONG,"Calle La Venta 434 Col. Dunas,Coatzacoalcos, Veracruz",redes
 SEMIGRANTE (Tocumbo) ,Centros de Atención Social,17.9625665,-102.200602,"(17.9625665, -102.200602)",OSC / ONG,"Portal Lazaro Cardenas No. 16, Colonia Centro, C.P. 59960,Tocumbo, Michoacán",redes
 Casa de Migrantes Mons. Guillermo Ranzahuer ,Centros de Atención Social,17.9272722,-94.893736,"(17.9272722, -94.893736)",OSC / ONG,"Calle Miguel Hidalgo 604, Barrio Primero, 96160 Oluta, Veracruz, México,Acayucan, Veracruz",redes
" Centro de Derechos Humanos de la Montaña Tlachinollan, AC ",Centros de Atención Social,17.5408669,-98.5947901,"(17.5408669, -98.5947901)",OSC / ONG,"Mina #77 Col. Centro C.P 41300,Tlapa, Guerrero",redes
La72: Hogar-Refugio para personas migrantes,Centros de Atención Social,17.47213825,-91.40776533,"(17.47213825, -91.40776532633315)",OSC / ONG,"Prolongacion 20 S/N, Estacion Nueva 86901, Tenosique de Pino Suárez, Tabasco,Tenosique, Tabasco",redes
"La 72, Hogar -Refugio para personas migrantes",Centros de Atención Social,17.4603172,-91.43313845,"(17.4603172, -91.43313845270373)",OSC / ONG,"Estación Nueva,Tenosique, Tabasco",redes
 Casa del Caminante Jtatic Samuel Ruiz ,Centros de Atención Social,17.2519767,-91.5630216,"(17.2519767, -91.5630216)",OSC / ONG,"Ninos Heroes 051 C.P. 29960,Palenque, Chiapas",redes
 Centro de orientación del migrante de Oaxaca ,Centros de Atención Social,17.1080622,-96.7167234,"(17.1080622, -96.7167234)",OSC / ONG,"Callejón de Guadalupe Victoria s/n, Col. Centro, C.P. 68000,Oaxaca, Oaxaca",redes
 Casa del Migrante Ruchagalú ,Centros de Atención Social,16.8928423,-95.0401948,"(16.8928423, -95.0401948)",OSC / ONG,"Av. Primero de mayo #1110, Col. Rincón Viejo, Santa María Petapa, C.P. 70370,Matías Romero, Oaxaca",redes
 Boca de Polen Red de Comunicadores ,Centros de Atención Social,16.7347597,-92.6348168,"(16.7347597, -92.6348168)",OSC / ONG,"Josefa Ortiz de Dominguez No 28 Int. 1, Barrio de Santa Lucia C.P. 29250,San Cristóbal Las Casas, Chiapas",redes
 Capilla-Albergue Hermanos en el Camino A.C. ,Centros de Atención Social,16.5489586,-95.1027582,"(16.5489586, -95.1027582)",OSC / ONG,"Av. Ferrocarril Pte. #60, Barrio ""La Soledad"" C.P. 70110,Ciudad Ixtepec, Oaxaca",redes
 Albergue infantil La Esperanza ,Centros de Atención Social,14.9249056,-92.2560801,"(14.9249056, -92.2560801)",OSC / ONG,"3ra. Calle Ote. #37, Col. Centro C.P. 30830,Tapachula, Chiapas",redes
" Centro de Atención a niñas, niños y jóvenes migrantes ",Centros de Atención Social,14.9185043,-92.2514658,"(14.9185043, -92.2514658)",OSC / ONG,"Calle Quinta, Privada sur #29, esquina 4ta Oriente C.P. 30830,Tapachula, Chiapas",redes
 Albergue Diocesano Belén Congregación de los Misioneros de Scalabrini ,Centros de Atención Social,14.8878428,-92.2443866,"(14.8878428, -92.2443866)",OSC / ONG,"Miguel Hidalgo 94, Col. San Antonio Cahoacán, C.P. 30789,Tapachula, Chiapas",redes
 Hecate Society Tapachula ,Centros de Atención Social,14.8641054,-92.2885593,"(14.8641054, -92.2885593)",OSC / ONG,"No disponible,Tapachula, Chiapas",redes
 SEMIGRANTE (Tlazazalca) ,Centros de Atención Social,13.4312625,-86.8082896,"(13.4312625, -86.8082896)",OSC / ONG,"Interior Palacio Municipal S/N, Col. Centro, C.P. 58740,Tlazazalca, Michoacán",redes
 CAVI Centro de Atención a la Violencia Intrafamiliar ,Centros de Atención Social,23.22572888,-106.4208727,"23.225728881835092, -106.42087267170284",OSC / ONG,"Av. Ejército Mexicano 2017, Palos Prietos, 82010",redes
 Casa hogar para niñas Madre Conchita ,Centros de Atención Social,31.29090327,-110.9538632,"31.290903270914782, -110.95386316154821",OSC / ONG,"Tecnologico 33, Col. El Greco C.P. 84066,Nogales, Sonora",redes
" Albergue para migrantes San Juan Bosco, I.A.P. ",Centros de Atención Social,31.31668888,-110.9458534,"31.316688877431293, -110.94585342169722",OSC / ONG,"Montaño # 1063-A Colonia Municipal C.P. 84060,Nogales, Sonora",redes
 Centro Comunitario de Atención al Migrante y Necesitado (CCAMYN) ,Centros de Atención Social,30.71891158,-111.8394591,"30.71891158136058, -111.83945912332325",OSC / ONG,"Av. Gonzalo Celdain # 78 Colonia Buenos Aires, C.P. 83750,Altar, Sonora",redes
 Casa de Atención al Migrante El Santuario ,Centros de Atención Social,18.40556287,-92.48796682,"18.405562866415316, -92.48796682069982",OSC / ONG,"Capilla de Macuspana (Estación de tren),Macuspana, Tabasco",redes
 Hmnas de San José de Lyón (albergue Decanal Guadalupano) ,Centros de Atención Social,21.08140337,-97.37691806,"21.0814033717943, -97.37691806000707",OSC / ONG,"Calle Aldama #50, entre Tuxpan y Lafragua Tierra Blanca, Col. El Viejo, C.P. 95180,Tierra Blanca de Ignacio de la Llave, Veracruz",redes
 Casa del Migrante Diocesis de Coatzacoalcos A.C. ,Centros de Atención Social,18.12686362,-94.45159628,"18.12686362478155, -94.45159627545485",OSC / ONG,"Albergue para mujeres: Calle Soledad del Doblado, esquina Pascual Orozco, cerca del puente de Av.1 Coatzacoalcos,Coatzacoalcos, Veracruz",redes
 Casa del Migrante Diócesis de Coatzacoalcos A.C. ,Centros de Atención Social,18.12686362,-94.45159628,"18.12686362478155, -94.45159627545485",OSC / ONG,"Albergue para hombres: Río Pánuco s/n, entre Río Tuxpan y Río Calzadas, Col. Coatzacoalcos, (Albergue Diócesis de Coatzacoalcos), C.P. 96499,Coatzacoalcos, Veracruz",redes
 Instituto para el desarrollo de la cultura Maya del estado de Yucatán INDEMAYA ,Centros de Atención Social,20.96686275,-89.62718863,"20.966862749864823, -89.6271886312075",OSC / ONG,"Calle 66 num 532 x 63 y 65 col centro cp. 97000,Mérida, Yucatán",redes
" Centro de los Derechos del Migrante, Inc (CDM) ",Centros de Atención Social,22.77156717,-102.5720402,"22.77156716813732, -102.57204015999218",OSC / ONG,"Calle Víctor Rosales #164, Col. Centro, C.P. 98000,Zacatecas, Zacatecas",redes
" Federación Zacatecana, AC (FEDZAC) ",Centros de Atención Social,22.75498849,-102.5029034,"22.754988492374547, -102.5029033753335",OSC / ONG,"Francisco Villa #11 Colonia Revolucion Mexicana,Guadalupe, Zacatecas",redes
 Casa del Migrante Emaus ,Centros de Atención Social,29.32369093,-100.9266841,"29.32369092846942, -100.92668411190739",OSC / ONG,"Díaz Mirón 607,entre Gochicoa y Alarcón, Col. Casjal, C.P.89280,Tampico, Tamaulipas",redes
 Albergue del Migrante Nuestra Señora de Guadalupe A.C. ,Centros de Atención Social,26.09748892,-98.28658309,"26.097488922359098, -98.28658309057056",OSC / ONG,"Nogal-aldama 501, Col. Aquiles Serdan I, 88520 Reynosa, Tamaulipas, Mexico.,Reynosa, Tamaulipas",redes
 Casa San Juan Diego y San Francisco de Asís A.C. ,Centros de Atención Social,25.83720269,-97.48587506,"25.83720269152195, -97.48587505805104",OSC / ONG,"Avenida Golfo de México No. 49, Colonia Ampliación Solidaridad C.P. 87456,Matamoros, Tamaulipas",redes
 Casa del Migrante San Juan Diego y San Francisco de Asís A.C. ,Centros de Atención Social,25.83717372,-97.48606818,"25.837173722503493, -97.4860681770848",OSC / ONG,"Avenida Golfo de Mexico No. 48, Colonia Ampliación Solidaridad C.P. 87456,Matamoros, Tamaulipas",redes
 Un Mundo Una Nación A. C. ,Centros de Atención Social,19.41983484,-98.15381815,"19.41983484017355, -98.15381814531123",OSC / ONG,"6a Avenida No. 2903, Col. El Carmen,Apizaco, Tlaxcala",redes
 Albergue para migrantes “La Sagrada familia” ,Centros de Atención Social,19.4166882,-98.13201818,"19.41668819887568, -98.13201817542362",OSC / ONG,"3ª Privada Álvaro Obregón s/n, Col. Ferrocarrilera,Apizaco, Tlaxcala",redes
 Instituto Nacional de Salud Pública (INSP) ,Centros de Atención Social,19.30766112,-99.15713104,"19.307661117249285, -99.15713104206523",OSC / ONG,"Universidad No. 655 Colonia Santa María Ahuacatitlán, Cerrada Los Pinos y Caminera C.P. 62100, Cuernavaca, Morelos. México,Cuernavaca, Morelos",redes
 Migrante Hagamos un puente contigo SEDESO ,Centros de Atención Social,21.84124658,-102.289416,"21.841246576259923, -102.2894160446779",OSC / ONG,"Plan de Ayala número 825 Plaza Cristal local 26 y 27a 3er nivel Teopanzolco C.P. 62350 Cuernavaca, Morelos,Cuernavaca, Morelos",redes
 Albergue Obsidiana ,Centros de Atención Social,21.03953669,-104.3708381,"21.039536693030207, -104.37083813120552",OSC / ONG,"Calle Amado Nervo 164 A, Col. Everardo Peña Navarro C.P. 63940,Ixtlán del Río, Nayarit",redes
" Paso de Esperanza, A.C ",Centros de Atención Social,25.75485375,-100.3195801,"25.754853746152282, -100.3195801262908",OSC / ONG,"Condominio Acero, Oficina 612, Zaragoza 1000-B esq. con Ocampo,Monterrey, Nuevo León",redes
 Hogar de las Bienaventuranzas A.C. ,Centros de Atención Social,25.67542125,-100.293736,"25.675421250517655, -100.29373596174912",OSC / ONG,"Emilio Carranza 301 Norte Esquina con Alvino Espinoza, Col. Centro,Monterrey, Nuevo León",redes
 Hospedaje para trabajadores inmigrantes ,Centros de Atención Social,25.70279759,-100.3246175,"25.702797591094708, -100.32461753399133",OSC / ONG,"Aldama # 937 entre Ocampo e Hidalgo Colonia Centro,Monterrey, Nuevo León",redes
 Casa del Forastero Santa Martha ,Centros de Atención Social,25.69107496,-100.3198497,"25.6910749644798, -100.3198496733966",OSC / ONG,"José María Bocanegra Pte. No. 801 esquina con Amado Nervo Col. Industrial (Parroquia Santa Maria Goretti),Monterrey, Nuevo León",redes
 Casa de Migrantes Casa Nicolás Tolentino ,Centros de Atención Social,25.66444527,-100.2144739,"25.66444526706596, -100.21447390407916",OSC / ONG,"Emiliano Zapata 4417 esq. con Serafín Peña. Col. Guadalupe Victoria C.P. 67180,Ciudad Guadalupe, Nuevo León",redes
 Casa del Migrante de la Parroquia de Nuestra Señora de los Desamparados ,Centros de Atención Social,19.05750662,-98.20295176,"19.057506619570137, -98.20295175768045",OSC / ONG,"Av. 36 Poniente 3308, Col. Nueva Aurora, atrás de la Central de Autobuses, C.P. 42070,Puebla, Puebla",redes
 Estancia González y Martínez A.C ,Centros de Atención Social,20.50956805,-99.8631679,"20.50956805421331, -99.86316790238439",OSC / ONG,"Antigua Estación Bernal, Calle Juarez oriente C.P 76776,Tequisquiapan, Querétaro",redes
 Instituto del Rincón A.C. ,Centros de Atención Social,19.26749032,-99.60971699,"19.26749032038358, -99.60971698771078",OSC / ONG,"Avenida Morelos No. 124 CP 52440,Malinalco, Estado de México",redes
 Centro Casa Origen ,Centros de Atención Social,16.85862817,-99.84405793,"16.858628170478788, -99.84405792575916",OSC / ONG,"Unidad Habitacional Colosio, Condominio Obsidiana No. 51, Puerto Márquez, Acapulco, Guerrero. C.P. 39890,Acapulco, Guerrero",redes
 SEMIGRANTE (Zitácuaro) ,Centros de Atención Social,19.43719572,-100.3574278,"19.437195720786807, -100.35742777726968",OSC / ONG,"Interior Palacio Municipal, Ocampo Poniente No. 13, Col. Centro, C.P. 61500,Zitácuaro, Michoacán",redes
 SEMIGRANTE (Ziracuaretiro) ,Centros de Atención Social,19.41722747,-101.9104835,"19.417227465908454, -101.91048348891805",OSC / ONG,"Presidencia Municipal, Portal Matamoros S/N, Colonia Centro, C.P. 61700,Ziracuaretiro, Michoacán",redes
 SEMIGRANTE (Zinapécuaro) ,Centros de Atención Social,19.86008134,-100.827374,"19.860081342667428, -100.82737401404921",OSC / ONG,"Interior Casa de la Cultura, Av. Hidalgo No. 32, Col. Centro, C.P. 58930,Zinapécuaro, Michoacán",redes
 SEMIGRANTE (Zináparo) ,Centros de Atención Social,20.17343738,-101.9986624,"20.17343737715387, -101.9986624195805",OSC / ONG,"Interior Palacio Municipal, Calle Ruiseñor No. 01, Col. Centro, C.P. 59460,Zináparo, Michoacán",redes
 SEMIGRANTE (Zamora) ,Centros de Atención Social,19.98379936,-102.2859147,"19.983799358456796, -102.28591471773895",OSC / ONG,"Palacio Municipal, Guerrero Ote. No. 82, Col. Centro, C.P. 59600,Zamora, Michoacán",redes
 SEMIGRANTE (Zacapu) ,Centros de Atención Social,20.03953845,-102.346492,"20.039538446372063, -102.34649195636358",OSC / ONG,"Interior Oficina de Relaciones Exteriores, Allende No. 91-A, Col. Centro, C.P. 58600,Zacapu, Michoacán",redes
 SEMIGRANTE (Yurécuaro) ,Centros de Atención Social,20.33447907,-102.2843848,"20.334479072186323, -102.2843847523239",OSC / ONG,"Portal Hidalgo S/N, Col. Centro, C.P. 59250,Yurécuaro, Michoacán",redes
 Centro Crecer Solidaridad ,Centros de Atención Social,21.849846,-102.2466439,"21.8498460003076, -102.24664387535933",OSC / ONG,"Av. Mariano Hidalgo #102 Frac Solidaridad,Aguascalientes, Aguascalientes",redes
 Centro Crecer Primo Verdad ,Centros de Atención Social,21.90958392,-102.3186746,"21.90958391933778, -102.31867463302804",OSC / ONG,"Av. Guadalupe González #611 Col. Primo Verdad,Aguascalientes, Aguascalientes",redes
 Centro Crecer Mujeres Ilustres ,Centros de Atención Social,21.84713695,-102.2477187,"21.847136945969073, -102.24771871768894",OSC / ONG,"C. Ángela Peralta #228 esquina Margarita Maza de Juárez Fracc. Mujeres Ilustres,Aguascalientes, Aguascalientes",redes
 Centro Crecer Insurgentes ,Centros de Atención Social,21.84945298,-102.2474071,"21.849452984826073, -102.2474071346029",OSC / ONG,"Actualmente se cuenta con 26 centros CRECER distribuidos en todo el estado, funcionando con más de 72 clases o talleres, con alrededor de 25 000 beneficiarios mensuales.,Aguascalientes, Aguascalientes",redes
 Centro Crecer Pirules ,Centros de Atención Social,21.86795796,-102.3203422,"21.867957960070594, -102.32034220419399",OSC / ONG,"Actualmente se cuenta con 26 centros CRECER distribuidos en todo el estado, funcionando con más de 72 clases o talleres, con alrededor de 25 000 beneficiarios mensuales.,Aguascalientes, Aguascalientes",redes
 Centro Crecer Palomino Dena ,Centros de Atención Social,21.91666694,-102.2511348,"21.91666694380956, -102.25113481768703",OSC / ONG,"Gilberto López Velarde #314, Lic Benito Palomino Dena, C. P. 20172,Aguascalientes, Aguascalientes",redes
 Centro Crecer Miravalle ,Centros de Atención Social,21.89145522,-102.3110766,"21.891455218475574, -102.31107663118208",OSC / ONG,"Calle Felipe Ruiz de Chávez #614, Col. Miravalle, C. P. 20040,Aguascalientes, Aguascalientes",redes
 Centro Crecer Jesús Terán (Gómez Portugal) ,Centros de Atención Social,21.87361796,-102.2652612,"21.873617961976475, -102.26526116288083",OSC / ONG,"Av. Palmas Esq Olivos Fracc. Jesús Terán,Aguascalientes, Aguascalientes",redes
 SEMIGRANTE (Vista Hermosa) ,Centros de Atención Social,20.26309765,-102.4831407,"20.26309765, -102.48314072625244",GOB,"Interior Antigua Escuela de Los Hermanos, Av. Juarez S/N, Col. Centro, C.P. 59200,Vista Hermosa, Michoacán",redes
 SEMIGRANTE (Villamar) ,Centros de Atención Social,20.01856313,-102.5958204,"20.018563133595375, -102.59582040467002",GOB,"Interior Palacio Municipal S/N, Colonia Centro, C.P. 59550,Villamar, Michoacán",redes
 SEMIGRANTE (Venustiano Carranza) ,Centros de Atención Social,19.83345578,-101.1595697,"19.833455777489085, -101.15956970859158",GOB,"Interior Palacio Municipal, Hidalgo No. 2, Col. Centro, C.P. 59160,Venustiano Carranza, Michoacán",redes
 SEMIGRANTE (Uruapan) ,Centros de Atención Social,19.42428309,-102.0481507,"19.424283090830855, -102.04815069076427",GOB,"Av. Chiapas No. 93, Int. 201, Col. Ramon Farias, C.P. 60050,Uruapan, Michoacán",redes
 SEMIGRANTE (Tzitzio) ,Centros de Atención Social,19.6034684,-100.9221645,"19.603468403364726, -100.92216454067527",GOB,"Interior Palacio Municipal, Calle Allende S/N, Col. Centro, C.P. 61330,Tzitzio, Michoacán",redes
 SEMIGRANTE (Tzintzuntzan) ,Centros de Atención Social,19.63064956,-101.5732885,"19.630649558600776, -101.57328852047527",GOB,"Interior Palacio Municipal, Av. Yacatas No. 25, Col. Centro, Tzintzuntzan, Mich. C.P. 58440,Tzintzuntzan, Michoacán",redes
 SEMIGRANTE (Tuzantla) ,Centros de Atención Social,19.20775544,-100.5730013,"19.207755440157094, -100.57300131775845",GOB,"Av. Sixto Verduzco No. 06, Col. Centro, C.P. 61540,Tuzantla, Michoacán",redes
 SEMIGRANTE (Tuxpan) ,Centros de Atención Social,19.6936692,-101.1772821,"19.693669197078098, -101.17728210240551",GOB,"Interior Palacio Municipal, Av. Morelos No. 04, Col. Centro, C.P. 61420,Tuxpan, Michoacán",redes
 SEMIGRANTE (Turicato) ,Centros de Atención Social,19.05416285,-101.4193304,"19.05416284853995, -101.41933044844387",GOB,"Interior Palacio Municipal, Portal Manuel Muñiz S/N, Colonia Centro, C.P. 61680,Turicato, Michoacán",redes
 SEMIGRANTE (Tumbiscatio) ,Centros de Atención Social,"18.525716781883173,",-102.3754455,"18.525716781883173, -102.37544550833935",GOB,"Interior Presidencia Municipal, Kennedy No. 02, Col. Centro, C.P. 60900,Tumbiscatío, Michoacán",redes
 SEMIGRANTE (Tlalpujahua) ,Centros de Atención Social,19.80562401,-100.1726079,"19.8056240119838, -100.17260785510307",GOB,"Interior Palacio Municipal, Portal Centenario No. 04, Colonia Centro, C.P. 61060,Tlalpujahua, Michoacán",redes
 SEMIGRANTE (Tinguindin) ,Centros de Atención Social,19.73975743,-102.4867785,"19.73975743464277, -102.48677846046292",GOB,"Portal Hidalgo S/N, Colonia Centro, C.P. 59980,Tingüindín, Michoacán",redes
 SEMIGRANTE (Tingambato) ,Centros de Atención Social,19.52044487,-101.8487027,"19.520444872741958, -101.84870273767092",GOB,"Interior Palacio Municipal, Portal Hidalgo S/N, Colonia Centro, C.P. 60290,Tingambato, Michoacán",redes
 SEMIGRANTE (Tepalcatepec) ,Centros de Atención Social,19.19127674,-102.8438816,"19.191276742006306, -102.84388155854577",GOB,"Melchor Ocampo No. 145, Col. Centro, C.P. 60540,Tepalcatepec, Michoacán",redes
 SEMIGRANTE (Tarímbaro) ,Centros de Atención Social,19.76060664,-101.1823175,"19.760606643315857, -101.182317542887",GOB,"Interior Palacio Municipal, Hidalgo No. 11, Col. Centro, C.P. 58880,Tarímbaro, Michoacán",redes
 SEMIGRANTE (Taretan) ,Centros de Atención Social,19.33490674,-101.9172569,"19.334906742917298, -101.91725690610744",GOB,"Portal Ocampo No. 01, Col. Centro, C.P. 61710,Taretan, Michoacán",redes
 SEMIGRANTE (Tanhuato) ,Centros de Atención Social,20.31741824,-102.3646004,"20.317418235771505, -102.36460042763743",GOB,"Portal Hidalgo No. 19, Col. Centro, C.P. 59230,Tanhuato, Michoacán",redes
 SEMIGRANTE (Tangancícuaro) ,Centros de Atención Social,19.93332551,-102.2190452,"19.933325506032663, -102.21904516747676",GOB,"Dr. Miguel Silva No. 105, Colonia Centro, 59750,Tangancícuaro, Michoacán",redes
 SEMIGRANTE (Tangamandapio) ,Centros de Atención Social,20.02419252,-102.4212642,"20.02419251722886, -102.42126415303194",GOB,"Portal Hidalgo S/N, Colonia Centro, C.P. 59920,Tangamandapio, Michoacán",redes
 SEMIGRANTE (Tancítaro) ,Centros de Atención Social,17.99444045,-102.1879473,"17.994440449176533, -102.18794725342315",GOB,"Interior Palacio Municipal, Lazaro Cardenas S/N, Col. Centro, C.P. 60460,Tancítaro, Michoacán",redes
 SEMIGRANTE (Tacámbaro) ,Centros de Atención Social,19.23564698,-101.4576789,"19.235646979365235, -101.4576788637802",GOB,"Portal Marcos A. Jimenez S/N, Colonia Centro C.P. 61650,Tacámbaro, Michoacán",redes
 SEMIGRANTE (Susupuato) ,Centros de Atención Social,19.23002703,-100.4036143,"19.230027032690764, -100.40361431479852",GOB,"Interior Palacio Municipal, Vicente Guerrero No. 06, Colonia Centro, C.P. 61590,Susupuato, Michoacán",redes
 SEMIGRANTE (Senguio) ,Centros de Atención Social,19.73350132,-100.3522521,"19.73350132299265, -100.35225207328463",GOB,"Hidalgo No. 01, Col. Centro, C.P. 61290,Senguio, Michoacán",redes
 SEMIGRANTE (Santa Ana Maya) ,Centros de Atención Social,20.01009482,-101.0204836,"20.010094823576015, -101.02048356191426",GOB,"Lazaro Cardenas Nte. S/N, Col. Centro, C.P. 58900,Santa Ana Maya, Michoacán",redes
 SEMIGRANTE (San Lucas) ,Centros de Atención Social,18.59127711,-100.7839582,"18.591277107020066, -100.78395824660869",GOB,"Av. Servando Chavez No. 01, Col. Centro, C.P. 61980,San Lucas, Michoacán",redes
 SEMIGRANTE (Salvador Escalante) ,Centros de Atención Social,19.41823584,-101.639782,"19.418235839273642, -101.63978195057119",GOB,"Allende No. 56, Colonia Centro, C.P. 61800, Santa Clara,Salvador Escalante, Michoacán",redes
 SEMIGRANTE (Sahuayo) ,Centros de Atención Social,20.05736343,-102.7167869,"20.057363434787746, -102.71678691773693",GOB,"Palacio Municipal, Boulevard Lazaro Cardenas, Esq. Constitucion S/N, Col. Centro, C.P. 59000,Sahuayo, Michoacán",redes
 SEMIGRANTE (Puruándiro) ,Centros de Atención Social,20.08837525,-101.515336,"20.088375251888184, -101.51533597540663",GOB,"Portal Hidalgo No. 70, Colonia Centro, C.P. 58502,Puruándiro, Michoacán",redes
 SEMIGRANTE (Purépero) ,Centros de Atención Social,19.91025488,-102.0069323,"19.910254882695646, -102.0069323195872",GOB,"Interior Palacio Municipal, Alvaro Obregon S/N, Col. Centro, C.P. 58760,Purépero, Michoacán",redes
 SEMIGRANTE (Peribán) ,Centros de Atención Social,19.53035925,-102.4162333,"19.530359251271122, -102.41623330011139",GOB,"Ocampo No. 01, Colonia Centro, C.P. 60440,Peribán, Michoacán",redes
 SEMIGRANTE (Penjamillo) ,Centros de Atención Social,20.10447616,-101.9335652,"20.10447615767848, -101.93356520424143",GOB,"Morelos No. 07, Colonia Centro, C.P. 59470,Penjamillo, Michoacán",redes
 SEMIGRANTE (Pátzcuaro) ,Centros de Atención Social,19.51382027,-101.6097285,"19.513820271328946, -101.60972850241",GOB,"Portal Hidalgo No. 01, Col. Centro, C.P. 61600,Pátzcuaro, Michoacán",redes
 SEMIGRANTE (Paracuaro) ,Centros de Atención Social,19.53110882,-101.6208293,"19.531108819115957, -101.6208292990805",GOB,"Portal Hidalgo No. 34, Col. Centro, C.P. 60760,Parácuaro, Michoacán",redes
 SEMIGRANTE (Panindícuaro) ,Centros de Atención Social,19.98427122,-101.7615044,"19.984271220670493, -101.76150437725572",GOB,"Portal Hidalgo No. 01, Col. Centro, C.P. 58570,Panindícuaro, Michoacán",redes
 Centro Crecer Jesús María Jonacatique ,Centros de Atención Social,21.8727297,-102.2757964,"21.872729702898518, -102.27579643091512",OSC / ONG,"C. Diego Flores #126 Fracc. Solar de Jonacatique,Aguascalientes, Aguascalientes",redes
 Centro Crecer Guadalupe Peralta ,Centros de Atención Social,21.86744488,-102.2390822,"21.867444876318494, -102.23908224467718",OSC / ONG,"Av. La Salud #302 esquina Catedráticos Fracc. J. Guadalupe Peralta,Aguascalientes, Aguascalientes",redes
 Centro Crecer Cosío ,Centros de Atención Social,21.85895467,-102.2540634,"21.858954667350293, -102.25406339623915",OSC / ONG,"Pról. Esteban Castorena S/N a un costado de Seguridad Pública,Aguascalientes, Aguascalientes",redes
 Centro Crecer Tepezalá ,Centros de Atención Social,22.21902162,-102.1642429,"22.219021619775926, -102.16424290233766",OSC / ONG,"Av. 12 de Diciembre S/N Unidad Deportiva Blvd. Granados Roldán,Aguascalientes, Aguascalientes",redes
 Enclave Caracol ,Centros de Atención Social,32.5370643,-117.036046,"32.537064302137814, -117.03604600198183",OSC / ONG,"1er Andador 8250 CP 22000,Tijuana, Baja California",redes
 Programa de Repatriación Humana (Módulo Tijuana) ,Centros de Atención Social,32.53808867,-117.0368087,"32.53808866962532, -117.03680867686685",OSC / ONG,"Garita Internacional El Chaparral, S/N, Col. Federal, C.P. 22010,Tijuana, Baja California",redes
"Movimiento JUVENTUD2000, Secc. Tijuana A. C.",Centros de Atención Social,32.54048862,-117.0393266,"32.54048862004563, -117.03932655965212",OSC / ONG,"Av. Constitución #205, esquina con Fernando Sanchez Ayala, Zona Norte CP 22000,Tijuana, Baja California",redes
" Federación de Asociaciones Cristianas de Jóvenes de la República Mexicana, A.C. ""Casas YMCA para menores Migrantes"" ",Centros de Atención Social,32.51394463,-117.0212405,"32.51394462917329, -117.02124045411387",OSC / ONG,"Blvd. Cuauhtémoc Sur # 3170 Colonia Chula Vista CP 22410,Tijuana, Baja California",redes
 Centro Binacional de Derechos Humanos A.C. ,Centros de Atención Social,32.505976,-116.9497659,"32.50597599533705, -116.94976588180496",OSC / ONG,"Avda. Paseo del Centenario # 3-B Oficina 11 Zona Río Tijuana contraesquina de Palacio Municipal CP 22320,Tijuana, Baja California",redes
 Instituto Madre Assunta ,Centros de Atención Social,32.52378451,-117.0008055,"32.523784513320905, -117.00080550198237",OSC / ONG,"Calle Galileo # 2305 Colonia Postal CP 22416,Tijuana, Baja California",redes
" Casa del Migrante en Tijuana, A.C. ",Centros de Atención Social,32.52290054,-117.0016623,"32.522900536852624, -117.00166234615841",OSC / ONG,"Calle Galileo # 239 Colonia Postal CP 22416,Tijuana, Baja California",redes
" Agencia Familiar Binacional, AC (AFABI) ",Centros de Atención Social,32.54132743,-117.0183359,"32.54132743314643, -117.01833588646353",OSC / ONG,"Av. Mexico No. 8281 Int. 7-8, Zona Centro CP 22000,Tijuana, Baja California",redes
 Casa del Migrante Nuestra Señora de Guadalupe ,Centros de Atención Social,32.52467068,-116.9997965,"32.52467067721813, -116.99979650668384",OSC / ONG,"Sta. Teresa 1398, El Descanso C.P. 21478,Tijuana, Baja California",redes
" Casa de Oración del Migrante, A.C. ",Centros de Atención Social,32.53060863,-116.9979549,"32.53060863004633, -116.99795485965251",OSC / ONG,"735 Carlota Sosa y 1ra Sur Esquina de Carlota Sosa, Colonia Anexa del Río,Tijuana, Baja California",redes
 INM Grupo Beta Mexicali ,Centros de Atención Social,32.69302834,-115.4913031,"32.69302833969529, -115.49130311866628",OSC / ONG,"Av. Melgar No. 1, Garita, Centro Cívico, 21000 Mexicali, B.C.,Tijuana, Baja California",redes
" Módulo Fronterizo ""Juntos en el Camino"" ",Centros de Atención Social,32.62370026,-115.4428449,"32.62370025694043, -115.44284486059425",OSC / ONG,"Garita número 1, Carretera Mexicali-Calexico, Módulo # 3,Mexicali, Baja California",redes
 Grupo de Ayuda para el Migrante de Mexicali A.C. ,Centros de Atención Social,32.65625303,-115.4983419,"32.65625302822536, -115.49834185226172",OSC / ONG,"Av. Michoacan #1377, entre la 5ta y 6ta, Col. Pueblo Nuevo C.P. 21120,Mexicali, Baja California",redes
 El camino a un Nuevo Amanecer ,Centros de Atención Social,32.62655285,-115.3650196,"32.62655284800146, -115.36501956672195",OSC / ONG,"Pte. Canal Pacifico , km 15, 5 Ej. Hipolito Renteria,Mexicali, Baja California",redes
" Casa de Oración del Migrante, A.C. ",Centros de Atención Social,32.60976727,-115.4336842,"32.609767272951366, -115.43368415942778",OSC / ONG,"Niños Héroes 981, Col. General Jesús Munguia, C.P.22840,Ensenada, Baja California",redes
 Centro de Derechos Humanos Fray Matías de Córdova CDHFMC ,Centros de Atención Social,14.90733344,-92.26514191,"14.907333443702749, -92.26514191046743",OSC / ONG,"Cuarta Avenida Sur #6, Col. Los Naranjos, Centro C.P. 30830,Tapachula, Chiapas",redes
 Albergue Jesús el buen pastor ,Centros de Atención Social,14.86570289,-92.31319493,"14.86570289342213, -92.31319493376516",OSC / ONG,"Carretera a Raymundo Enrique, 500 metros hacia dentro. C.P. 30700,Tapachula, Chiapas",redes
 Casa del Migrante Hogar de la Misericordia ,Centros de Atención Social,16.26845702,-93.88857735,"16.26845702122753, -93.8885773471182",OSC / ONG,"Calle Quinta Sur #1420, Col. Playa Fina C.P. 30450,Arriaga, Chiapas",redes
 Programa YMCA de Desarrollo Comunitario y Asistencia Social. Casas YMCA para Menores Migrantes ,Centros de Atención Social,31.73043212,-106.4833476,"31.73043212084702, -106.483347564748",OSC / ONG,"Mariana Varela 191, Col. Chavena, Cd Juarez CP 32060,Ciudad Juárez, Chihuahua",redes
 Casa del Migrante en Juárez A.C. ,Centros de Atención Social,31.68209526,-106.3777248,"31.682095263781136, -106.377724846192",OSC / ONG,"Calle Neptuno # 1855 Colonia Satélite CP 32540,Ciudad Juárez, Chihuahua",redes
 Ejército de Salvación A.C. Centro Comunitario y Comedor Infantil ,Centros de Atención Social,28.70883554,-100.5215168,"28.70883553513272, -100.52151680212825",OSC / ONG,"Victoria # 805 Col. Mundo Nuevo CP 26092,Piedras Negras, Coahuila",redes
" Casa YMCA Piedras Negras Programa YMCA de Desarrollo Comunitario y Asistencia Social, A.C. ",Centros de Atención Social,28.71125487,-100.5181877,"28.7112548731137, -100.518187705821",OSC / ONG,"Xicotencatl Norte # 1802 A Col. Mundo Nuevo CP 26010,Piedras Negras, Coahuila",redes
 CAFEMIN ,Centros de Atención Social,19.46399064,-99.13008302,"19.463990642966152, -99.1300830177521",OSC / ONG,"Constantino #251, Col. Vallejo CP 7870,Delegación Gustavo A. Madero, Ciudad de México",redes
 Pro Ayuda a la Mujer Origen A.C. ,Centros de Atención Social,19.42030352,-99.20532622,"19.420303521338372, -99.20532621959964",OSC / ONG,"Juan O´Donojú 221 Lomas Virreyes, Lomas de Chapultepec IV Secc. CP 11000,Delegación Miguel Hidalgo, Ciudad de México",redes
" Casa Refugiados, AC ",Centros de Atención Social,19.40998157,-99.15644468,"19.409981573029803, -99.1564446772703",OSC / ONG,"Prolongacion Orizaba s/n, dentro del Parque Ramon Lopez Velarde,Delegación Cuauhtémoc, Ciudad de México",redes
 Instituto de Liderazgo Simone de Beauvoir (ILSB) ,Centros de Atención Social,19.41987063,-99.1564017,"19.41987063241683, -99.15640170241237",OSC / ONG,"Tabasco 68 Int. 3, col. Roma,Delegación Cuauhtémoc, Ciudad de México",redes
 Fundación Fraternidad Sin Frontera IAP ,Centros de Atención Social,19.30102127,-99.10092886,"19.301021269355196, -99.10092886008574",OSC / ONG,"Canal Nacional 1057, Coapa, Villa Quietud,Delegación Coyoacán, Ciudad de México",redes
" Iniciativa Ciudadana y Desarrollo Social, AC (Incide Social) ",Centros de Atención Social,19.38415196,-99.14045527,"19.384151957378783, -99.14045527357807",OSC / ONG,"Hilario Pérez de León No. 80, Col. Niños Héroes de Chapultepec,Delegación Benito Juárez, Ciudad de México",redes
 Adolescentes en el Camino ,Centros de Atención Social,19.47435005,-99.18267887,"19.474350054778117, -99.18267886919634",OSC / ONG,"Axopilco #5, Unidad Habitacional El Recreo, C.P. 02070,Delegación Azcapotzalco, Ciudad de México",redes
" Asociación Mexicana Pro Naciones Unidas, AC ",Centros de Atención Social,19.371541,-99.1938194,"19.371541003714587, -99.19381940426003",OSC / ONG,"Blvd. Adolfo López Mateos 1661 Edificio A12 Despacho 904 Col. Lomas de Plateros.CP 01480,Delegación Álvaro Obregón, Ciudad de México",redes
 The Rhizome Center for Migrants ,Centros de Atención Social,20.60851254,-103.3481204,"20.608512536167282, -103.3481204436785",OSC / ONG,"Contactar vía página web o por teléfono.,Guadalajara, Jalisco",redes
 Fundación Loyola A.C ,Centros de Atención Social,19.42209963,-99.16047264,"19.42209962977828, -99.16047263735624",OSC / ONG,"Mariano Matamoros # 75 Col. del Carmen,Delegación Coyoacán, Estado de México",redes
 Casa del migrante Galilea ,Centros de Atención Social,21.10733877,-101.6820344,"21.10733877155145, -101.6820344195557",OSC / ONG,"Calle Independencia 878 esquina con calle Río Balsas. Col. Barrio de San Miguel,León, Guanajuato",redes
 Servicios para una educación alternativa A.C. (EDUCA) ,Centros de Atención Social,17.08176541,-96.70567367,"17.081765405987426, -96.70567366780813",OSC / ONG,"Escuadrón 202 No. 203, Col. Antiguo Aeropuerto,Oaxaca, Oaxaca",redes
 HIAS Cd. Juárez ,Centros de Atención Social,31.74619643,-106.4602883,"31.74619642917563, -106.46028831550784",OSC / ONG,"Calle Henry Dunant 4505-oficina 2, Zona Pronaf Condominio La Plata, 32310 Cd Juárez, Chih.,Ciudad Juárez, Chihuahua",redes
 HIAS Nuevo Laredo ,Centros de Atención Social,27.48542415,-99.55008879,"27.485424149052818, -99.55008878604394",OSC / ONG,"Sin oficina por el momento, solo atención vía telefónica.,Nuevo Laredo, Tamaulipas",redes
 HIAS Matamoros ,Centros de Atención Social,25.87949846,-97.50376069,"25.879498459049987, -97.50376068873129",OSC / ONG,"Av. Tamaulipas 241, Jardín, 87330 Heroica Matamoros, Tamps.edificio RCM,Matamoros, Tamaulipas",redes
 SMR: Scalabrinianas Misión con Migrantes y Refugiados en Tapachula ,Centros de Atención Social,14.90972013,-92.25802443,"14.90972013237344, -92.25802442950108",OSC / ONG,"5ᵃ̵  Avenida Nte. 46, esquina con 9ª Oriente, Los Naranjos, Centro, 30830 Tapachula de Córdova y Ordoñez, Chiapas.,Tapachula, Chiapas",redes