name,descripcion,latitud,longitud,coordenadas,tipo,direccion,bd
Casa Migrante Camino a la Vida,Albergue / Alimentación / Compras,-102.3075858,21.8859981,,OSC / ONG,,ACNUR servicios
Cáritas Diocesana,Albergue / Alimentación / Compras,-102.3011164,21.8821255,,OSC / ONG,,ACNUR servicios
Parroquia De Las Tres Ave Marías,Albergue / Alimentación / Compras,-102.2950688,21.868025,,OSC / ONG,,ACNUR servicios
Comer del Abuelo,Albergue / Alimentación / Compras,-102.299825,21.8874131,,OSC / ONG,,ACNUR servicios
Comedor San Judas Tadeo,Albergue / Alimentación / Compras,-102.2957278,21.8938054,,OSC / ONG,,ACNUR servicios
Mercado Terán Juárez,Compras / Cultura y Recreación,-102.2966212,21.8845297,,OSC / ONG,,ACNUR servicios
Central de Abastos Aguascalientes,Compras / Cultura y Recreación,-102.2929618,21.8320703,,OSC / ONG,,ACNUR servicios
Instituto Municipal Aguascalentense para la Cultura,Compras / Cultura y Recreación,-102.2945313,21.8799223,,OSC / ONG,,ACNUR servicios
Instituto Cultural de Aguascalientes,Compras / Cultura y Recreación,-102.2991832,21.8812135,,OSC / ONG,,ACNUR servicios
Instituto del Deporte del Estado de Aguascalientes,Compras / Cultura y Recreación,-102.2717397,21.8806298,,OSC / ONG,,ACNUR servicios
Jardín de San Marcos,Compras / Cultura y Recreación,-102.303231,21.8795807,,OSC / ONG,,ACNUR servicios
Parque Rodolfo Landeros,Compras / Cultura y Recreación,-102.2915138,21.8516852,,OSC / ONG,,ACNUR servicios
Parque Ecologico El Cedazo,Compras / Cultura y Recreación,-102.2563303,21.8686361,,OSC / ONG,,ACNUR servicios
Centro de Justicia para Mujeres,Mujeres,-102.2528075,21.8668426,,OSC / ONG,,ACNUR servicios
Instituto Aguascalentense de la Mujer,Mujeres,-102.2806974,21.889146,,OSC / ONG,,ACNUR servicios
Instituto Municipal de la Mujer de Aguascalientes,Mujeres,-102.2919403,21.8850228,,OSC / ONG,,ACNUR servicios
DIF Municipal de Aguascalientes,Niñez y juventud,-102.310767,21.908612,,OSC / ONG,,ACNUR servicios
DIF Estatal Aguascalientes,Niñez y juventud,-102.309394,21.8676712,,OSC / ONG,,ACNUR servicios
"Procuraduría de Protección de Niñas, Niños y Adolescentes ",Niñez y juventud,-102.3095092,21.8678745,,OSC / ONG,,ACNUR servicios
Instituto Municipal de la Juventud,Niñez y juventud,-102.295057,21.8815815,,OSC / ONG,,ACNUR servicios
Centenario Hospital Miguel Hidalgo,Salud,-102.2825251,21.8947652,,OSC / ONG,,ACNUR servicios
Instituto Mexicano del Seguro Social (IMSS),Salud,-102.2969018,21.8704618,,OSC / ONG,,ACNUR servicios
Centro Ambulatorio para la Prevenciòn y Atención del VIH/SIDA (CAPASITS),Salud,-102.2550007,21.8575533,,OSC / ONG,,ACNUR servicios
Cruz Roja,Salud,-102.3032217,21.8613155,,OSC / ONG,,ACNUR servicios
Servicio Nacional de Empleo Aguascalientes,Institucion pública / Educación / Empleo,-102.2983128,21.8589705,,OSC / ONG,,ACNUR servicios
Proyecto Habesha,Institucion pública / Educación / Empleo,-102.3002149,21.8807825,,OSC / ONG,,ACNUR servicios
IEA Instituto de Educación de Aguascalientes,Institucion pública / Educación / Empleo,-102.2536985,21.8719461,,OSC / ONG,,ACNUR servicios
Instituto para la Educación de las Personas Jóvenes y Adultas (INEPJA),Institucion pública / Educación / Empleo,-102.2971792,21.8699055,,OSC / ONG,,ACNUR servicios
Instituto Aguascalentense de la Juventud,Institucion pública / Educación / Empleo,-102.2628415,21.8696464,,OSC / ONG,,ACNUR servicios
Oficina de Atención al Migrante,Institucion pública / Educación / Empleo,-102.294916,21.8782219,,OSC / ONG,,ACNUR servicios
Instituto Nacional de Migración ,Institucion pública / Educación / Empleo,-102.3264611,21.9400366,,OSC / ONG,,ACNUR servicios
Secretaría de Bienestar,Institucion pública / Educación / Empleo,-102.2794489,21.8384489,,OSC / ONG,,ACNUR servicios
Comisión Estatal de Derechos Humanos,Justicia / Derechos Humanos / Seguridad,-102.3023486,21.8644747,,OSC / ONG,,ACNUR servicios
Instituto Federal de la Defensoría Pública (IFDP),Justicia / Derechos Humanos / Seguridad,-102.3051088,21.8590472,,OSC / ONG,,ACNUR servicios
Instituto de Asesoría y Defensoría Pública del Estado de Aguascalientes,Justicia / Derechos Humanos / Seguridad,-102.2902495,21.8855849,,OSC / ONG,,ACNUR servicios
Fiscalía General del Estado,Justicia / Derechos Humanos / Seguridad,-102.282492,21.880829,,OSC / ONG,,ACNUR servicios
Bomberos,Justicia / Derechos Humanos / Seguridad,-102.2553556,21.8750136,,OSC / ONG,,ACNUR servicios
ACNUR La Agencia de la ONU para los Refugiados,Organismos Internacionales,-102.2949742,21.8782219,,OSC / ONG,,ACNUR servicios
Aeropuerto Internacional de Aguascalientes,Transporte,-102.3162276,21.701298,,OSC / ONG,,ACNUR servicios
Terminal de autobuses Aguascalientes,Transporte,-102.2989623,21.8657368,,OSC / ONG,,ACNUR servicios
Colectivo SERGAY de Aguascalientes A. C. ,LGBTI,-102.2717588,21.8741711,,OSC / ONG,,ACNUR servicios
Comedor de Caritas A.C. ,Albergue y Alimentación,-94.8870046,17.9258019,,OSC / ONG,,ACNUR servicios
Casa del Migrante Monseñor Guillermo Ranzahuer,Albergue y Alimentación,-94.9017573,17.9326714,,OSC / ONG,,ACNUR servicios
ACNUR Agencia de la ONU para los Regufiados,Organismos Internacionales y de la Sociedad Civil,-94.9162539,17.9535286,,OSC / ONG,,ACNUR servicios
Asylum Access ,Organismos Internacionales y de la Sociedad Civil,-94.9187904,17.9551804,,OSC / ONG,,ACNUR servicios
RET,Organismos Internacionales y de la Sociedad Civil,-94.9189622,17.9553111,,OSC / ONG,,ACNUR servicios
"Procuraduría Municipal de Protección a Niilas, Niilos y Adolescentes",Niñez,-94.921806,17.9526937,,OSC / ONG,,ACNUR servicios
"Procuraduría Municipal de Protección a Ninas, Niíios y Adolescentes",Niñez,-94.8979305,17.9279498,,OSC / ONG,,ACNUR servicios
Instituto Municipal de la Mujer,Mujeres,-94.9140116,17.9489541,,OSC / ONG,,ACNUR servicios
Estación Migratoria de Acayucan - INM - Instituto Nacional de Migración,Instituciones Públicas,-94.9217003,18.0017518,,OSC / ONG,,ACNUR servicios
COMAR - Comisión Mexicana de Ayuda a Refugiados,Instituciones Públicas,-94.9222498,18.0016465,,OSC / ONG,,ACNUR servicios
Dirección Municipal de Atención a Migrantes,Instituciones Públicas,-94.9136816,17.9489039,,OSC / ONG,,ACNUR servicios
Fiscalía Especializada en Atención a Migrantes,Instituciones Públicas,-94.9137246,17.948613,,OSC / ONG,,ACNUR servicios
Consulado de Honduras en Acayucan,Consulados,-94.9140625,17.9486538,,OSC / ONG,,ACNUR servicios
Consulado de EI Salvador,Consulados,-94.9103659,17.9565032,,OSC / ONG,,ACNUR servicios
Consulado de Guatemala ,Consulados,-94.9085382,17.950305,,OSC / ONG,,ACNUR servicios
Hospital Oluta Acayucan,Salud,-94.9057116,17.9325805,,OSC / ONG,,ACNUR servicios
Cruz Roja Delegación Acayucan,Salud,-94.9119019,17.9478892,,OSC / ONG,,ACNUR servicios
Central Camionera de Acayucan,Transporte,-94.9047638,17.9479436,,OSC / ONG,,ACNUR servicios
Cancha la Malinche ,Deporte y Cultura,-94.9065636,17.9320265,,OSC / ONG,,ACNUR servicios
"Unidad Deportiva ""El Greco""",Deporte y Cultura,-94.9209507,17.9366139,,OSC / ONG,,ACNUR servicios
Casa De La Cultura,Deporte y Cultura,-94.9109158,17.9434801,,OSC / ONG,,ACNUR servicios
Comisión Estatal de Derechos Humanos - Delegación Étnica Acayucan,Derechos Humanos,-94.9109558,17.950808,,OSC / ONG,,ACNUR servicios
"Centro de capacitación y comedor
comunitario",Alimentación,-86.828961,21.164304,,OSC / ONG,,ACNUR servicios
Instituto Nacional de Migración,Instituciones Públicas,-86.8242232,21.1633073,,OSC / ONG,,ACNUR servicios
Dirección de la Coordinación de Registro Civil en Cancún,Instituciones Públicas,-86.8280649,21.161914,,OSC / ONG,,ACNUR servicios
Sistema para el Desarrollo Integral de la Familia (DIF),Instituciones Públicas,-86.8676262,21.1627212,,OSC / ONG,,ACNUR servicios
Delegación de la Secretaria de Relaciones Exteriores,Instituciones Públicas,-86.8242135,21.1587674,,OSC / ONG,,ACNUR servicios
Secretaria de Bienestar,Instituciones Públicas,-86.829181,21.1648091,,OSC / ONG,,ACNUR servicios
"Centro Especializado para la
Atención a la Violencia (CEAV)",Justicia / Derechos Humanos,-86.8382039,21.194886,,OSC / ONG,,ACNUR servicios
Comisión Ejecutiva de Atención a Víctimas (CEAVE),Justicia / Derechos Humanos,-86.8563519,21.1467667,,OSC / ONG,,ACNUR servicios
Instituto Federal de Defensoría Pública,Justicia / Derechos Humanos,-86.8537741,21.1481061,,OSC / ONG,,ACNUR servicios
Comisión Estatal de Derechos Humanos,Justicia / Derechos Humanos,-86.8265334,21.1535593,,OSC / ONG,,ACNUR servicios
"Instituto Quintanarroense de la Mujer
(IQM)",Mujeres,-86.8241068,21.1677611,,OSC / ONG,,ACNUR servicios
Centro de Justicia para las Mujeres de Cancún ,Mujeres,-86.862792,21.1628257,,OSC / ONG,,ACNUR servicios
Fiscalía Especializada para la Atención de Delitos contra la Mujer y por razones de Género ,Mujeres,-86.8632886,21.1629238,,OSC / ONG,,ACNUR servicios
Servicio Estatal de Empleo y Capacitación para el Trabajo,Empleo y Educación,-86.8377789,21.1541099,,OSC / ONG,,ACNUR servicios
Centro de Capacitación para el Trabajo Industrial (CECATI) 119,Empleo y Educación,-86.8545789,21.1640206,,OSC / ONG,,ACNUR servicios
"Instituto Estatal para la Educación de
Jóvenes y Adultos (IEEA)",Empleo y Educación,-86.892417,21.148613,,OSC / ONG,,ACNUR servicios
Secretaria de Educación y Cultura,Empleo y Educación,-86.8210082,21.1696842,,OSC / ONG,,ACNUR servicios
"Hospital General De Cancún ""Jesús Kumate Rodriguez""",Hospitales,-86.8763503,21.1961633,,OSC / ONG,,ACNUR servicios
Central de Autobuses,Transporte,-86.8266457,21.164339,,OSC / ONG,,ACNUR servicios
Aeropuerto Internacional de Cancún,Transporte,-86.8740062,21.0417033,,OSC / ONG,,ACNUR servicios
Mercado 28,Compras,-86.8344996,21.1612911,,OSC / ONG,,ACNUR servicios
Instituto de la Cultura y las Artes,Cultura,-86.8272461,21.1694938,,OSC / ONG,,ACNUR servicios
Casa de Cultura Cancún,Cultura,-86.8334732,21.1524524,,OSC / ONG,,ACNUR servicios
Procuraduría de la Defensa del Trabajo,Justicia y Derechos Humanos,-88.2948119,18.5048083,,OSC / ONG,,ACNUR servicios
"Fiscalía especializada en delitos
cometidos en contra de los migrantes",Justicia y Derechos Humanos,-88.395465,18.4934448,,OSC / ONG,,ACNUR servicios
Comisión Estatal de los Derechos Humanos,Justicia y Derechos Humanos,-88.3098807,18.5056957,,OSC / ONG,,ACNUR servicios
"Grupos Especializados de Atención a
la Violencia de Género (GEAVIG)",Institución Pública,-88.3055254,18.5412705,,OSC / ONG,,ACNUR servicios
Instituto Nacional De Migración,Institución Pública,-88.3314752,18.5039935,,OSC / ONG,,ACNUR servicios
Hospital General de Chetumal,Salud,-88.3040718,18.5170703,,OSC / ONG,,ACNUR servicios
Hospital Materno Infantil Morelos,Salud,-88.298131,18.5020859,,OSC / ONG,,ACNUR servicios
Instituto Quintanarroense de la Mujer,"Mujer, niñez y juventud",-88.3071064,18.4968688,,OSC / ONG,,ACNUR servicios
"Unidad de Especialidad Médica para
la Detección y Diagnóstico del Cáncer
de Mama (UNEME)","Mujer, niñez y juventud",-88.3468928,18.5078414,,OSC / ONG,,ACNUR servicios
DIF Municipal ,"Mujer, niñez y juventud",-88.3049895,18.4971866,,OSC / ONG,,ACNUR servicios
"Club de la Tercera Edad Antonia
Madrid Viuda de Villanueva",Adultos Mayores,-88.2892481,18.5077304,,OSC / ONG,,ACNUR servicios
Instituto Nacional del Adulto Mayor (INAPAM),Adultos Mayores,-88.3093464,18.5081598,,OSC / ONG,,ACNUR servicios
Servicio Estatal del Empleo y Capacitación para el Trabajo,Empleo,-88.2947944,18.5045097,,OSC / ONG,,ACNUR servicios
Museo de la Ciudad de Chetumal,Cultura,-88.2966366,18.5014723,,OSC / ONG,,ACNUR servicios
Museo de la Cultura Maya,Cultura,-88.2954615,18.5039678,,OSC / ONG,,ACNUR servicios
Mercado Lazaro Cardenas,Compras,-88.2891517,18.514348,,OSC / ONG,,ACNUR servicios
Mercado Municipal Chetumal,Compras,-88.2961093,18.5035249,,OSC / ONG,,ACNUR servicios
"Ventanilla Única de Atención a
Migrantes",Orientación y Apoyo,-88.3043312,18.4976244,,OSC / ONG,,ACNUR servicios
Terminal de Autobuses de Chetumal,Transporte,-88.3135849,18.5188127,,OSC / ONG,,ACNUR servicios
Aeropuerto Internacional de Chetumal,Transporte,-88.3242963,18.5063952,,OSC / ONG,,ACNUR servicios
La Panza Es Primero,Albergues y alimentación,-99.1018578,19.3950474,,OSC / ONG,,ACNUR servicios
Centro de Justicia para las Mujeres de la Ciudad de México,Mujeres y Violencia sexual,-99.1853858,19.500868,,OSC / ONG,,ACNUR servicios
Centro de Justicia para las Mujeres de la Ciudad de México - Iztapalapa ,Mujeres y Violencia sexual,-98.9967294,19.3430274,,OSC / ONG,,ACNUR servicios
Centro de Atención a la violencia Intrafamiliar C.A.V.I.,Mujeres y Violencia sexual,-99.1477185,19.4242043,,OSC / ONG,,ACNUR servicios
Fiscalía Especial Para Los Delitos De Violencia Contra Las Mujeres Y Trata De Personas,Mujeres y Violencia sexual,-99.1755039,19.4259855,,OSC / ONG,,ACNUR servicios
Secretaría de las Mujeres de la Ciudad de México,Mujeres y Violencia sexual,-99.1489664,19.4319583,,OSC / ONG,,ACNUR servicios
Salud Integral Para La Mujer/SIPAM,Mujeres y Violencia sexual,-99.1469215,19.3584762,,OSC / ONG,,ACNUR servicios
Vifac CDMX,Mujeres y Violencia sexual,-99.1914825,19.353301,,OSC / ONG,,ACNUR servicios
ADIVAC,Mujeres y Violencia sexual,-99.1591847,19.4490524,,OSC / ONG,,ACNUR servicios
Agencias del Ministerio Público Especializada en Delitos Sexuales,Mujeres y Violencia sexual,-99.1649836,19.425347,,OSC / ONG,,ACNUR servicios
Agencias del Ministerio Público Especializada en Delitos Sexuales,Mujeres y Violencia sexual,-99.1119607,19.4202269,,OSC / ONG,,ACNUR servicios
Agencias del Ministerio Público Especializada en Delitos Sexuales,Mujeres y Violencia sexual,-99.0410315,19.3819229,,OSC / ONG,,ACNUR servicios
Agencias del Ministerio Público Especializada en Delitos Sexuales,Mujeres y Violencia sexual,-99.1465851,19.4843399,,OSC / ONG,,ACNUR servicios
Agencias del Ministerio Público Especializada en Delitos Sexuales,Mujeres y Violencia sexual,-99.1476366,19.4244238,,OSC / ONG,,ACNUR servicios
Centro de Terapia de Apoyo a Víctimas de Delitos Sexuales - FGJCDMX,Mujeres y Violencia sexual,-99.1610558,19.3811871,,OSC / ONG,,ACNUR servicios
Centro Cultural Jauría Trans,LGBTI,-99.1563611,19.4166225,,OSC / ONG,,ACNUR servicios
UNADIS “Espacia Arcosiris”,LGBTI,-99.1552242,19.4009162,,OSC / ONG,,ACNUR servicios
Centro Comunitario de Atención a la Diversidad Sexual,LGBTI,-99.16407,19.4271088,,OSC / ONG,,ACNUR servicios
Centros de Estancia Transitoria para Niños y Niñas,Niñez y juventud,-99.1473557,19.4236291,,OSC / ONG,,ACNUR servicios
Defensoría de los Derechos de la Infancia - DIF,Niñez y juventud,-99.1627104,19.3654832,,OSC / ONG,,ACNUR servicios
REDIM Red por los Derechos de la Infancia en Mexico,Niñez y juventud,-99.1629498,19.3609104,,OSC / ONG,,ACNUR servicios
Procudaduría Federal de Protección de NNA,Niñez y juventud,-99.1585382,19.3666437,,OSC / ONG,,ACNUR servicios
Instituto para el Envejecimiento Digno (INED),Adultos mayores,-99.1335522,19.4190858,,OSC / ONG,,ACNUR servicios
Comisión Nacional de los Derechos Humanos de México (CNDH),Derechos humanos / Justicia,-99.2205517,19.3217777,,OSC / ONG,,ACNUR servicios
Consejo para Prevenir y Eliminar la Discriminación de la Ciudad de México - COPRED,Derechos humanos / Justicia,-99.1517443,19.4294776,,OSC / ONG,,ACNUR servicios
Comisión de Derechos Humanos de la Ciudad de México - CDHCDMX,Derechos humanos / Justicia,-99.1747784,19.3550495,,OSC / ONG,,ACNUR servicios
Consejo Nacional Para Prevenir la Discriminación - CONAPRED,Derechos humanos / Justicia,-99.1697128,19.4229242,,OSC / ONG,,ACNUR servicios
CEAVI-Comisión Ejecutiva de Atención a Víctimas de la Ciudad de México,Derechos humanos / Justicia,-99.1374683,19.4372945,,OSC / ONG,,ACNUR servicios
Agencia especializada para la atención de personas adultas mayores víctimas de violencia familiar,Derechos humanos / Justicia,-99.1476366,19.4244238,,OSC / ONG,,ACNUR servicios
Consejo Ciudadano de Seguridad y Justicia de la Ciudad de México - CCSJCM,Derechos humanos / Justicia,-99.1649836,19.425347,,OSC / ONG,,ACNUR servicios
Fiscalía General de Justicia de la CDMX,Derechos humanos / Justicia,-99.1471914,19.4245285,,OSC / ONG,,ACNUR servicios
Fiscalía de Investigación de Delitos cometidos en agravio de grupos de Atención Prioritaria ,Derechos humanos / Justicia,-99.1476366,19.4244238,,OSC / ONG,,ACNUR servicios
Instituto Federal de Defensoría Pública,Derechos humanos / Justicia,-99.1502992,19.4337905,,OSC / ONG,,ACNUR servicios
Fiscalía de Investigación de los delitos de materia de Trata de Personas ,Derechos humanos / Justicia,-99.1473881,19.4243727,,OSC / ONG,,ACNUR servicios
Agencia Especializada en Atención a Personas LGBTTTI+,Derechos humanos / Justicia,-99.1476366,19.4244238,,OSC / ONG,,ACNUR servicios
Comisión Mexicana de Ayuda a Refugiados (COMAR),Institución Pública,-99.1549989,19.4300651,,OSC / ONG,,ACNUR servicios
Instituto Nacional de Migración (INM),Institución Pública,-99.2028128,19.4379497,,OSC / ONG,,ACNUR servicios
Secretaría de Trabajo y Fomento al Empleo - STyFE,Institución Pública,-99.1333393,19.4213098,,OSC / ONG,,ACNUR servicios
Instituto Nacional de Migración - INM - Oficinas Centrales,Institución Pública,-99.2113014,19.4368852,,OSC / ONG,,ACNUR servicios
INM - Estación Migratoria - Las Agujas,Institución Pública,-99.0832561,19.3162704,,OSC / ONG,,ACNUR servicios
Secretaría de Inclusión y Bienestar Social -SIBISO,Institución Pública,-99.13355,19.4191333,,OSC / ONG,,ACNUR servicios
Instituto de Atención a Poblaciones Prioritarias - IAPP,Institución Pública,-99.13355,19.4191333,,OSC / ONG,,ACNUR servicios
"ACNUR, Alto Comisionado de las Naciones Unidas para los Refugiados",Organismos internacionales y Organizaciones de la Sociedad Civil,-99.1806946,19.4311148,,OSC / ONG,,ACNUR servicios
"OIM, Organización Internacional para las Migraciones",Organismos internacionales y Organizaciones de la Sociedad Civil,-99.2045732,19.4266104,,OSC / ONG,,ACNUR servicios
HIAS CDMX,Organismos internacionales y Organizaciones de la Sociedad Civil,-99.1805705,19.3994366,,OSC / ONG,,ACNUR servicios
Programa Casa Refugiados (PCR),Organismos internacionales y Organizaciones de la Sociedad Civil,-99.1840953,19.4006288,,OSC / ONG,,ACNUR servicios
Sin Fronteras IAP,Organismos internacionales y Organizaciones de la Sociedad Civil,-99.1944891,19.3770423,,OSC / ONG,,ACNUR servicios
"Clínica Jurídica Alaíde Foppa, Universidad Iberoamericana ",Organismos internacionales y Organizaciones de la Sociedad Civil,-99.2638998,19.3697998,,OSC / ONG,,ACNUR servicios
"Asistencia y Orientación para la Movilidad Humana, Asmovilidad A.C",Organismos internacionales y Organizaciones de la Sociedad Civil,-99.1632014,19.3623376,,OSC / ONG,,ACNUR servicios
Adevi Centro de Apoyo Sociojurídico a Víctimas de Delito Violento,Organismos internacionales y Organizaciones de la Sociedad Civil,-99.1485071,19.4252581,,OSC / ONG,,ACNUR servicios
Centro de Atención a Riesgos Victímales y Adicciones,Organismos internacionales y Organizaciones de la Sociedad Civil,-99.1485436,19.4252432,,OSC / ONG,,ACNUR servicios
FGJCDMX CIVA Centro de Investigación Victimología y de Apoyo Operativo,Organismos internacionales y Organizaciones de la Sociedad Civil,-99.1459335,19.4193642,,OSC / ONG,,ACNUR servicios
Fortaleza IAP,Organismos internacionales y Organizaciones de la Sociedad Civil,-99.1245454,19.3847497,,OSC / ONG,,ACNUR servicios
IAPA - Instituto para la Atención y Prevención de las Adicciones,Organismos internacionales y Organizaciones de la Sociedad Civil,-99.1721745,19.3602409,,OSC / ONG,,ACNUR servicios
Servicio Jesuita a Migrantes México (SJM-México),Organismos internacionales y Organizaciones de la Sociedad Civil,-99.1608107,19.4220598,,OSC / ONG,,ACNUR servicios
Fundación Casa Alianza México I.A.P. Centro de Atención,Organismos internacionales y Organizaciones de la Sociedad Civil,-99.142221,19.4433486,,OSC / ONG,,ACNUR servicios
Hospital General de México “Dr. Eduardo Liceaga”,Salud,-99.1520225,19.4129258,,OSC / ONG,,ACNUR servicios
Clínica Especializada Condesa,Salud,-99.1823514,19.4089078,,OSC / ONG,,ACNUR servicios
"Clínica Especializada Condesa-Iztapalapa ""Dr. Jaime Sepúlveda Amor"" (CECI)",Salud,-99.0511908,19.3568424,,OSC / ONG,,ACNUR servicios
INSTITUTO DE CAPACITACIÓN PARA EL TRABAJO DE LA CIUDAD DE MÉXICO -ICAT,Educación,-99.1331668,19.4212658,,OSC / ONG,,ACNUR servicios
Instituto Nacional de Educación para Adultos - INEA ,Educación,-99.1809498,19.4124553,,OSC / ONG,,ACNUR servicios
"Albergue para migrantes
""El Buen Samaritano""",Albergue,,,,OSC / ONG,,ACNUR servicios
"Programa Compañeros, A.C.",Salud,-106.4600405,31.7340454,,OSC / ONG,,ACNUR servicios
Cruz Roja Mexicana,Salud,-106.4474724,31.74107,,OSC / ONG,,ACNUR servicios
"(CAPASITS) Centro Ambulatorio para la Prevención y Atención del Sida e
Infecciones de Transmisión Sexual ",Salud,-106.4528323,31.7370169,,OSC / ONG,,ACNUR servicios
Hospital General,Salud,-106.4562579,31.7380543,,OSC / ONG,,ACNUR servicios
Hospital de la Mujer,Salud,-106.4527362,31.7368422,,OSC / ONG,,ACNUR servicios
"Fiscalía Especializada en Atención a
Mujeres Víctimas del Delito por
Razones de Género.",Derechos Humanos / Justicia,-106.474066,31.7169675,,OSC / ONG,,ACNUR servicios
Fiscalia General del Estado de Chihuahua Zona Norte,Derechos Humanos / Justicia,-106.461768,31.711959,,OSC / ONG,,ACNUR servicios
"(IFDP) Instituto Federal de Defensoría
Pública",Derechos Humanos / Justicia,-106.4267678,31.6671011,,OSC / ONG,,ACNUR servicios
"Dirección Municipal de Derechos
Humanos",Derechos Humanos / Justicia,-106.485,31.74652,,OSC / ONG,,ACNUR servicios
Comisión Estatal de los Derechos Humanos,Derechos Humanos / Justicia,-106.4469876,31.7318124,,OSC / ONG,,ACNUR servicios
Comision Nacional De Los Derechos Humanos,Derechos Humanos / Justicia,-106.434451,31.7267717,,OSC / ONG,,ACNUR servicios
Instituto Nacional de Migración,Instituciones Públicas y Consular,-106.453061,31.7620471,,OSC / ONG,,ACNUR servicios
"(COESPO/CAIM) Consejo Estatal de
Población/ Centro de Atención a
Migrantes",Instituciones Públicas y Consular,-106.4862424,31.7463729,,OSC / ONG,,ACNUR servicios
"Centros de Servicios Comunitarios
Integrados del Estado",Instituciones Públicas y Consular,-106.4262384,31.68701,,OSC / ONG,,ACNUR servicios
"Consulado de la República de
El Salvador ",Instituciones Públicas y Consular,-106.4530285,31.7466729,,OSC / ONG,,ACNUR servicios
Instituto Chihuahuense de la Mujer | (CAVIM) Centro de Atención a la Violencia Contra Las Mujeres,Mujeres,-106.4729463,31.7384015,,OSC / ONG,,ACNUR servicios
Instituto Municipal de las Mujeres,Mujeres,-106.4833167,31.7385499,,OSC / ONG,,ACNUR servicios
Sin Violencia A.C.,Mujeres,-106.4382024,31.6748665,,OSC / ONG,,ACNUR servicios
Centro de Justicia para las Mujeres,Mujeres,-106.4740338,31.7166914,,OSC / ONG,,ACNUR servicios
DIF Municipal Ciudad Juárez,Niñez,-106.4545877,31.7514626,,OSC / ONG,,ACNUR servicios
"Subsecretaría de Educación y Deporte 
",Educación,-106.4523911,31.7501227,,OSC / ONG,,ACNUR servicios
Servicio Nacional de Empleo,Empleo,-106.4598942,31.7105772,,OSC / ONG,,ACNUR servicios
"Red Binacional de Apoyo Humanitario / (CLINIC) Catholic Legal Immigration
Network, Inc. ",Organizaciones de la Sociedad Civil,-106.4865396,31.7393088,,OSC / ONG,,ACNUR servicios
"(DHIA) Derechos Humanos Integrales
 en Acción A.C",Organizaciones de la Sociedad Civil,-106.4845033,31.7443272,,OSC / ONG,,ACNUR servicios
(HIAS) Hebrew Immigrant Aid Society,Organizaciones de la Sociedad Civil,-106.4457926,31.7415452,,OSC / ONG,,ACNUR servicios
Aeropuerto Internacional de Ciudad Juárez,Transporte,-106.435702,31.635723,,OSC / ONG,,ACNUR servicios
Central de Autobuses Ciudad Juarez,Transporte,-106.4373521,31.6922602,,OSC / ONG,,ACNUR servicios
Casa del Migrante Movilidad Humana de la Diócesis de Coatzacoalcos. ,Albergue y Alimentación,-94.4269147,18.1206146,,OSC / ONG,,ACNUR servicios
Albergue Santa Faustina Kowalska,Albergue y Alimentación,-94.457643,18.1389263,,OSC / ONG,,ACNUR servicios
Instituto Federal de la Defensoría Pública (IFDP),Justicia,-94.5171166,18.1394799,,OSC / ONG,,ACNUR servicios
"Procuraduría Municipal de Protección a Ninas, Ninos y Adolescentes ",Niñez,-94.4532977,18.1297595,,OSC / ONG,,ACNUR servicios
Instituto Municipal de la Mujer,Mujeres,-94.417606,18.1469732,,OSC / ONG,,ACNUR servicios
Movimiento de Asistencia a la Mujer Veracruzana A.C.,Mujeres,-94.4427517,18.1462659,,OSC / ONG,,ACNUR servicios
"Sub-Delegación dei Instituto Nacional de Migración, Oficina de Regulación Migratoria. ",Instituciones Públicas,-94.4201366,18.1390408,,OSC / ONG,,ACNUR servicios
Hospital Regional de Coatzacoalcos Dr. Valentin Gomez Farias,Salud,-94.4243161,18.145159,,OSC / ONG,,ACNUR servicios
Cruz Roja Mexicana Delegación Coatzacoalcos,Salud,-94.4358342,18.1376467,,OSC / ONG,,ACNUR servicios
Centro Ambulatorio para la Prevención y Atención en SIDA e Infecciones de Transmisión Sexual (CAPASITS),Salud,-94.4240998,18.1454887,,OSC / ONG,,ACNUR servicios
Central de autobuses de Coatzacoalcos ,Transporte,-94.4447862,18.1208153,,OSC / ONG,,ACNUR servicios
Comisión Estatal de los Derechos Humanos,Derechos Humanos,-94.419073,18.1462695,,OSC / ONG,,ACNUR servicios
Centro de Atención y Desarrollo Integral para personas en Situación de Indigencia (Cadipsi),Albergue / Alimentación / Compras,-103.3487582,20.6577948,,OSC / ONG,,ACNUR servicios
La Casa Del Migrante Cerro Del Cuarto,Albergue / Alimentación / Compras,-103.3498476,20.6014841,,OSC / ONG,,ACNUR servicios
Albergue para Migrantes El Refugio,Albergue / Alimentación / Compras,-103.3495971,20.6012698,,OSC / ONG,,ACNUR servicios
Banco Diocesano de Alimentos ,Albergue / Alimentación / Compras,-103.3550738,20.6559302,,OSC / ONG,,ACNUR servicios
Comite Operativo del Banco Diocesano de Alimentos ,Albergue / Alimentación / Compras,-103.3742175,20.6509774,,OSC / ONG,,ACNUR servicios
Ex Convento Del Carmen,Deporte y Cultura / Turismo / Compras,-103.3532585,20.6752641,,OSC / ONG,,ACNUR servicios
Casa de la Cultura Jalisciense “Agustín Yáñez”,Deporte y Cultura / Turismo / Compras,-103.349376,20.662189,,OSC / ONG,,ACNUR servicios
Casa Taller Jose Clemente Orozco,Deporte y Cultura / Turismo / Compras,-103.3854239,20.6740429,,OSC / ONG,,ACNUR servicios
Cultural Centenario,Deporte y Cultura / Turismo / Compras,-103.3547946,20.6794785,,OSC / ONG,,ACNUR servicios
Centro Cultural Casa Colomos,Deporte y Cultura / Turismo / Compras,-103.3907775,20.7052498,,OSC / ONG,,ACNUR servicios
Centro Cultural Atlas,Deporte y Cultura / Turismo / Compras,-103.3282931,20.6446176,,OSC / ONG,,ACNUR servicios
Centro Cultural San Diego,Deporte y Cultura / Turismo / Compras,-103.3502006,20.6833277,,OSC / ONG,,ACNUR servicios
Centro Cultural Luis Paez Brotchíe,Deporte y Cultura / Turismo / Compras,-103.3306379,20.688803,,OSC / ONG,,ACNUR servicios
Centro Cultural Hacienda de Oblatos / Biblioteca Maria Luisa Hidalgo Riestra,Deporte y Cultura / Turismo / Compras,-103.2938783,20.6844009,,OSC / ONG,,ACNUR servicios
Centro Cultural Santa Cecilia,Deporte y Cultura / Turismo / Compras,-103.2894625,20.7067157,,OSC / ONG,,ACNUR servicios
Centro Creativo La Ferro,Deporte y Cultura / Turismo / Compras,-103.3490502,20.6444636,,OSC / ONG,,ACNUR servicios
COMUDE Guadalajara (Consejo Municipal Del Deporte de Guadalajara),Deporte y Cultura / Turismo / Compras,-103.3331684,20.6949995,,OSC / ONG,,ACNUR servicios
Catedral de Guadalajara,Deporte y Cultura / Turismo / Compras,-103.346984,20.677034,,OSC / ONG,,ACNUR servicios
Teatro Degollado,Deporte y Cultura / Turismo / Compras,-103.3444316,20.6770647,,OSC / ONG,,ACNUR servicios
Plaza de la Liberación,Deporte y Cultura / Turismo / Compras,-103.3457694,20.677015,,OSC / ONG,,ACNUR servicios
Rotonda de los Jaliscienses Ilustres,Deporte y Cultura / Turismo / Compras,-103.3472206,20.6777516,,OSC / ONG,,ACNUR servicios
Plaza de Armas,Deporte y Cultura / Turismo / Compras,-103.3469788,20.6761719,,OSC / ONG,,ACNUR servicios
Plaza Tapatía,Deporte y Cultura / Turismo / Compras,-103.3409704,20.6767004,,OSC / ONG,,ACNUR servicios
Instituto Cultural Cabañas,Deporte y Cultura / Turismo / Compras,-103.3373288,20.6769024,,OSC / ONG,,ACNUR servicios
Acuario Michin Guadalajara,Deporte y Cultura / Turismo / Compras,-103.351358,20.692824,,OSC / ONG,,ACNUR servicios
Bosque Los Colomos,Deporte y Cultura / Turismo / Compras,-103.3935931,20.7087217,,OSC / ONG,,ACNUR servicios
Parque Metropolitano de Guadalajara,Deporte y Cultura / Turismo / Compras,-103.4383442,20.6712451,,OSC / ONG,,ACNUR servicios
Zoológico Guadalajara,Deporte y Cultura / Turismo / Compras,-103.3069716,20.7288303,,OSC / ONG,,ACNUR servicios
Eco Tianguis Plaza Patria,Deporte y Cultura / Turismo / Compras,-103.3798798,20.7121901,,OSC / ONG,,ACNUR servicios
Central de Abastos,Deporte y Cultura / Turismo / Compras,-103.3835297,20.6544202,,OSC / ONG,,ACNUR servicios
Mercado Libertad - San Juan de Dios,Deporte y Cultura / Turismo / Compras,-103.3398497,20.6755343,,OSC / ONG,,ACNUR servicios
"Mercado ""General Ramón Corona""",Deporte y Cultura / Turismo / Compras,-103.3494036,20.6777507,,OSC / ONG,,ACNUR servicios
Tianguis El Baratillo,Deporte y Cultura / Turismo / Compras,-103.3192294,20.6835529,,OSC / ONG,,ACNUR servicios
Tianguis del Sol,Deporte y Cultura / Turismo / Compras,-103.4328311,20.6517874,,OSC / ONG,,ACNUR servicios
Bazar del Padre Cuéllar,Deporte y Cultura / Turismo / Compras,-103.4135908,20.6608557,,OSC / ONG,,ACNUR servicios
Cohesión de Diversidades Para la Sustentabilidad A.C. (Codise),LGBTI,-103.3524443,20.6753326,,OSC / ONG,,ACNUR servicios
Instituto Municipal de las Mujeres en Guadalajara,Mujeres,-103.3222778,20.6990934,,OSC / ONG,,ACNUR servicios
Sistema DIF Zapopan,Niñez y juventud,-103.4014951,20.7364094,,OSC / ONG,,ACNUR servicios
Sistema DIF Jalisco,Niñez y juventud,-103.3306026,20.6562594,,OSC / ONG,,ACNUR servicios
Cruz Verde Leonardo Oliva,Salud,-103.3819772,20.6459875,,OSC / ONG,,ACNUR servicios
Cruz Verde Ernesto Arias,Salud,-103.3428911,20.6622694,,OSC / ONG,,ACNUR servicios
Hospital Civil Viejo Fray Antonio Alcalde,Salud,-103.3435825,20.6880786,,OSC / ONG,,ACNUR servicios
Hospital General de Occidente Zoquipan,Salud,-103.3697041,20.7174108,,OSC / ONG,,ACNUR servicios
"Instituto de Salud Mental (SALME)
",Salud,-103.371096,20.718261,,OSC / ONG,,ACNUR servicios
Hospital Materno Infantil Esperanza López Mateos,Salud,-103.351225,20.6624776,,OSC / ONG,,ACNUR servicios
IMSS Centro Medico de Occidente,Salud,-103.3262263,20.686779,,OSC / ONG,,ACNUR servicios
Departamento de Clínicas Odontológicas Integrales,Salud,-103.3328761,20.6851422,,OSC / ONG,,ACNUR servicios
Instituto Nacional para la Educación de los Adultos (INEA),Institucion pública,-103.3634016,20.6756472,,OSC / ONG,,ACNUR servicios
Preparatoria Abierta SEP-Colegio de Bachilleres del Estado de Jalisco (COBAEJ),Institucion pública,-103.368023,20.675228,,OSC / ONG,,ACNUR servicios
Secretaría de Educación Pública (Jalisco),Institucion pública,-103.3836173,20.6705969,,OSC / ONG,,ACNUR servicios
Centro de Capacitación para el Trabajo Industrial (CECATI) 190,Institucion pública,-103.279472,20.6778487,,OSC / ONG,,ACNUR servicios
Instituto Jalisciense para los Migrantes,Institucion pública,-103.3558104,20.6738705,,OSC / ONG,,ACNUR servicios
Seguro Popular,Institucion pública,-103.3690631,20.6781657,,OSC / ONG,,ACNUR servicios
Secretaría de Movilidad,Institucion pública,-103.3461804,20.7056247,,OSC / ONG,,ACNUR servicios
Instituto Jalisciense de Ciencias Forenses / Unidad Administrativa Las Águilas,Institucion pública,-103.4169073,20.6311816,,OSC / ONG,,ACNUR servicios
Instituto Jalisciense de Ciencias Forenses / Palacio Federal Guadalajara,Institucion pública,-103.3473382,20.6849983,,OSC / ONG,,ACNUR servicios
Instituto Jalisciense de Ciencias Forenses / Gran Terraza Belenes,Institucion pública,-103.4009953,20.7382089,,OSC / ONG,,ACNUR servicios
Comision Estatal De Derechos Humanos Jalisco,Justicia / Derechos Humanos,-103.3709581,20.6756754,,OSC / ONG,,ACNUR servicios
Centro de Justicia para las Mujeres,Justicia / Derechos Humanos,-103.3376534,20.7015624,,OSC / ONG,,ACNUR servicios
Consejo Estatal para la Prevención y Atención de la Violencia Intrafamiliar (CEPAVI),Justicia / Derechos Humanos,-103.3737561,20.687046,,OSC / ONG,,ACNUR servicios
Consejo para la Atención de las Víctimas del Transporte Público,Justicia / Derechos Humanos,-103.3704081,20.7157977,,OSC / ONG,,ACNUR servicios
Fiscalía General Del Estado de Jalisco,Justicia / Derechos Humanos,-103.3588984,20.6829761,,OSC / ONG,,ACNUR servicios
Consulado de Guatemala en Guadalajara ,Organismos Internacionales y Consulados,-103.3786076,20.6598566,,OSC / ONG,,ACNUR servicios
Consulado de El Salvador ,Organismos Internacionales y Consulados,-103.4141309,20.664455,,OSC / ONG,,ACNUR servicios
Consulado de Nicaragua en Guadalajara,Organismos Internacionales y Consulados,-103.4182052,20.6386644,,OSC / ONG,,ACNUR servicios
FM4 Paso Libre (Dignidad y Justicia en el camino A.C.),Organizaciones de la Sociedad Civil,-103.379149,20.6674427,,OSC / ONG,,ACNUR servicios
"Asociación Jalisciense de Apoyo a los Grupos Indígenas, A.C. (AJAGI)",Organizaciones de la Sociedad Civil,-103.3323734,20.6829147,,OSC / ONG,,ACNUR servicios
Centro de Justicia para la Paz y el Desarrollo A.C. (CEPAD),Organizaciones de la Sociedad Civil,-103.3528985,20.6810287,,OSC / ONG,,ACNUR servicios
ACNUR - Agencia de la ONU para los Refugiados,Organizaciones de la Sociedad Civil,-103.3751944,20.6704485,,OSC / ONG,,ACNUR servicios
Casa INDI,Albergues y Alimentación,-100.3255777,25.6986,,OSC / ONG,,ACNUR servicios
Casa Nicolás,Albergues y Alimentación,-100.2144739,25.6642132,,OSC / ONG,,ACNUR servicios
"Comedor Padre Roberto Infante
",Albergues y Alimentación,-100.6060747,25.808163,,OSC / ONG,,ACNUR servicios
"Comedor Padre Roberto Infante
",Albergues y Alimentación,-100.3639459,25.809442,,OSC / ONG,,ACNUR servicios
"Comedor Padre Roberto Infante
",Albergues y Alimentación,-100.1875071,25.6993081,,OSC / ONG,,ACNUR servicios
Casa Monarca,Albergues y Alimentación,-100.4608412,25.6740353,,OSC / ONG,,ACNUR servicios
Consulado de Colombia ,Consulados,-100.4406962,25.6739047,,OSC / ONG,,ACNUR servicios
Consulado de El Salvador,Consulados,-100.3409003,25.6551671,,OSC / ONG,,ACNUR servicios
Consulado de Ecuador ,Consulados,-100.3115411,25.6644942,,OSC / ONG,,ACNUR servicios
Consulado de Guatemala,Consulados,-100.3119986,25.6643765,,OSC / ONG,,ACNUR servicios
"Consulado de Nicaragua
",Consulados,-100.3125011,25.6690134,,OSC / ONG,,ACNUR servicios
ICET Oficinas Centrales,Educación,-100.2976622,25.6798843,,OSC / ONG,,ACNUR servicios
Instituto Nacional para la Educación de los Adultos (INEA) Delegación Nuevo León,Educación,-100.3024673,25.6759825,,OSC / ONG,,ACNUR servicios
Secretaría de Educación de Nuevo León (Revalidaciones de estudios),Educación,-100.3570125,25.7164826,,OSC / ONG,,ACNUR servicios
"Departamento de Educación Migrante SENL
",Educación,-100.3574864,25.7038702,,OSC / ONG,,ACNUR servicios
Unidad Regional 1 SEP,Educación,-100.3330376,25.6802976,,OSC / ONG,,ACNUR servicios
Unidad Regional 2 SEP,Educación,-100.2669151,25.743587,,OSC / ONG,,ACNUR servicios
Unidad Regional 3 SEP,Educación,-100.2403371,25.6879085,,OSC / ONG,,ACNUR servicios
Unidad Regional 4 SEP,Educación,-100.3825333,25.6543134,,OSC / ONG,,ACNUR servicios
Unidad Regional 6 SEP,Educación,-100.1827222,25.7789741,,OSC / ONG,,ACNUR servicios
Unidad Regional 8 SEP,Educación,-100.0003231,25.5852643,,OSC / ONG,,ACNUR servicios
Unidad Regional 11 SEP,Educación,-100.3399647,25.7235337,,OSC / ONG,,ACNUR servicios
Unidad Regional 12 SEP,Educación,-100.3078481,25.6544376,,OSC / ONG,,ACNUR servicios
Unidad Regional 13 SEP,Educación,-100.2876486,25.7801954,,OSC / ONG,,ACNUR servicios
Comision Estatal De Derechos Humanos Nuevo León,Derechos Humanos y Justicia,-100.3176599,25.6787772,,OSC / ONG,,ACNUR servicios
Centro De Justicia Familiar COPAVIDE,Derechos Humanos y Justicia,-100.3638374,25.8090152,,OSC / ONG,,ACNUR servicios
"Centro de Orientación y Denuncia (CODE)
",Derechos Humanos y Justicia,-100.2235926,25.6952061,,OSC / ONG,,ACNUR servicios
Servicio Nacional de Empleo en Guadalupe,Empleo,-100.232341,25.6740684,,OSC / ONG,,ACNUR servicios
"Bolsa de Empleo Municipal en Monterrey
",Empleo,-100.3221423,25.66889,,OSC / ONG,,ACNUR servicios
Bolsa de Trabajo en Apodaca,Empleo,-100.1891052,25.7811241,,OSC / ONG,,ACNUR servicios
"Servicio Nacional de Empleo Estatal
",Empleo,-100.2917848,25.6759309,,OSC / ONG,,ACNUR servicios
Bolsa de Empleo de Escobedo,Empleo,-100.3226338,25.8079244,,OSC / ONG,,ACNUR servicios
Bolsa de Empleo de Juárez,Empleo,-100.0909289,25.6462183,,OSC / ONG,,ACNUR servicios
Bolsa de Empleo de García,Empleo,-100.5786116,25.7859549,,OSC / ONG,,ACNUR servicios
COMAR - Comisión Mexicana de Ayuda a Refugiados,Instituciones Públicas,-100.3081255,25.6359717,,OSC / ONG,,ACNUR servicios
Instituto Nacional de Migración,Instituciones Públicas,-100.3080792,25.6360119,,OSC / ONG,,ACNUR servicios
"Instituto Estatal de la Juventud Nuevo León
",Instituciones Públicas,-100.3038912,25.6786643,,OSC / ONG,,ACNUR servicios
"Instituto de la Juventud y el Deporte de Juarez Nuevo León
",Instituciones Públicas,-100.154479,25.6163717,,OSC / ONG,,ACNUR servicios
"SIPINNA (Sistema Nacional de Protección de Niñas, Niños y Adolescentes)
",Mujeres y Niñez,-100.3395478,25.6654179,,OSC / ONG,,ACNUR servicios
"Procuraduría de Protección de Niñas, Niños y Adolescentes del Estado
",Mujeres y Niñez,-100.2522502,25.6695949,,OSC / ONG,,ACNUR servicios
Puerta Violeta Guadalupe,Mujeres y Niñez,-100.1914857,25.6657311,,OSC / ONG,,ACNUR servicios
Puerta Violeta Apodaca,Mujeres y Niñez,-100.2389916,25.8177721,,OSC / ONG,,ACNUR servicios
Instituto Municipal de las Mujeres Regias,Mujeres y Niñez,-100.3052975,25.6971746,,OSC / ONG,,ACNUR servicios
Puerta Violeta Monterrey,Mujeres y Niñez,-100.3087913,25.6798662,,OSC / ONG,,ACNUR servicios
Puerta Violeta,Mujeres y Niñez,-100.3699391,25.7650323,,OSC / ONG,,ACNUR servicios
Puerta Violeta Escobedo,Mujeres y Niñez,-100.3172381,25.7989161,,OSC / ONG,,ACNUR servicios
Alternativas Pacíficas,Mujeres y Niñez,-100.308939,25.6797767,,OSC / ONG,,ACNUR servicios
Puerta Violeta San Pedro Garza García,Mujeres y Niñez,-100.4179382,25.665369,,OSC / ONG,,ACNUR servicios
Instituto Estatal de las Mujeres,Mujeres y Niñez,-100.3105169,25.6731669,,OSC / ONG,,ACNUR servicios
Casa Monarca,Organismos Internacionales y Sociedad Civil,-100.3616622,25.6792034,,OSC / ONG,,ACNUR servicios
ACNUR - Agencia de la ONU para los Refugiados,Organismos Internacionales y Sociedad Civil,-100.3110976,25.670937,,OSC / ONG,,ACNUR servicios
Centro Estatal de Rehabilitacion y Educacion Especial,Salud,-100.2883825,25.6237777,,OSC / ONG,,ACNUR servicios
Centro de Atención Primaria de Adicciones y Salud Mental,Salud,-100.2320852,25.6750302,,OSC / ONG,,ACNUR servicios
Centro de Especialidades Dentales,Salud,-100.3083612,25.6610255,,OSC / ONG,,ACNUR servicios
Hospital Metropolitano,Salud,-100.274372,25.7140788,,OSC / ONG,,ACNUR servicios
Hospital Regional de Alta Especialidad Materno Infantil,Salud,-100.2233881,25.694406,,OSC / ONG,,ACNUR servicios
Centro Comunitario Tierra Propia,Recreativo y cultural,-100.1897837,25.6415598,,OSC / ONG,,ACNUR servicios
Centro Comunitario Unidad Piloto,Recreativo y cultural,-100.2153987,25.6441056,,OSC / ONG,,ACNUR servicios
Centro Comunitario Las Sabinas,Recreativo y cultural,-100.1935054,25.6895023,,OSC / ONG,,ACNUR servicios
Centro Comunitario Valle Soleado,Recreativo y cultural,-100.1696035,25.7041128,,OSC / ONG,,ACNUR servicios
Centro Comunitario Prados de Santa Rosa,Recreativo y cultural,-100.2258708,25.7998199,,OSC / ONG,,ACNUR servicios
Centro Comunitario Santa Fe,Recreativo y cultural,-100.1736235,25.7262723,,OSC / ONG,,ACNUR servicios
Centro Comunitario La Alianza,Recreativo y cultural,-100.4151684,25.7757693,,OSC / ONG,,ACNUR servicios
Centro Comunitario La Alianza Sector Q,Recreativo y cultural,-100.4059793,25.7767341,,OSC / ONG,,ACNUR servicios
Centro Comunitario René Álvarez,Recreativo y cultural,-100.3584783,25.765365,,OSC / ONG,,ACNUR servicios
Centro Comunitario Adelaila Lafón,Recreativo y cultural,-100.3775592,25.790745,,OSC / ONG,,ACNUR servicios
Centro Comunitario Revolución Proletaria,Recreativo y cultural,-100.2888554,25.6335501,,OSC / ONG,,ACNUR servicios
Centro Comunitario Sierra Ventana,Recreativo y cultural,-100.2882067,25.6280602,,OSC / ONG,,ACNUR servicios
Centro Comunitario Bicentenario de la Independencia,Recreativo y cultural,-100.3144455,25.6514787,,OSC / ONG,,ACNUR servicios
Centro Comunitario San Bernabé,Recreativo y cultural,-100.3699391,25.7650323,,OSC / ONG,,ACNUR servicios
Centro Comunitario Alianza Real,Recreativo y cultural,-100.3849892,25.8448524,,OSC / ONG,,ACNUR servicios
Centro Comunitario Eulalio Villarreal,Recreativo y cultural,-100.3704713,25.805286,,OSC / ONG,,ACNUR servicios
Centro Comunitario Fernando Amilpa,Recreativo y cultural,-100.270301,25.8060127,,OSC / ONG,,ACNUR servicios
Centro Comunitario Los Encinos,Recreativo y cultural,-100.117581,25.6437424,,OSC / ONG,,ACNUR servicios
centro comunitario Hector Caballero,Recreativo y cultural,-100.1295307,25.6348761,,OSC / ONG,,ACNUR servicios
Centro Comunitario Arboledas De Los Naranjos,Recreativo y cultural,-100.1677079,25.6285945,,OSC / ONG,,ACNUR servicios
Centro Comunitario Monte Kristal,Recreativo y cultural,-100.14598,25.6189072,,OSC / ONG,,ACNUR servicios
Centro Comunitario Ampliación Nogales,Recreativo y cultural,-100.6047516,25.7989446,,OSC / ONG,,ACNUR servicios
Centro Comunitario Las Palmas,Recreativo y cultural,-100.4258034,25.7929356,,OSC / ONG,,ACNUR servicios
Centro Comunitario Pesquería,Recreativo y cultural,-100.0465786,25.7901541,,OSC / ONG,,ACNUR servicios
Centro Comunitario Valle de la Esperanza,Recreativo y cultural,-100.4015695,25.7834605,,OSC / ONG,,ACNUR servicios
LABNL Lab Cultural Ciudadano,Recreativo y cultural,,,,OSC / ONG,,ACNUR servicios
Esfera Cultural García,Recreativo y cultural,,,,OSC / ONG,,ACNUR servicios
Esfera Cultural Buena Vista,Recreativo y cultural,,,,OSC / ONG,,ACNUR servicios
Esfera Cultural Galeana,Recreativo y cultural,,,,OSC / ONG,,ACNUR servicios
Casa del Caminante Jtatic Samuel Ruiz García,Albergues,-91.9925432,17.5430906,,OSC / ONG,,ACNUR servicios
Comisión Estatal de Derechos Humanos,Derechos Humanos,-91.9828884,17.508738,,OSC / ONG,,ACNUR servicios
Defensor Municipal de Derechos Humanos ,Derechos Humanos,-91.9811457,17.5096209,,OSC / ONG,,ACNUR servicios
Dirección de Atención a Personas Migrantes y Refugiadas (DAPMyR),Derechos Humanos,-91.9812396,17.5086181,,OSC / ONG,,ACNUR servicios
Palacio Municipal de Palenque,Instituciones Públicas,-91.9809937,17.509586,,OSC / ONG,,ACNUR servicios
Oficina de Regulación Migratoria (INM),Instituciones Públicas,-91.9934671,17.5183738,,OSC / ONG,,ACNUR servicios
Grupo Beta (INM),Instituciones Públicas,-91.9934228,17.5185836,,OSC / ONG,,ACNUR servicios
Estación Migratoria (INM),Instituciones Públicas,-91.9929122,17.5184334,,OSC / ONG,,ACNUR servicios
COMAR Comisión Mexicana de Ayuda a Refugiados,Instituciones Públicas,-91.9931882,17.5183533,,OSC / ONG,,ACNUR servicios
"Procuraduría Municipal de Protección a Niñas, Niños y Adolescentes ",Niñez,-91.9794565,17.5067803,,OSC / ONG,,ACNUR servicios
DIF Casa Migrante Palenque,Niñez,-92.0012967,17.5123635,,OSC / ONG,,ACNUR servicios
ACNUR - Agencia de la ONU para los Refugiados,Organismos Internacionales,-91.9915815,17.512142,,OSC / ONG,,ACNUR servicios
Cruz Roja ,Salud,-91.9986564,17.5138951,,OSC / ONG,,ACNUR servicios
Hospital General Palenque,Salud,-91.9884396,17.5077443,,OSC / ONG,,ACNUR servicios
Jurisdicción Sanitaria de Palenque,Salud,-91.9878227,17.5080842,,OSC / ONG,,ACNUR servicios
Asylum Access,Organizaciones de la Sociedad Civil,-91.9828296,17.5065118,,OSC / ONG,,ACNUR servicios
RET international,Organizaciones de la Sociedad Civil,-91.9786535,17.5081203,,OSC / ONG,,ACNUR servicios
Restaurante El Lago,Orientación y apoyo,-91.9856621,17.494445,,OSC / ONG,,ACNUR servicios
Gimnasio Comunitario,Deporte y cultura,-91.99016,17.5423212,,OSC / ONG,,ACNUR servicios
Unidad Deportiva Municipal,Deporte y cultura,-91.9786857,17.5139501,,OSC / ONG,,ACNUR servicios
Fiscalía especializada en delitos cometidos en contra de migrantes,Justicia,-91.981007,17.5077952,,OSC / ONG,,ACNUR servicios
Adulam,Albergue,-87.0601269,20.6674031,,OSC / ONG,,ACNUR servicios
DIF Municipal Playa del Carmen,Instituciones Públicas,-87.0778789,20.6297323,,OSC / ONG,,ACNUR servicios
Coordinación de Atención al Migrante,Instituciones Públicas,-87.0611094,20.653606,,OSC / ONG,,ACNUR servicios
Instituto Nacional de Migracion,Instituciones Públicas,-87.0778399,20.6207545,,OSC / ONG,,ACNUR servicios
Registro Civil Playa Del Carmen,Instituciones Públicas,-87.0850017,20.6514625,,OSC / ONG,,ACNUR servicios
Comisión Estatal de Derechos Humanos ,Justicia / Derechos Humanos,-87.0686406,20.6603581,,OSC / ONG,,ACNUR servicios
Procuraduría Auxiliar de la Defensa del Trabajo,Justicia / Derechos Humanos,-87.0713272,20.6375541,,OSC / ONG,,ACNUR servicios
Instituto Quintanarooense de La Mujer,Mujeres,-87.0751269,20.628561,,OSC / ONG,,ACNUR servicios
IEEA Instituto Estatal para la Educación de Jóvenes y Adultos,Empleo y Educación,-87.0680963,20.6380034,,OSC / ONG,,ACNUR servicios
Servicio Estatal de Empleo y Capacitación para el Trabajo,Empleo y Educación,-87.0713093,20.6377292,,OSC / ONG,,ACNUR servicios
Instituto de capacitación para el trabajo del estado de Quintana Roo (ICAT),Empleo y Educación,-87.0894196,20.635339,,OSC / ONG,,ACNUR servicios
Hospital General de Playa del Carmen,Salud,-87.0953548,20.6445382,,OSC / ONG,,ACNUR servicios
Central de autobuses ,Transporte,-87.0752223,20.6227966,,OSC / ONG,,ACNUR servicios
Terminal de autobuses alterna,Transporte,-87.0743765,20.6294407,,OSC / ONG,,ACNUR servicios
Mercado Municipal Colosio,Compras,-87.0641457,20.6473971,,OSC / ONG,,ACNUR servicios
Centro Cultural,Cultura,-87.0828043,20.6527096,,OSC / ONG,,ACNUR servicios
"Procuraduría de la Defensa de las Niñas, Niños,Adolescentes y la Familia DIF, Playa del Carmen",Niñez y Juventud,-87.0608233,20.6668418,,OSC / ONG,,ACNUR servicios
Dirección General de Defensoría Pública,Justicia y Derechos Humanos,-98.1898797,19.041314,,OSC / ONG,,ACNUR servicios
"Procuraduría de Protección de los Derechos de Nifias, Nifios y Adolescentes, Dirección de Asistencia Jurídica (DIF) ",Justicia y Derechos Humanos,-98.2578132,19.0349434,,OSC / ONG,,ACNUR servicios
Comisión Ejecutiva de Atención a Víctimas ,Justicia y Derechos Humanos,-98.1993123,19.0427556,,OSC / ONG,,ACNUR servicios
Instituto Federal de Defensoria Pública (IFDP) ,Justicia y Derechos Humanos,-98.2221039,19.0451311,,OSC / ONG,,ACNUR servicios
Comisión de Derechos Humanos Estatal ,Justicia y Derechos Humanos,-98.2025454,19.0441545,,OSC / ONG,,ACNUR servicios
Instituto Nacional de Migración (INM) ,Institución Pública,-98.2133101,19.0516716,,OSC / ONG,,ACNUR servicios
Secretaría de Relaciones Exteriores ,Institución Pública,-98.2270228,19.0336178,,OSC / ONG,,ACNUR servicios
Instituto Poblano de Asistencia ai Migrante,Institución Pública,-98.2270017,19.033257,,OSC / ONG,,ACNUR servicios
Cruz Roja Mexicana ,Salud,-98.1879398,19.0481215,,OSC / ONG,,ACNUR servicios
Instituto Poblano de las Mujeres ,Mujer,-98.1987656,19.0404283,,OSC / ONG,,ACNUR servicios
"Asociación Nacional Contra la Trata Humana en la Sociedad, A.C. (ANTHUS) ",Mujer,-98.2086691,19.0473114,,OSC / ONG,,ACNUR servicios
Casa dei Migrante de la Parroquia de Nuestra Seriara de los Desamparados ,Albergue,-98.2100444,19.0719031,,OSC / ONG,,ACNUR servicios
Parroquia de la Asunción. Ayuda Humanitaria a Migrantes en Tránsito ,Albergue,-98.227902,19.0629519,,OSC / ONG,,ACNUR servicios
Instituto de Capacitación para el Trabajo ,Empleo y Educación,-98.2310177,19.0567343,,OSC / ONG,,ACNUR servicios
Secretaria de Educación Pública,Empleo y Educación,-98.222596,19.0627819,,OSC / ONG,,ACNUR servicios
Palacio Municipal de Puebla,Cultura,-98.1974074,19.0441433,,OSC / ONG,,ACNUR servicios
Museo Regional de Puebla,Cultura,-98.1828034,19.0562659,,OSC / ONG,,ACNUR servicios
Museo de la Talavera,Cultura,-98.1769569,19.0560987,,OSC / ONG,,ACNUR servicios
Casa de la Música de Viena ,Cultura,-98.2355087,19.0937378,,OSC / ONG,,ACNUR servicios
Barrio del Artista,Cultura,-98.1922388,19.0439306,,OSC / ONG,,ACNUR servicios
El Parian,Compras,-98.1945514,19.0452636,,OSC / ONG,,ACNUR servicios
Mercado El Parral,Compras,-98.2067566,19.0449047,,OSC / ONG,,ACNUR servicios
Mercado 5 de mayo,Compras,-98.1975305,19.0525041,,OSC / ONG,,ACNUR servicios
Mercado Municipal La Acocota,Compras,-98.1870369,19.0411612,,OSC / ONG,,ACNUR servicios
Mercado Melchor Ocampo EI Carmen,Compras,-98.2009251,19.035319,,OSC / ONG,,ACNUR servicios
Parroquia María Auxiliadora,Orientación y Apoyo,-98.1883438,19.0767583,,OSC / ONG,,ACNUR servicios
Ventanilla de lnformación para personas en Contexto de Migración,Orientación y Apoyo,-98.2080447,19.0490829,,OSC / ONG,,ACNUR servicios
Central de Autobuses - CAPU,Transporte,-98.2047069,19.0738714,,OSC / ONG,,ACNUR servicios
Aeropuerto de Puebla,Transporte,-98.3761404,19.1639189,,OSC / ONG,,ACNUR servicios
"Albergue para Migrantes Toribio
Romo A. C.",Albergue y Alimentación,-100.3972791,20.6380321,,OSC / ONG,,ACNUR servicios
Cáritas de Querétaro I.A.P.,Albergue y Alimentación,-100.3889313,20.5904461,,OSC / ONG,,ACNUR servicios
"Centro de Apoyo Marista al Migrante
(CAMMI)",Albergue y Alimentación,-100.386469,20.6013896,,OSC / ONG,,ACNUR servicios
SRE - Delegación de la Secretaría de Relaciones Exteriores en Querétaro,Institución Pública,-100.3719024,20.5954905,,OSC / ONG,,ACNUR servicios
Instituto Nacional de Migración,Institución Pública,-100.3880188,20.5983311,,OSC / ONG,,ACNUR servicios
Oficina de Atención a Migrantes,Institución Pública,-100.3881737,20.5940392,,OSC / ONG,,ACNUR servicios
Dirección de Educación,Institución Pública,-100.3700011,20.5626698,,OSC / ONG,,ACNUR servicios
"Módulo de Afiliación al Sistema de
Salud",Salud,-100.4057431,20.5797837,,OSC / ONG,,ACNUR servicios
Cruz Roja,Salud,-100.3639815,20.5801128,,OSC / ONG,,ACNUR servicios
"Centro de Justicia para las Mujeres
Secretaria de Seguridad Ciudadana",Mujer,-100.3831627,20.5558465,,OSC / ONG,,ACNUR servicios
Instituto Municipal de la Mujer de Corregidora,Mujer,-100.4476047,20.552119,,OSC / ONG,,ACNUR servicios
Instituto Queretano de las Mujeres,Mujer,-100.3870558,20.5981913,,OSC / ONG,,ACNUR servicios
"Secretaría de la Juventud 
",Niñez y Juventud,-100.3819872,20.5927161,,OSC / ONG,,ACNUR servicios
Servicio Nacional del Empleo,Empleo,-100.3982308,20.5916636,,OSC / ONG,,ACNUR servicios
Procuraduría de la Defensa del Trabajo ,Justicia y Derechos Humanos,-100.4048949,20.5838181,,OSC / ONG,,ACNUR servicios
"Procuraduría Municipal de Protección de Niñas, Niños y Adolescentes de Corregidora",Justicia y Derechos Humanos,-100.4328179,20.5463633,,OSC / ONG,,ACNUR servicios
Defensoría de los Derechos Humanos,Justicia y Derechos Humanos,-100.3896332,20.584255,,OSC / ONG,,ACNUR servicios
"Centro de Atención Integral para
Victimas de la Comisión Ejecutiva de
Atención a Victimas Federal",Justicia y Derechos Humanos,-100.3862261,20.5836153,,OSC / ONG,,ACNUR servicios
Instituto Municipal para Prevenir y Eliminar la Discriminación,Justicia y Derechos Humanos,-100.3724775,20.5491589,,OSC / ONG,,ACNUR servicios
Mercado Municipal Lomas de Casa Blanca,Compras,-100.3922634,20.5712709,,OSC / ONG,,ACNUR servicios
Mercado Municipal Lázaro Cárdenas,Compras,-100.3815158,20.5571226,,OSC / ONG,,ACNUR servicios
"Mercado Benito Juárez ""El Tepetate""",Compras,-100.3960696,20.6029818,,OSC / ONG,,ACNUR servicios
"Mercado Josefa Ortiz de Domínguez ""La Cruz""",Compras,-100.3858361,20.5981222,,OSC / ONG,,ACNUR servicios
Central de Autobuses Querétaro,Transporte,-100.3592591,20.5773249,,OSC / ONG,,ACNUR servicios
Aeropuerto Intercontinental de Querétaro,Transporte,-100.1872709,20.6225114,,OSC / ONG,,ACNUR servicios
Centro Cultural Tejeda,Cultura,-100.418548,20.5455988,,OSC / ONG,,ACNUR servicios
Centro Cultural la Vieja Estación,Cultura,-100.3968045,20.6012145,,OSC / ONG,,ACNUR servicios
Centro Educativo Cultural del Estado de Querétaro,Cultura,-100.3863449,20.5857754,,OSC / ONG,,ACNUR servicios
Casa de la Cultura,Cultura,-100.4232789,20.603359,,OSC / ONG,,ACNUR servicios
ACNUR -  Agencia de la ONU para los Refugiados,Organismos Internacionales / Consulados,-100.9825107,25.4565725,,OSC / ONG,,ACNUR servicios
Agencia Consular de la República de Honduras,Organismos Internacionales / Consulados,-101.0014976,25.4213533,,OSC / ONG,,ACNUR servicios
Casa del Migrante Saltillo,Albergue y Alimentación,-101.0237096,25.4033181,,OSC / ONG,,ACNUR servicios
Banco de Alimentos,Albergue y Alimentación,-100.9922903,25.4758533,,OSC / ONG,,ACNUR servicios
SEDU Secretaría de Educación,Educación,-100.9793289,25.42787,,OSC / ONG,,ACNUR servicios
IEEA Instituto Estatal de Educación para Adultos,Educación,-100.9944866,25.4334186,,OSC / ONG,,ACNUR servicios
Instituto Estatal de Educación para Adultos (IEEA),Educación,-101.0072964,25.4256709,,OSC / ONG,,ACNUR servicios
Comisión de los Derechos Humanos del Estado,Derechos Humanos / Justicia,-100.999747,25.4231857,,OSC / ONG,,ACNUR servicios
Instituto Estatal de Defensoría Pública de Coahuila (IFDP),Derechos Humanos / Justicia,-100.9983899,25.4491721,,OSC / ONG,,ACNUR servicios
Dirección General de Delitos de Alto Impacto y Cometidos en Agravio de Migrantes,Derechos Humanos / Justicia,-101.0223257,25.4560592,,OSC / ONG,,ACNUR servicios
Subsecretaría de Protección Civil,Instituciones Públicas,-100.8979227,25.4566779,,OSC / ONG,,ACNUR servicios
Dirección de Policia Preventiva Municipal,Instituciones Públicas,-100.976748,25.415586,,OSC / ONG,,ACNUR servicios
Dirección para Promover la Igualdad y Prevenir la Discriminación,Instituciones Públicas,-101.0107521,25.4229977,,OSC / ONG,,ACNUR servicios
INFONAVIT,Instituciones Públicas,-100.9807132,25.4680929,,OSC / ONG,,ACNUR servicios
Instituto Nacional de Migración,Instituciones Públicas,-100.993167,25.4355944,,OSC / ONG,,ACNUR servicios
Registro Civil,Instituciones Públicas,-101.0021999,25.4290661,,OSC / ONG,,ACNUR servicios
Servicio de Administración Tributaria (SAT),Instituciones Públicas,-100.98953,25.4477519,,OSC / ONG,,ACNUR servicios
Seguro Popular,Instituciones Públicas,-101.004362,25.4237219,,OSC / ONG,,ACNUR servicios
Subdelegación IMSS,Instituciones Públicas,-100.9886749,25.4545648,,OSC / ONG,,ACNUR servicios
Subsecretaría de Comunicaciones y Transportes,Instituciones Públicas,-100.8969277,25.4572288,,OSC / ONG,,ACNUR servicios
Unidad de Integración Familiar UNIF,Instituciones Públicas,-100.9769772,25.4155819,,OSC / ONG,,ACNUR servicios
Instituto Estatal del Empleo,Instituciones Públicas,-101.0057915,25.4241131,,OSC / ONG,,ACNUR servicios
Instituto Municipal de la Mujer,Mujeres,-101.0020306,25.4213483,,OSC / ONG,,ACNUR servicios
Centro de Justicia y Empoderamiento para la Mujer,Mujeres,-101.0205461,25.4564291,,OSC / ONG,,ACNUR servicios
Hospital del Niño Dr. Federico Gómez Santos,Niñez,-100.9793482,25.4609669,,OSC / ONG,,ACNUR servicios
"Procuraduría para Niños, Niñas y la Familia",Niñez,-101.0222893,25.4562444,,OSC / ONG,,ACNUR servicios
DIF Coahuila,Niñez,-100.9971113,25.4031949,,OSC / ONG,,ACNUR servicios
Biblioparque Norte Saltillo,Recreativo,-100.9844169,25.4836089,,OSC / ONG,,ACNUR servicios
Biblioparque Nogales Saltillo,Recreativo,-100.971007,25.3986476,,OSC / ONG,,ACNUR servicios
Biblioparque Saltillo Sur,Recreativo,-101.0131475,25.3892892,,OSC / ONG,,ACNUR servicios
“La Madriguera” Casa del Adolescente,Recreativo,-100.9666641,25.4168469,,OSC / ONG,,ACNUR servicios
Museo del Desierto,Recreativo,-100.963865,25.413601,,OSC / ONG,,ACNUR servicios
Museo de Las Aves de México,Recreativo,-101.0023345,25.4169221,,OSC / ONG,,ACNUR servicios
Museo del Sarape,Recreativo,-101.0017382,25.4209264,,OSC / ONG,,ACNUR servicios
Teatro de la Ciudad Fernando Soler,Recreativo,-101.0000038,25.4336936,,OSC / ONG,,ACNUR servicios
Centro de Salud Nueva Jerusalen,Salud,-101.029856,25.3933797,,OSC / ONG,,ACNUR servicios
Centro de Salud Los Gonzales,Salud,-100.9836536,25.4078479,,OSC / ONG,,ACNUR servicios
Centro de Salud Madero,Salud,-101.0147551,25.427939,,OSC / ONG,,ACNUR servicios
Centro Estatal De Salud Mental,Salud,-100.991853,25.468662,,OSC / ONG,,ACNUR servicios
Centro de Salud Satélite,Salud,-101.0247113,25.4534405,,OSC / ONG,,ACNUR servicios
Uneme Capasits Saltillo,Salud,-101.0222577,25.4539848,,OSC / ONG,,ACNUR servicios
IMSS Unidad de Medicina Familiar 73,Salud,-101.0083464,25.4170127,,OSC / ONG,,ACNUR servicios
IMSS Hospital General de Zona 1 Saltillo,Salud,-101.0079306,25.4174284,,OSC / ONG,,ACNUR servicios
IMSS Hospital General de Zona 2 Saltillo,Salud,-100.9868398,25.4540296,,OSC / ONG,,ACNUR servicios
Unidad de Medicina Familiar CLÍNICA IMSS 70,Salud,-101.0058979,25.4356479,,OSC / ONG,,ACNUR servicios
Hospital General Saltillo,Salud,-100.9586504,25.412095,,OSC / ONG,,ACNUR servicios
IMSS Unidad de Medicina Familiar 82,Salud,-100.9847628,25.4170534,,OSC / ONG,,ACNUR servicios
Unidad de Medicina Familiar con Unidad Médica de Atención Ambulatoria CLÍNICA IMSS 89,Salud,-100.9667211,25.4200442,,OSC / ONG,,ACNUR servicios
Cruz Roja Mexicana,Salud,-100.9733945,25.4146498,,OSC / ONG,,ACNUR servicios
Centro Oftalmológico,Salud,-100.9568491,25.4244722,,OSC / ONG,,ACNUR servicios
Casa del Migrante (Asesoría Jurídica),Servicios,-101.023749,25.4033707,,OSC / ONG,,ACNUR servicios
Comisión Federal de Electricidad,Servicios,-101.0105913,25.4260223,,OSC / ONG,,ACNUR servicios
"Casa San Juan Diego y 
San Francisco de Asís",Albergue,-97.4861673,25.8370026,,OSC / ONG,,ACNUR servicios
"Centro de atención al menor 
fronterizo CAMEF, DIF",Albergue,-97.5002386,25.8819796,,OSC / ONG,,ACNUR servicios
Amar,Albergue,-99.5020482,27.4920795,,OSC / ONG,,ACNUR servicios
"Comisión de Derechos Humanos 
del Estado de Tamaulipas",Derechos Humanos,-99.1623725,23.7201899,,OSC / ONG,,ACNUR servicios
C. Zaragoza 265,Derechos Humanos,-98.2816639,26.0938952,,OSC / ONG,,ACNUR servicios
"Secretaría del Trabajo Unidad
regional Matamoros",Empleo,-97.4820505,25.8660563,,OSC / ONG,,ACNUR servicios
Grupo Beta Matamoros,Institución Pública,-97.4988589,25.8945137,,OSC / ONG,,ACNUR servicios
"Instituto Tamaulipeco 
para los migrantes",Institución Pública,-99.5021586,27.4971533,,OSC / ONG,,ACNUR servicios
INM Delegación Tamaulipas,Institución Pública,-99.5079887,27.4982311,,OSC / ONG,,ACNUR servicios
"Procuraduría General de la 
República, agencia orientadora 
Matamoros",Justicia,-97.5050314,25.8855774,,OSC / ONG,,ACNUR servicios
"Instituto Federal de la 
Defensoría Pública (IFDP)",Justicia,-97.5068808,25.8495022,,OSC / ONG,,ACNUR servicios
"Fiscalía General de la 
República, Agencia orientadora 
Nuevo Laredo",Justicia,-99.5116817,27.4549197,,OSC / ONG,,ACNUR servicios
"Instituto Federal de 
Defensoría Pública (IFDP)",Justicia,-99.5065425,27.4847012,,OSC / ONG,,ACNUR servicios
"Procuraduría Federal de 
protección de niñas, niños y 
adolescentes",Justicia,-99.1740392,23.7125289,,OSC / ONG,,ACNUR servicios
"Instituto Federal de la 
Defensoría Pública (IFDP)",Justicia,-99.1357221,23.7284281,,OSC / ONG,,ACNUR servicios
"Fiscalía General de la 
República, Subdelegación Cd. 
Victoria",Justicia,-99.1640067,23.7724239,,OSC / ONG,,ACNUR servicios
"Fiscalía General del Estado 
de Tamaulipas",Justicia,-99.1141987,23.7636866,,OSC / ONG,,ACNUR servicios
"Instituto Federal de 
Defensoría Pública (IFDP)",Justicia,-97.8482993,22.2684581,,OSC / ONG,,ACNUR servicios
Fiscalia General de la Republica-Reynosa,Justicia,-98.3540947,26.0616214,,OSC / ONG,,ACNUR servicios
Instituto de la Mujer Tamaulipeca,Mujeres,-99.1462292,23.7431721,,OSC / ONG,,ACNUR servicios
"CAMEF- Centro de Atención
Infantil ",Niñez y juventud,-99.5015561,27.4856801,,OSC / ONG,,ACNUR servicios
"Hospital General Cd. Victoria ""Dr. Norberto Treviño Zapata""",Salud,-99.1374866,23.7483604,,OSC / ONG,,ACNUR servicios
Hospital General Reynosa,Salud,-98.2969543,26.0553867,,OSC / ONG,,ACNUR servicios
"Cruz Roja Reynosa (Casa del
Migrante Nuestra Señora de
Guadalupe)",Salud,-98.2882951,26.0973078,,OSC / ONG,,ACNUR servicios
"Cruz Roja Reynosa
(Albergue Senda de Vida)",Salud,-98.2845747,26.0999829,,OSC / ONG,,ACNUR servicios
"Cruz Roja Reynosa
(Plaza de las Américas)",Salud,-98.2727084,26.0926183,,OSC / ONG,,ACNUR servicios
Albergue Jesús El Buen Pastor,Albergue / Alimentación,-92.307416,14.8766423,,OSC / ONG,,ACNUR servicios
Albergue Belén,Albergue / Alimentación,-92.2442253,14.8873021,,OSC / ONG,,ACNUR servicios
Hospitalidad y Solidaridad ,Albergue / Alimentación,-92.3321935,14.8287644,,OSC / ONG,,ACNUR servicios
Distrito Sanitario VII,Atencion a violencia sexual,-92.290459,14.8865467,,OSC / ONG,,ACNUR servicios
Comisión Ejecutiva de Atención a Vícticas (CEAV),Atencion a violencia sexual,-92.2641152,14.907242,,OSC / ONG,,ACNUR servicios
Policía Violeta (Módulo de atención inmediata),Atencion a violencia sexual,-92.2581316,14.9156664,,OSC / ONG,,ACNUR servicios
Por la Superación de la Mujer A.C.,Atencion a violencia sexual,-92.2921514,14.8895209,,OSC / ONG,,ACNUR servicios
Consulado General de El Salvador,Consulados,-92.2539158,14.9249838,,OSC / ONG,,ACNUR servicios
Consulado de Ecuador,Consulados,-92.2597313,14.9217648,,OSC / ONG,,ACNUR servicios
Consulado de Honduras,Consulados,-92.2646867,14.9057185,,OSC / ONG,,ACNUR servicios
Consulado de Guatemala,Consulados,-92.257432,14.9105957,,OSC / ONG,,ACNUR servicios
Consulado de Nicaragua,Consulados,-92.2470549,14.9019174,,OSC / ONG,,ACNUR servicios
Parque de la Col. Cafetales,Deporte y cultura,-92.3061664,14.8723977,,OSC / ONG,,ACNUR servicios
"Parque Recreativo ""Los Cerritos""",Deporte y cultura,-92.2932921,14.8862758,,OSC / ONG,,ACNUR servicios
Cancha Raymundo Enríquez,Deporte y cultura,-92.3153599,14.8641225,,OSC / ONG,,ACNUR servicios
Parque de la Col. El Rinconcito,Deporte y cultura,-92.257494,14.9383987,,OSC / ONG,,ACNUR servicios
Parque de la Col. Santa Clara,Deporte y cultura,-92.2515164,14.8796847,,OSC / ONG,,ACNUR servicios
Territorio Joven,Deporte y cultura,-92.2559302,14.9084136,,OSC / ONG,,ACNUR servicios
Fiscalía Especializada en Delitos Cometidos en Contra de Inmigrantes,Institución Pública,-92.2489115,14.9097245,,OSC / ONG,,ACNUR servicios
Instituto Federal de la Defensoría Pública (IFDP),Institución Pública,-92.2660692,14.8564243,,OSC / ONG,,ACNUR servicios
COMAR Comisión Mexicana de Ayuda a Refugiados,Institución Pública,-92.2682518,14.9060677,,OSC / ONG,,ACNUR servicios
COMAR Comisión Mexicana de Ayuda a los Refugiados,Institución Pública,-92.2696634,14.8980976,,OSC / ONG,,ACNUR servicios
Oficina de Regularización Migratoria del Instituto Nacional de Migración ,Institución Pública,-92.2808912,14.8932915,,OSC / ONG,,ACNUR servicios
Servicio Nacional del Empleo,Institución Pública,-92.2452075,14.9002172,,OSC / ONG,,ACNUR servicios
Estación Migratoria Siglo XXI (INM),Institución Pública,-92.2521342,14.9462863,,OSC / ONG,,ACNUR servicios
Comisión Nacional de los Derechos Humanos Oficina Foránea,Institución Pública,-92.2572505,14.9123125,,OSC / ONG,,ACNUR servicios
CEDH Comision Estatal de los Derechos Humanos Chiapas,Institución Pública,-92.2657815,14.9063005,,OSC / ONG,,ACNUR servicios
"Procuraduría de los Derechos de Niñas, Niños y Adolescentes",Niñez y juventud,-92.2825318,14.8810032,,OSC / ONG,,ACNUR servicios
"Centro de Día: Centro de Atención a Niños, Niñas y Jóvenes Migrantes",Niñez y juventud,-92.2622439,14.9024114,,OSC / ONG,,ACNUR servicios
"ACNUR, La Agencia de la ONU para los Refugiados",Organizaciones Internacionales y No Gubernamentales,-92.2525063,14.9146805,,OSC / ONG,,ACNUR servicios
UNICEF. Fondo de las Naciones Unidas para la Infancia.,Organizaciones Internacionales y No Gubernamentales,-92.2654161,14.907122,,OSC / ONG,,ACNUR servicios
"OIM, Organización Internacional para las Migraciones",Organizaciones Internacionales y No Gubernamentales,-92.2653485,14.907213,,OSC / ONG,,ACNUR servicios
Una Mano Amiga en la Lucha Contra el Sida (UMA),Organizaciones Internacionales y No Gubernamentales,-92.2569754,14.9181642,,OSC / ONG,,ACNUR servicios
Ventanillas de atención a migrantes y refugiados de la OIM,Organizaciones Internacionales y No Gubernamentales,-92.2644864,14.9069459,,OSC / ONG,,ACNUR servicios
Centro de Derechos Humanos Fray Matías de Córdova A.C.,Organizaciones Internacionales y No Gubernamentales,-92.2654745,14.907095,,OSC / ONG,,ACNUR servicios
Servicio Jesuita para Refugiados,Organizaciones Internacionales y No Gubernamentales,-92.2611506,14.9059916,,OSC / ONG,,ACNUR servicios
Centro de Registro y Asistencia Humanitaria  CERAH - ACNUR,Organizaciones Internacionales y No Gubernamentales,-92.2607145,14.9046668,,OSC / ONG,,ACNUR servicios
Save the Children,Organizaciones Internacionales y No Gubernamentales,-92.2519696,14.8903316,,OSC / ONG,,ACNUR servicios
Iniciativas para el Desarrollo Humano A.C. (IDEHU),Organizaciones Internacionales y No Gubernamentales,-92.27184,14.9013151,,OSC / ONG,,ACNUR servicios
Hospital General de Tapachula,Salud,-92.3184763,14.8426439,,OSC / ONG,,ACNUR servicios
Cruz Roja Méxicana,Salud,-92.2581812,14.9048102,,OSC / ONG,,ACNUR servicios
Centro de Salud Tapachula,Salud,-92.26091,14.9171354,,OSC / ONG,,ACNUR servicios
Centro de Salud Indeco Cebadilla,Salud,-92.2652482,14.8777797,,OSC / ONG,,ACNUR servicios
Centro de Salud Raymundo Enriquez,Salud,-92.31298,14.8656612,,OSC / ONG,,ACNUR servicios
Centro de Salud Llano de la Lima,Salud,-92.2984064,14.8669784,,OSC / ONG,,ACNUR servicios
Centro de Salud Santa Clara,Salud,-92.2494676,14.8813816,,OSC / ONG,,ACNUR servicios
Centro de Salud Villa Flores,Salud,-92.2720568,14.8836727,,OSC / ONG,,ACNUR servicios
Centros Ambulatorios de Prevención y Atención en SIDA e ITS (CAPACITS),Salud,-92.2915466,14.892609,,OSC / ONG,,ACNUR servicios
Centro de Salud Nuevo Milenio,Salud,-92.2999102,14.8910703,,OSC / ONG,,ACNUR servicios
Centro De Salud Palmeras,Salud,-92.2754095,14.8672198,,OSC / ONG,,ACNUR servicios
Aeropuerto Internacional de Tapachula,Transporte,-92.3687911,14.7904152,,OSC / ONG,,ACNUR servicios
Autobuses Rapidos del Sur,Transporte,-92.2666745,14.9137887,,OSC / ONG,,ACNUR servicios
Terminal de Autobuses Tapachula,Transporte,-92.2577911,14.9133638,,OSC / ONG,,ACNUR servicios
Central Camionera De Cortos Recorridos,Transporte,-92.2672425,14.9125801,,OSC / ONG,,ACNUR servicios
"Albergue La 72, Hogar-Refugio para Migrantes",Albergues,-91.4309629,17.461921,,OSC / ONG,,ACNUR servicios
Consulado de Guatemala,Consulados,-91.4256567,17.4769556,,OSC / ONG,,ACNUR servicios
Consulado de Honduras,Consulados,-91.4261734,17.4769606,,OSC / ONG,,ACNUR servicios
Instituto Nacional de Migración (INM),Instituciones Públicas,-91.4383441,17.459278,,OSC / ONG,,ACNUR servicios
Comisión Mexicana de Ayuda a Refugiados COMAR ,Instituciones Públicas,-91.4303754,17.4696751,,OSC / ONG,,ACNUR servicios
DIF Tenosique,Instituciones Públicas,-91.4188445,17.4686029,,OSC / ONG,,ACNUR servicios
Palacio Municipal de Tenosique Oficina del Presidente Municipal,Instituciones Públicas,-91.4257752,17.4771016,,OSC / ONG,,ACNUR servicios
Instituto de Educación para Adultos,Educación,-91.4227222,17.4689259,,OSC / ONG,,ACNUR servicios
Instituto de Formación Para El Trabajador del Estado de Tabasco,Educación,-91.4098502,17.4738699,,OSC / ONG,,ACNUR servicios
ACNUR - Agencia de ONU para los Refugiados,Organismos Internacionales,-91.4263962,17.4765035,,OSC / ONG,,ACNUR servicios
OIM - Organización Internacional para las Migraciones,Organismos Internacionales,-91.4264192,17.4765366,,OSC / ONG,,ACNUR servicios
Jurisdicción Sanitaria Tenosique,Salud,-91.4248967,17.4698877,,OSC / ONG,,ACNUR servicios
IMSS Hospital General de Sub Zona 4,Salud,-91.4276524,17.4646726,,OSC / ONG,,ACNUR servicios
Hospital Comunitario de Tenosique,Salud,-91.4117654,17.4691885,,OSC / ONG,,ACNUR servicios
Centro Ambulatorio para la Prevención y Atención en SIDA e Infecciones de Transmisión Sexual (CAPASITS),Salud,-91.4128734,17.4689988,,OSC / ONG,,ACNUR servicios
Cruz Roja Mexicana ,Salud,-91.4226528,17.465256,,OSC / ONG,,ACNUR servicios
Fiscalía Especializada para Atención a Migrantes,Derechos Humanos y Justicia,-91.4200161,17.4773321,,OSC / ONG,,ACNUR servicios
"Visitaduría Regional de Población Migrante
y Grupos Vulnerables de la Frontera Sur
pertenecientes a la Comisión Estatal de los
Derechos Humanos",Derechos Humanos y Justicia,-91.4240857,17.4678876,,OSC / ONG,,ACNUR servicios
Ayuda en Acción,Derechos Humanos y Justicia,-91.4308742,17.4618715,,OSC / ONG,,ACNUR servicios
Dirección de atención a la mujer (DAM) - Palacio Municipal,"Mujer, Niñez y Juventud",-91.4258376,17.4770862,,OSC / ONG,,ACNUR servicios
"Procuraduría Municipal de Protección a Niñas, Niños y Adolescentes","Mujer, Niñez y Juventud",-91.4188461,17.4683971,,OSC / ONG,,ACNUR servicios
Asylum Access México,Organizaciones de la Sociedad Civil,-91.4259904,17.4768706,,OSC / ONG,,ACNUR servicios
Médicos Sin Fronteras (MSF),Organizaciones de la Sociedad Civil,-91.4309404,17.461847,,OSC / ONG,,ACNUR servicios
Save the Children México A.C.,Organizaciones de la Sociedad Civil,-91.4263858,17.4768835,,OSC / ONG,,ACNUR servicios
Comité Internacional de Rescate (IRC),Organizaciones de la Sociedad Civil,-91.4215388,17.4761635,,OSC / ONG,,ACNUR servicios
Club Gay Amazonas,Organizaciones de la Sociedad Civil,-91.4271326,17.4785904,,OSC / ONG,,ACNUR servicios
Casa de la Cultura Celia Gonzalez de Rovirosa,"Cultura, Recreación y Transporte",-91.4234019,17.4710637,,OSC / ONG,,ACNUR servicios
Biblioteca Publica Muncipal,"Cultura, Recreación y Transporte",-91.4225261,17.4712146,,OSC / ONG,,ACNUR servicios
Gimnasio Comunitario,"Cultura, Recreación y Transporte",-91.4144442,17.4676152,,OSC / ONG,,ACNUR servicios
Terminal de autobuses,"Cultura, Recreación y Transporte",-91.4331522,17.4604703,,OSC / ONG,,ACNUR servicios
Taxis seguros,"Cultura, Recreación y Transporte",-91.4259203,17.4769473,,OSC / ONG,,ACNUR servicios
Casa del Migrante en Tijuana A.C.,Albergues y Alimentación,-117.0017001,32.5228819,,OSC / ONG,,ACNUR servicios
Madre Asunta,Albergues y Alimentación,-117.0013542,32.523395,,OSC / ONG,,ACNUR servicios
Casa YMCA,Albergues y Alimentación,-117.0226056,32.5119193,,OSC / ONG,,ACNUR servicios
Espacio Migrante,Albergues y Alimentación,-117.0343361,32.538251,,OSC / ONG,,ACNUR servicios
Desayunador Salesiano Padre Chava,Albergues y Alimentación,-117.032126,32.5367559,,OSC / ONG,,ACNUR servicios
Consulado de El Salvador en Tijuana,Consulados,-117.0133631,32.5213825,,OSC / ONG,,ACNUR servicios
"Consulado General de Honduras en Tijuana, Baja California",Consulados,-117.0133631,32.5213825,,OSC / ONG,,ACNUR servicios
Consulado General de Guatemala en Tijuana,Consulados,-117.0141678,32.524819,,OSC / ONG,,ACNUR servicios
Oficina de representación consular de Haití,Consulados,-116.9745087,32.5039151,,OSC / ONG,,ACNUR servicios
Instituto Nacional de Migración (INM),Instituciones Públicas,-116.9522701,32.5049938,,OSC / ONG,,ACNUR servicios
COMAR,Instituciones Públicas,-117.0598244,32.5390947,,OSC / ONG,,ACNUR servicios
Dirección Municipal de Atención al Migrante del H. Ayuntamiento de Tijuana,Instituciones Públicas,-117.0190721,32.5322299,,OSC / ONG,,ACNUR servicios
"Centro 32, FBT México",Educación,-117.0158289,32.519687,,OSC / ONG,,ACNUR servicios
"Asylum Access México ""Oficina Tijuana""",Educación,-117.0381983,32.5306673,,OSC / ONG,,ACNUR servicios
Centro Scalabrini de Formación para Migrantes - CESFOM,Educación,-117.0051415,32.5271684,,OSC / ONG,,ACNUR servicios
Programa Binacional de Educación Migrante (PROBEM),Educación,-117.0169887,32.53238,,OSC / ONG,,ACNUR servicios
ACNUR,Organismos Internacionales,-117.0149413,32.5245142,,OSC / ONG,,ACNUR servicios
Clínica Resistencia En Salud - RHA,Salud,-117.0340369,32.5383146,,OSC / ONG,,ACNUR servicios
RHA - Justicia en Salud (Parteras),Salud,-117.0342396,32.5383092,,OSC / ONG,,ACNUR servicios
PREVENCASA A.C,Salud,-117.044898,32.538914,,OSC / ONG,,ACNUR servicios
CAPASITS,Salud,-116.8492185,32.4718945,,OSC / ONG,,ACNUR servicios
Hospital General Tijuana,Salud,-117.0095238,32.525088,,OSC / ONG,,ACNUR servicios
Hospital Materno Infantil de Tijuana,Salud,-116.929334,32.4902353,,OSC / ONG,,ACNUR servicios
Comisión Nacional de los Derechos Humanos (CNDH),Derechos Humanos y Asesoría legal,-117.0085994,32.5216834,,OSC / ONG,,ACNUR servicios
Comisión Estatal de los Derechos Humanos de Baja California ,Derechos Humanos y Asesoría legal,-116.9510415,32.504085,,OSC / ONG,,ACNUR servicios
PROFEDET Procuraduría Federal de la Defensa Trabajo ,Derechos Humanos y Asesoría legal,-117.0248157,32.528507,,OSC / ONG,,ACNUR servicios
"Asylum Access México ""Oficina Tijuana""",Derechos Humanos y Asesoría legal,-117.0381983,32.5306673,,OSC / ONG,,ACNUR servicios
Fundación Scalabrini de México A.C.,Derechos Humanos y Asesoría legal,-117.0051415,32.5271684,,OSC / ONG,,ACNUR servicios
"Casa del Migrante en Tijuana, AC",Derechos Humanos y Asesoría legal,-117.0016835,32.5228103,,OSC / ONG,,ACNUR servicios
Espacio Migrante,Derechos Humanos y Asesoría legal,-117.0342535,32.538341,,OSC / ONG,,ACNUR servicios
"Instituto Federal de
Defensoría Pública (IFDP)",Derechos Humanos y Asesoría legal,-117.0141134,32.5252623,,OSC / ONG,,ACNUR servicios
"USCRI México, Clínica Jurídica Binacional",Derechos Humanos y Asesoría legal,-117.0382688,32.5306653,,OSC / ONG,,ACNUR servicios
Instituto Municipal de la Mujer,Atención psicológica y emocional por estrés y/o violencia,-117.0337884,32.5374915,,OSC / ONG,,ACNUR servicios
"Centro 32, FBT México",Atención psicológica y emocional por estrés y/o violencia,-117.0158289,32.519687,,OSC / ONG,,ACNUR servicios
Fundación Scalabrini de México A.C.,Atención psicológica y emocional por estrés y/o violencia,-117.0051415,32.5271684,,OSC / ONG,,ACNUR servicios
DIF Municipal Tijuana,Atención psicológica y emocional por estrés y/o violencia,-116.9447642,32.5035179,,OSC / ONG,,ACNUR servicios
"CEJUM Tijuana, Centro de Justicia Para las Mujeres del Estado De Baja California",Atención psicológica y emocional por estrés y/o violencia,-116.9742844,32.4768181,,OSC / ONG,,ACNUR servicios
"Dirección de Igualdad de Género
(Ayuntamiento de Tulum)",Justicia,-87.4633767,20.2105996,,OSC / ONG,,ACNUR servicios
Comision de los Derechos Humanos,Derechos Humanos,-87.4632223,20.2082041,,OSC / ONG,,ACNUR servicios
Centro De Salud Urbano Tulum,Salud,-87.4653396,20.208972,,OSC / ONG,,ACNUR servicios
Cruz Roja Mexicana Tulum,Salud,-87.4506189,20.2073614,,OSC / ONG,,ACNUR servicios
Instituto Quintanarroense de la Mujer,Mujer,-87.4607209,20.2156866,,OSC / ONG,,ACNUR servicios
Terminal Autobuses,Transporte,-87.4650399,20.2106411,,OSC / ONG,,ACNUR servicios
Mercado Tulum,Compras,-87.4622734,20.20893,,OSC / ONG,,ACNUR servicios
Casa de la Cultura ,Cultura,-87.4627189,20.2082185,,OSC / ONG,,ACNUR servicios
Zona Arqueológica de Tulum,Cultura,-87.4294668,20.2150812,,OSC / ONG,,ACNUR servicios
Gran Cenote,Cultura,-87.464201,20.2465818,,OSC / ONG,,ACNUR servicios