name,descripcion,latitud,longitud,coordenadas,tipo,direccion,bd
 Otros Dreams en Acción ,,,,,OSC / ONG,"José María Marroquí 83 Colonia Centro, Centro, 06000 Centro, CDMX,Ciudad de México, Ciudad de México",redes
" Cáritas Mazatlán, I.A.P (Albergue al peregrino) ",,,,,OSC / ONG,"Toma de Celaya 86, Col. Francisco Villa, C.P. 82127,Mazatlán, Sinaloa",redes
 Albergue Una Gota en el Océano ,,,,,OSC / ONG,"Bahía Magdalena 20, Col. Rincón de Urías, C.P. 82070,Mazatlán, Sinaloa",redes
 Albergue Ejército de Salvación ,,,,,OSC / ONG,"C. Gutierrez Nájera #514 Colonia Centro 82000,Mazatlán, Sinaloa",redes
 CAVI Centro de Atención a la Violencia Intrafamiliar ,,,,,OSC / ONG,"AVE. EJERCITO MEXICANO 2017 ALTOS COL. PALOS PRIETOS,Mazatlán, Sinaloa",redes
" Asociación Casa del Migrante La Divina Providencia, I.A.P. ",,,,,OSC / ONG,"Avenida Zaragoza # 912, Col. Comercial, C.P. 83449,San Luis Río Colorado, Sonora",redes
 Comedor Iniciativa Kino para La Frontera ,,,,,OSC / ONG,"Bulevar Luis Donaldo Colosio SN/N Col. del Rosario C.P. 84000,Nogales, Sonora",redes
" Centro de Atención a Migrantes Deportados (CAMDEP), Iniciativa Kino para la Frontera ",,,,,OSC / ONG,"Bulevard Luis Donaldo Colosio # 55 Col. Del Rosario, C.P. 84000,Nogales, Sonora",redes
 Casa hogar para niñas Madre Conchita ,,,,,OSC / ONG,"Tecnologico 33, Col. El Greco C.P. 84066,Nogales, Sonora",redes
 Casa Hogar Nuestros Pequeños Hermanos ,,,,,OSC / ONG,"Pima 1, Lomas de Fátima, Nogales, Sonora C.P. 84020,Nogales, Sonora",redes
" Albergue para migrantes San Juan Bosco, I.A.P. ",,,,,OSC / ONG,"Montaño # 1063-A Colonia Municipal C.P. 84060,Nogales, Sonora",redes
 Centro Comunitario de Atención al Migrante y Necesitado (CCAMYN) ,,,,,OSC / ONG,"Av. Gonzalo Celdain # 78 Colonia Buenos Aires, C.P. 83750,Altar, Sonora",redes
" Centro de Atención al Migrante Exodus, A.C. (CAME) ",,,,,OSC / ONG,"Av. Anáhuac 108 Colonia Centro Ferrocarril C.P. 84200,Agua Prieta, Sonora",redes
 Casa YMCA para menores migrantes ,,,,,OSC / ONG,"Calle 1a entre 12 y 13 Agua Prieta, Sonora 84200,Agua Prieta, Sonora",redes
 Casa de Atención al Migrante El Santuario ,,,,,OSC / ONG,"Capilla de Macuspana (Estación de tren),Macuspana, Tabasco",redes
 La72: Hogar-Refugio para personas migrantes ,,,,,OSC / ONG,"Prolongacion 20 S/N, Estacion Nueva 86901, Tenosique de Pino Suárez, Tabasco,Tenosique, Tabasco",redes
 Las Americas IAC (Immigrant Advocacy Center) ,,,,,OSC / ONG,"1500 E Yandell Dr. El Paso, TX 79902,El Paso, Texas",redes
 Mexicanos en Exilio ,,,,,OSC / ONG,"1430 E Yandell El Paso, TX 79902,El Paso, Texas",redes
" Diocesan Migrant and Refugee Services, Inc (DMRS) ",,,,,OSC / ONG,"2400 Yandell Dr El Paso, TX 79903,El Paso, Texas",redes
 Hope Border Institute ,,,,,OSC / ONG,"8330 Park Haven Ave, El Paso, TX 79907, United States,El Paso, Texas",redes
 Casa de Migrantes Mons. Guillermo Ranzahuer ,,,,,OSC / ONG,"Calle Miguel Hidalgo 604, Barrio Primero, 96160 Oluta, Veracruz, México,Acayucan, Veracruz",redes
 Hmnas de San José de Lyón (albergue Decanal Guadalupano) ,,,,,OSC / ONG,"Calle Aldama #50, entre Tuxpan y Lafragua Tierra Blanca, Col. El Viejo, C.P. 95180,Tierra Blanca de Ignacio de la Llave, Veracruz",redes
 Casa del Migrante Santa Faustina Kowalska ,,,,,OSC / ONG,"Calle La Venta 434 Col. Dunas,Coatzacoalcos, Veracruz",redes
 Casa del Migrante Diocesis de Coatzacoalcos A.C. ,,,,,OSC / ONG,"Albergue para mujeres: Calle Soledad del Doblado, esquina Pascual Orozco, cerca del puente de Av.1 Coatzacoalcos,Coatzacoalcos, Veracruz",redes
 Casa del Migrante Diócesis de Coatzacoalcos A.C. ,,,,,OSC / ONG,"Albergue para hombres: Río Pánuco s/n, entre Río Tuxpan y Río Calzadas, Col. Coatzacoalcos, (Albergue Diócesis de Coatzacoalcos), C.P. 96499,Coatzacoalcos, Veracruz",redes
 Comedor para migrantes Las Patronas ,,,,,OSC / ONG,"Calle 14 s/n Col. Guadalupe Amatlán de los Reyes,Amatlán de los Reyes, Veracruz",redes
 Instituto para el desarrollo de la cultura Maya del estado de Yucatán INDEMAYA ,,,,,OSC / ONG,"Calle 66 num 532 x 63 y 65 col centro cp. 97000,Mérida, Yucatán",redes
" Centro de los Derechos del Migrante, Inc (CDM) ",,,,,OSC / ONG,"Calle Víctor Rosales #164, Col. Centro, C.P. 98000,Zacatecas, Zacatecas",redes
" Federación Zacatecana, AC (FEDZAC) ",,,,,OSC / ONG,"Francisco Villa #11 Colonia Revolucion Mexicana,Guadalupe, Zacatecas",redes
 Casa del Migrante Emaus ,,,,,OSC / ONG,"Díaz Mirón 607,entre Gochicoa y Alarcón, Col. Casjal, C.P.89280,Tampico, Tamaulipas",redes
 Casa del Migrante Senda de Vida ,,,,,OSC / ONG,"Calle Bordo de Protección No. 5,Reynosa, Tamaulipas",redes
 Albergue del Migrante Nuestra Señora de Guadalupe A.C. ,,,,,OSC / ONG,"Nogal-aldama 501, Col. Aquiles Serdan I, 88520 Reynosa, Tamaulipas, Mexico.,Reynosa, Tamaulipas",redes
" Red Paisano México-USA, AC. ",,,,,OSC / ONG,"Obregon 1810, Nuevo Laredo, Tamaulipas C.P 88000,Nuevo Laredo, Tamaulipas",redes
" Casa del Migrante Amar, A.C. ",,,,,OSC / ONG,"Canales 2112, Sector Centro, C.P. 88160,Nuevo Laredo, Tamaulipas",redes
 Casa del Migrante Nazareth A.C. ,,,,,OSC / ONG,"Calle Francisco I. Madero 350, Colonia Viveros, 88070 Nuevo Laredo, Tamps.,Nuevo Laredo, Tamaulipas",redes
 Casa San Juan Diego y San Francisco de Asís A.C. ,,,,,OSC / ONG,"Avenida Golfo de México No. 49, Colonia Ampliación Solidaridad C.P. 87456,Matamoros, Tamaulipas",redes
 Casa del Migrante San Juan Diego y San Francisco de Asís A.C. ,,,,,OSC / ONG,"Avenida Golfo de Mexico No. 48, Colonia Ampliación Solidaridad C.P. 87456,Matamoros, Tamaulipas",redes
 Fundación Despierta al Mundo A.C. ,,,,,OSC / ONG,"Villa de Aguayo 255, Fracc. Haciendas del Santuario, Cd. Victoria, Tamaulipas, México,Ciudad Victoria, Tamaulipas",redes
 Centro Fray Julián Garces A. C. ,,,,,OSC / ONG,"Calle 11 No. 214,Loma Xicohténcatl, Tlaxcala",redes
 Un Mundo Una Nación A. C. ,,,,,OSC / ONG,"6a Avenida No. 2903, Col. El Carmen,Apizaco, Tlaxcala",redes
 Albergue para migrantes “La Sagrada familia” ,,,,,OSC / ONG,"3ª Privada Álvaro Obregón s/n, Col. Ferrocarrilera,Apizaco, Tlaxcala",redes
 Instituto Nacional de Salud Pública (INSP) ,,,,,OSC / ONG,"Universidad No. 655 Colonia Santa María Ahuacatitlán, Cerrada Los Pinos y Caminera C.P. 62100, Cuernavaca, Morelos. México,Cuernavaca, Morelos",redes
 Migrante Hagamos un puente contigo SEDESO ,,,,,OSC / ONG,"Plan de Ayala número 825 Plaza Cristal local 26 y 27a 3er nivel Teopanzolco C.P. 62350 Cuernavaca, Morelos,Cuernavaca, Morelos",redes
 Centro Casa Origen Nayarit ,,,,,OSC / ONG,"Privada Margarita No. 32, Col. Villas de San Juan, C.P. 63130,Tepic, Nayarit",redes
 Casa de la Esperanza San José ,,,,,OSC / ONG,"Padre Enrique Mejía 194, Col. Centro, C.P. 63000,Tepic, Nayarit",redes
 Albergue Obsidiana ,,,,,OSC / ONG,"Calle Amado Nervo 164 A, Col. Everardo Peña Navarro C.P. 63940,Ixtlán del Río, Nayarit",redes
 Ayuda Humanitaria al Migrante Casa Monarca ,,,,,OSC / ONG,"Priv. Nicolás Bravo 510, Col. Nueva Santa Catarina C.P. 66350,Santa Catarina, Nuevo León",redes
" Paso de Esperanza, A.C ",,,,,OSC / ONG,"Condominio Acero, Oficina 612, Zaragoza 1000-B esq. con Ocampo,Monterrey, Nuevo León",redes
 Hogar de las Bienaventuranzas A.C. ,,,,,OSC / ONG,"Emilio Carranza 301 Norte Esquina con Alvino Espinoza, Col. Centro,Monterrey, Nuevo León",redes
 Hospedaje para trabajadores inmigrantes ,,,,,OSC / ONG,"Aldama # 937 entre Ocampo e Hidalgo Colonia Centro,Monterrey, Nuevo León",redes
 Casa del Forastero Santa Martha ,,,,,OSC / ONG,"José María Bocanegra Pte. No. 801 esquina con Amado Nervo Col. Industrial (Parroquia Santa Maria Goretti),Monterrey, Nuevo León",redes
 Albergue Ejército de Salvación ,,,,,OSC / ONG,"Carvajal y de la Cueva 1716 Norte, Col, Primero de Mayo, 64580,Monterrey, Nuevo León",redes
 Albergue y Comedor Público para Mujeres Migrantes Vislumbrando un Nuevo Horizonte ,,,,,OSC / ONG,"Av. 5 de Mayo 494, Col. Centro C.P. 64000,Monterrey, Nuevo León",redes
 Casa de Migrantes Casa Nicolás Tolentino ,,,,,OSC / ONG,"Emiliano Zapata 4417 esq. con Serafín Peña. Col. Guadalupe Victoria C.P. 67180,Ciudad Guadalupe, Nuevo León",redes
 Institución Normativa de los Indigentes (Casa INDI) ,,,,,OSC / ONG,"Av Bernardo Reyes 2616 Bella Vista, 64400 Monterrey, N.L.,Monterrey, Nuevo León",redes
 Centro de orientación del migrante de Oaxaca ,,,,,OSC / ONG,"Callejón de Guadalupe Victoria s/n, Col. Centro, C.P. 68000,Oaxaca, Oaxaca",redes
 Casa del Migrante Ruchagalú ,,,,,OSC / ONG,"Av. Primero de mayo #1110, Col. Rincón Viejo, Santa María Petapa, C.P. 70370,Matías Romero, Oaxaca",redes
 Capilla-Albergue Hermanos en el Camino A.C. ,,,,,OSC / ONG,"Av. Ferrocarril Pte. #60, Barrio ""La Soledad"" C.P. 70110,Ciudad Ixtepec, Oaxaca",redes
 Parroquia de la Asunción Ayuda Humanitaria a Migrantes en Tránsito ,,,,,OSC / ONG,"Calle 45 Norte 206, Col. Aquiles Serdán C.P. 72140,Puebla, Puebla",redes
 Casa del Migrante de la Parroquia de Nuestra Señora de los Desamparados ,,,,,OSC / ONG,"Av. 36 Poniente 3308, Col. Nueva Aurora, atrás de la Central de Autobuses, C.P. 42070,Puebla, Puebla",redes
 Misión derechos humanos de la sierra gorda de Querétaro A.C. ,,,,,OSC / ONG,"Mariano Matamoros No. 14 Zona Centro 76340 Jalpan de Serra, Querétaro, México,Jalpan de Serra, Querétaro",redes
" Albergue para migrantes Toribio Romo, A.C. ",,,,,OSC / ONG,"Priv. Campesinos 1, Col. San Pedrito Peñuelas, C.P. 76140,Querétaro, Querétaro",redes
 Estancia González y Martínez A.C ,,,,,OSC / ONG,"Antigua Estación Bernal, Calle Juarez oriente C.P 76776,Tequisquiapan, Querétaro",redes
 Centro de Apoyo Marista al Migrante  (CAMMI) ,,,,,OSC / ONG,"Marte No. 2 Esq. Av. Universidad Col. Centro CP. 76000 Querétaro, Qro. (Universidad Marista de Querétaro),Querétaro, Querétaro",redes
 Casa Del Migrante San Luis Potosi. Programa de Cáritas SLP ,,,,,OSC / ONG,"Álvaro Obregón 626, Centro Historico, 78000,San Luis Potosí, San Luis Potosí",redes
 Casa de la Caridad Cristiana CCC ,,,,,OSC / ONG,"Calle Juan Álvarez #210, esquina vía México-Laredo, barrio de Tlaxcala,San Luis Potosí, San Luis Potosí",redes
 Sin Fronteras IAP ,,,,,OSC / ONG,"Carlos Dolci # 96. Col. Alfonso XII,de México, 01460 Ciudad Ciudad de México, Ciudad de México",redes
 AS Movilidad AC ,,,,,OSC / ONG,"Avenida México Coyoacán # 295 PB 1,de México, 03330 Ciudad Ciudad de México, Ciudad de México",redes
 Casa Refugio Citlaltépetl ,,,,,OSC / ONG,"Citlaltépetl # 25,de México, 6170 Ciudad Ciudad de México, Ciudad de México",redes
 Servicios Jesuitas a Migrantes SJM ,,,,,OSC / ONG,"Orizaba 39 Roma Nte. Cuauhtémoc 06700,de México, CDMX Ciudad Ciudad de México, Ciudad de México",redes
 Fundación Carlos Slim ,,,,,OSC / ONG,"Lago Zurich 245, Col. Ampliación Granada,Ciudad de México, Ciudad de México",redes
 Mi Valedor ,,,,,OSC / ONG,"Bucareli 69 C,Ciudad de México, Ciudad de México",redes
" Centro de los Derechos del Migrante, Inc ",,,,,OSC / ONG,"Calle Zamora #169-4 C.P. 06140,Ciudad de México, Ciudad de México",redes
 Casa de los Amigos A.C. APOFAM ,,,,,OSC / ONG,"Ignacio Mariscal 132,Ciudad de México, Ciudad de México",redes
 Misioneras de San Carlos Borromeo Scalabrinianas ,,,,,OSC / ONG,"Calle Zapote 31, San Fernando,Ciudad de México, Ciudad de México",redes
 Asociación Mexicana de Uniones de Crédito del Sector Social (AMUCSS) ,,,,,OSC / ONG,"Hermosillo 14 código 2, Roma Sur Cuauhtémoc 06760,de México, CDMX Ciudad Ciudad de México, Ciudad de México",redes
" Instituto de Estudios y Divulgación sobre Migración, AC (INEDIM) ",,,,,OSC / ONG,"Calle Mexicali 4 Hipódromo 06100,de México, CDMX Ciudad Ciudad de México, Ciudad de México",redes
 New Comienzos A.C. ,,,,,OSC / ONG,"Plaza de la República Centro Histórico, CDMX,Ciudad de México, Ciudad de México",redes
 Fundación Origen A.C. ,,,,,OSC / ONG,"Juan O'donojú 221, Lomas Virreyes, Lomas de Chapultepec IV Secc, 11000,de México, CDMX Ciudad Ciudad de México, Ciudad de México",redes
 Lasos de Union por Durango AC ,,,,,OSC / ONG,"Villa Union Poanas, Durango,Durango, Durango",redes
 Casa del Migrante El Samaritano ,,,,,OSC / ONG,"Av. del Bosque 360, U.H. Antonio Osorio de León, Col. Bojay, Atitalaquia, Hidalgo. C.P. 42970,Atitalaquia, Hidalgo",redes
" El Diamante de Fuego, AC ",,,,,OSC / ONG,"V Carranza 528, San Clemente C.P. 42070,Pachuca, Hidalgo",redes
 HERMANAS de los Sagrados Corazones Casa del Migrante “El Samaritano” ,,,,,OSC / ONG,"Av. del Bosque 360, U.H. Antonio Osorio de León, Col. Bojay, Atitalaquia, Hidalgo.,Bojay, Hidalgo",redes
 La casa del migrante del Cerro del Cuatro ,,,,,OSC / ONG,"Constitución 332 esquina con Ignacio Mejia, Col. Cerro del 4 C.P. 45599,Tlaquepaque, Jalisco",redes
 Instituto Jalisciense para los Migrantes ,,,,,OSC / ONG,"Calle Penitenciaria 180, Colonia Americana, CP. 44160,Guadalajara, Jalisco",redes
" Dignidad y Justicia en el Camino, AC (FM4-Paso Libre) ",,,,,OSC / ONG,"Calderón de la Barca #468-A, Col. Arcos Vallarta, C.P. 44130,Guadalajara, Jalisco",redes
 UVEMAC ,,,,,OSC / ONG,"Av. Lago Xochimilco # 381. Col. Ampliación Vicente Villada,Nezahualcóyotl, 57710  Ciudad Ciudad Nezahualcóyotl, Estado de México",redes
 Centro Casa Origen ,,,,,OSC / ONG,"Calle sin nombre CP 50960,Villa Victoria, Estado de México",redes
 Instituto del Rincón A.C. ,,,,,OSC / ONG,"Avenida Morelos No. 124 CP 52440,Malinalco, Estado de México",redes
 Deportados Unidos en la Lucha ,,,,,OSC / ONG,"Valle de Arriba 66-2 Valle de Aragon 1era seccion., 57100,Nezahualcóyotl,, de México Ciudad Ciudad Nezahualcóyotl Estado Estado de México",redes
 Albergue Casa del Migrante San Juan Diego ,,,,,OSC / ONG,"Camino Tequixquiac km 50.5, Barrio San Bartolo,Huehuetoca, Estado de México",redes
" Centro de Derechos Humanos de la Montaña Tlachinollan, AC ",,,,,OSC / ONG,"Mina #77 Col. Centro C.P 41300,Tlapa, Guerrero",redes
 Centro Casa Origen ,,,,,OSC / ONG,"Unidad Habitacional Colosio, Condominio Obsidiana No. 51, Puerto Márquez, Acapulco, Guerrero. C.P. 39890,Acapulco, Guerrero",redes
 Caminamos Juntos ,,,,,OSC / ONG,"Abierto por cita. Solicitar cita previa. Zona Centro 37700 San Miguel de Allende, Guanajuato,San Miguel de Allende, Guanajuato",redes
 Casa San Carlos Borromeo ,,,,,OSC / ONG,"Moroleón #107, Col. Guanajuato C.P. 36790,Salamanca, Guanajuato",redes
" Irapuato Vive, AC ",,,,,OSC / ONG,"Jesús García 356 Zona Centro C.P. 36510,Irapuato, Guanajuato",redes
 Fundación Comunitaria del Bajío ,,,,,OSC / ONG,"Manuel Altamirano No. 480-1 C.P. 35600,Irapuato, Guanajuato",redes
 Centro Regional de la Red de Mujeres de Bajío ACCEREMUBA ,,,,,OSC / ONG,"Alvaro Obregón 381-5, Planta Alta, zona Centro, CP 3800,Celaya, Guanajuato",redes
 Casa del migrante ABBA ,,,,,OSC / ONG,"Calle, Eufemio Zapata #216. Colonia, Emiliano Zapata. Celaya Guanajuato. C.P 38030,Celaya, Guanajuato",redes
" Albergue Manos Extendidas para los Necesitados, AC ",,,,,OSC / ONG,"16 de Septiembre 428 Celaya, Guanajuato, C.P. 38057 (casi enfrente del templo del Barrio del Zapote),Celaya, Guanajuato",redes
 Dream in Mexico A.C. ,,,,,OSC / ONG,"Virtual,León, Guanajuato",redes
 SEMIGRANTE (Zitácuaro) ,,,,,OSC / ONG,"Interior Palacio Municipal, Ocampo Poniente No. 13, Col. Centro, C.P. 61500,Zitácuaro, Michoacán",redes
 SEMIGRANTE (Ziracuaretiro) ,,,,,OSC / ONG,"Presidencia Municipal, Portal Matamoros S/N, Colonia Centro, C.P. 61700,Ziracuaretiro, Michoacán",redes
 SEMIGRANTE (Zinapécuaro) ,,,,,OSC / ONG,"Interior Casa de la Cultura, Av. Hidalgo No. 32, Col. Centro, C.P. 58930,Zinapécuaro, Michoacán",redes
 SEMIGRANTE (Zináparo) ,,,,,OSC / ONG,"Interior Palacio Municipal, Calle Ruiseñor No. 01, Col. Centro, C.P. 59460,Zináparo, Michoacán",redes
 SEMIGRANTE (Zamora) ,,,,,OSC / ONG,"Palacio Municipal, Guerrero Ote. No. 82, Col. Centro, C.P. 59600,Zamora, Michoacán",redes
 SEMIGRANTE (Zacapu) ,,,,,OSC / ONG,"Interior Oficina de Relaciones Exteriores, Allende No. 91-A, Col. Centro, C.P. 58600,Zacapu, Michoacán",redes
 SEMIGRANTE (Yurécuaro) ,,,,,OSC / ONG,"Portal Hidalgo S/N, Col. Centro, C.P. 59250,Yurécuaro, Michoacán",redes
 Centro Crecer Solidaridad ,,,,,OSC / ONG,"Av. Mariano Hidalgo #102 Frac Solidaridad,Aguascalientes, Aguascalientes",redes
 Centro Crecer San Marcos ,,,,,OSC / ONG,"Av. Aguascalientes #604 Col. San Marcos,Aguascalientes, Aguascalientes",redes
 Centro Crecer Primo Verdad ,,,,,OSC / ONG,"Av. Guadalupe González #611 Col. Primo Verdad,Aguascalientes, Aguascalientes",redes
 Centro Crecer Pabellón De Arteaga ,,,,,OSC / ONG,"C. Pedro Parga S/N Frac Trojes de San Pedro,Aguascalientes, Aguascalientes",redes
 Centro Crecer Olivares Santana ,,,,,OSC / ONG,"Benjamín de la Mora S/N Fracc. Olivares Santana,Aguascalientes, Aguascalientes",redes
 Centro Crecer Mujeres Ilustres ,,,,,OSC / ONG,"C. Ángela Peralta #228 esquina Margarita Maza de Juárez Fracc. Mujeres Ilustres,Aguascalientes, Aguascalientes",redes
 Centro Crecer Insurgentes ,,,,,OSC / ONG,"Actualmente se cuenta con 26 centros CRECER distribuidos en todo el estado, funcionando con más de 72 clases o talleres, con alrededor de 25 000 beneficiarios mensuales.,Aguascalientes, Aguascalientes",redes
 Centro Crecer Pirules ,,,,,OSC / ONG,"Actualmente se cuenta con 26 centros CRECER distribuidos en todo el estado, funcionando con más de 72 clases o talleres, con alrededor de 25 000 beneficiarios mensuales.,Aguascalientes, Aguascalientes",redes
 Centro Crecer Palomino Dena ,,,,,OSC / ONG,"Gilberto López Velarde #314, Lic Benito Palomino Dena, C. P. 20172,Aguascalientes, Aguascalientes",redes
 Centro Crecer Obraje ,,,,,OSC / ONG,"Prof. Enrique Olivares Santana #119, Col. Obraje, C. P. 20230,Aguascalientes, Aguascalientes",redes
 Centro Crecer Nazario Ortiz Garza ,,,,,OSC / ONG,"Calle Agustín Pradillo #302, Col. Progreso, C. P. 20179,Aguascalientes, Aguascalientes",redes
 Centro Crecer Miravalle ,,,,,OSC / ONG,"Calle Felipe Ruiz de Chávez #614, Col. Miravalle, C. P. 20040,Aguascalientes, Aguascalientes",redes
 Centro Crecer La Salud ,,,,,OSC / ONG,"Calle De La Luna 125, Laurel, Barrio de la Salud, C.P. 20240,Aguascalientes, Aguascalientes",redes
 Centro Crecer La Estrella ,,,,,OSC / ONG,"Calle La Lira #1009, Col. La Estrella, C. P. 20150,Aguascalientes, Aguascalientes",redes
 Centro Crecer Jesús Terán (Gómez Portugal) ,,,,,OSC / ONG,"Av. Palmas Esq Olivos Fracc. Jesús Terán,Aguascalientes, Aguascalientes",redes
 Centro Crecer Constitución ,,,,,OSC / ONG,"Art. 24 esquina con Art. 14 Col. Constitución,Aguascalientes, Aguascalientes",redes
 Casa Migrante Camino a la Vida ,,,,,OSC / ONG,"José Guadalupe Posada #828, (a un lado del Panteón de la Cruz) C.P 20050,Aguascalientes, Aguascalientes",redes
 SEMIGRANTE (Vista Hermosa) ,,,,,OSC / ONG,"Interior Antigua Escuela de Los Hermanos, Av. Juarez S/N, Col. Centro, C.P. 59200,Vista Hermosa, Michoacán",redes
 SEMIGRANTE (Villamar) ,,,,,OSC / ONG,"Interior Palacio Municipal S/N, Colonia Centro, C.P. 59550,Villamar, Michoacán",redes
 SEMIGRANTE (Venustiano Carranza) ,,,,,OSC / ONG,"Interior Palacio Municipal, Hidalgo No. 2, Col. Centro, C.P. 59160,Venustiano Carranza, Michoacán",redes
 SEMIGRANTE (Uruapan) ,,,,,OSC / ONG,"Av. Chiapas No. 93, Int. 201, Col. Ramon Farias, C.P. 60050,Uruapan, Michoacán",redes
 SEMIGRANTE (Tzitzio) ,,,,,OSC / ONG,"Interior Palacio Municipal, Calle Allende S/N, Col. Centro, C.P. 61330,Tzitzio, Michoacán",redes
 SEMIGRANTE (Tzintzuntzan) ,,,,,OSC / ONG,"Interior Palacio Municipal, Av. Yacatas No. 25, Col. Centro, Tzintzuntzan, Mich. C.P. 58440,Tzintzuntzan, Michoacán",redes
 SEMIGRANTE (Tuzantla) ,,,,,OSC / ONG,"Av. Sixto Verduzco No. 06, Col. Centro, C.P. 61540,Tuzantla, Michoacán",redes
 SEMIGRANTE (Tuxpan) ,,,,,OSC / ONG,"Interior Palacio Municipal, Av. Morelos No. 04, Col. Centro, C.P. 61420,Tuxpan, Michoacán",redes
 SEMIGRANTE (Turicato) ,,,,,OSC / ONG,"Interior Palacio Municipal, Portal Manuel Muñiz S/N, Colonia Centro, C.P. 61680,Turicato, Michoacán",redes
 SEMIGRANTE (Tumbiscatio) ,,,,,OSC / ONG,"Interior Presidencia Municipal, Kennedy No. 02, Col. Centro, C.P. 60900,Tumbiscatío, Michoacán",redes
 SEMIGRANTE (Tocumbo) ,,,,,OSC / ONG,"Portal Lazaro Cardenas No. 16, Colonia Centro, C.P. 59960,Tocumbo, Michoacán",redes
 SEMIGRANTE (Tlazazalca) ,,,,,OSC / ONG,"Interior Palacio Municipal S/N, Col. Centro, C.P. 58740,Tlazazalca, Michoacán",redes
 SEMIGRANTE (Tlalpujahua) ,,,,,OSC / ONG,"Interior Palacio Municipal, Portal Centenario No. 04, Colonia Centro, C.P. 61060,Tlalpujahua, Michoacán",redes
 SEMIGRANTE (Tiquicheo) ,,,,,OSC / ONG,"Guerrero S/N, Colonia Centro, C.P. 61370,Tiquicheo, Michoacán",redes
 SEMIGRANTE (Tinguindin) ,,,,,OSC / ONG,"Portal Hidalgo S/N, Colonia Centro, C.P. 59980,Tingüindín, Michoacán",redes
 SEMIGRANTE (Tingambato) ,,,,,OSC / ONG,"Interior Palacio Municipal, Portal Hidalgo S/N, Colonia Centro, C.P. 60290,Tingambato, Michoacán",redes
 SEMIGRANTE (Tepalcatepec) ,,,,,OSC / ONG,"Melchor Ocampo No. 145, Col. Centro, C.P. 60540,Tepalcatepec, Michoacán",redes
 SEMIGRANTE (Tarímbaro) ,,,,,OSC / ONG,"Interior Palacio Municipal, Hidalgo No. 11, Col. Centro, C.P. 58880,Tarímbaro, Michoacán",redes
 SEMIGRANTE (Taretan) ,,,,,OSC / ONG,"Portal Ocampo No. 01, Col. Centro, C.P. 61710,Taretan, Michoacán",redes
 SEMIGRANTE (Tanhuato) ,,,,,OSC / ONG,"Portal Hidalgo No. 19, Col. Centro, C.P. 59230,Tanhuato, Michoacán",redes
 SEMIGRANTE (Tangancícuaro) ,,,,,OSC / ONG,"Dr. Miguel Silva No. 105, Colonia Centro, 59750,Tangancícuaro, Michoacán",redes
 SEMIGRANTE (Tangamandapio) ,,,,,OSC / ONG,"Portal Hidalgo S/N, Colonia Centro, C.P. 59920,Tangamandapio, Michoacán",redes
 SEMIGRANTE (Tancítaro) ,,,,,OSC / ONG,"Interior Palacio Municipal, Lazaro Cardenas S/N, Col. Centro, C.P. 60460,Tancítaro, Michoacán",redes
 SEMIGRANTE (Tacámbaro) ,,,,,OSC / ONG,"Portal Marcos A. Jimenez S/N, Colonia Centro C.P. 61650,Tacámbaro, Michoacán",redes
 SEMIGRANTE (Susupuato) ,,,,,OSC / ONG,"Interior Palacio Municipal, Vicente Guerrero No. 06, Colonia Centro, C.P. 61590,Susupuato, Michoacán",redes
 SEMIGRANTE (Senguio) ,,,,,OSC / ONG,"Hidalgo No. 01, Col. Centro, C.P. 61290,Senguio, Michoacán",redes
 SEMIGRANTE (Santa Ana Maya) ,,,,,OSC / ONG,"Lazaro Cardenas Nte. S/N, Col. Centro, C.P. 58900,Santa Ana Maya, Michoacán",redes
 SEMIGRANTE (San Lucas) ,,,,,OSC / ONG,"Av. Servando Chavez No. 01, Col. Centro, C.P. 61980,San Lucas, Michoacán",redes
 SEMIGRANTE (Salvador Escalante) ,,,,,OSC / ONG,"Allende No. 56, Colonia Centro, C.P. 61800, Santa Clara,Salvador Escalante, Michoacán",redes
 SEMIGRANTE (Sahuayo) ,,,,,OSC / ONG,"Palacio Municipal, Boulevard Lazaro Cardenas, Esq. Constitucion S/N, Col. Centro, C.P. 59000,Sahuayo, Michoacán",redes
 SEMIGRANTE (Puruándiro) ,,,,,OSC / ONG,"Portal Hidalgo No. 70, Colonia Centro, C.P. 58502,Puruándiro, Michoacán",redes
 SEMIGRANTE (Purépero) ,,,,,OSC / ONG,"Interior Palacio Municipal, Alvaro Obregon S/N, Col. Centro, C.P. 58760,Purépero, Michoacán",redes
 SEMIGRANTE (Peribán) ,,,,,OSC / ONG,"Ocampo No. 01, Colonia Centro, C.P. 60440,Peribán, Michoacán",redes
 SEMIGRANTE (Penjamillo) ,,,,,OSC / ONG,"Morelos No. 07, Colonia Centro, C.P. 59470,Penjamillo, Michoacán",redes
 SEMIGRANTE (Pátzcuaro) ,,,,,OSC / ONG,"Portal Hidalgo No. 01, Col. Centro, C.P. 61600,Pátzcuaro, Michoacán",redes
 SEMIGRANTE (Paracuaro) ,,,,,OSC / ONG,"Portal Hidalgo No. 34, Col. Centro, C.P. 60760,Parácuaro, Michoacán",redes
 SEMIGRANTE (Paracho) ,,,,,OSC / ONG,"Plaza Principal S/N, Col. Centro, C.P. 60250,Paracho, Michoacán",redes
 SEMIGRANTE (Panindícuaro) ,,,,,OSC / ONG,"Portal Hidalgo No. 01, Col. Centro, C.P. 58570,Panindícuaro, Michoacán",redes
 SEMIGRANTE Morelia ,,,,,OSC / ONG,"Colegio Militar 248 Chapultepec Nte. C.P. 58260 Morelia,  Michoacán,Morelia, Michoacán",redes
 Centro Crecer San Francisco De Los Romo ,,,,,OSC / ONG,"Av. México esquina Venezuela Fracc. San José Buenavista,Aguascalientes, Aguascalientes",redes
 Centro Crecer Rincón De Romos ,,,,,OSC / ONG,"Fracc. Haciendas de San José del Rincón,Aguascalientes, Aguascalientes",redes
 Centro Crecer José María Matamoros ,,,,,OSC / ONG,"Matamoros #704 Centro Jesús María,Aguascalientes, Aguascalientes",redes
 Centro Crecer Jesús María Jonacatique ,,,,,OSC / ONG,"C. Diego Flores #126 Fracc. Solar de Jonacatique,Aguascalientes, Aguascalientes",redes
 Centro Crecer Guadalupe Peralta ,,,,,OSC / ONG,"Av. La Salud #302 esquina Catedráticos Fracc. J. Guadalupe Peralta,Aguascalientes, Aguascalientes",redes
 Centro Crecer Cosío ,,,,,OSC / ONG,"Pról. Esteban Castorena S/N a un costado de Seguridad Pública,Aguascalientes, Aguascalientes",redes
 Centro Crecer Tepezalá ,,,,,OSC / ONG,"Av. 12 de Diciembre S/N Unidad Deportiva Blvd. Granados Roldán,Aguascalientes, Aguascalientes",redes
 Centro Crecer Calvillo ,,,,,OSC / ONG,"Serapio Figueroa 119, Ejidal, 20804,Aguascalientes, Aguascalientes",redes
 Enclave Caracol ,,,,,OSC / ONG,"1er Andador 8250 CP 22000,Tijuana, Baja California",redes
" Unión de Comités Comunitarios de Tijuana, A.C. Módulo de Atención al Migrante Chiapaneco ",,,,,OSC / ONG,"Av. Las Lomas # 590 Colonia Buena Vista CP 22010,Tijuana, Baja California",redes
" Salesiano de Tijuana Desayunador ""Padre Chava"" ",,,,,OSC / ONG,"Av. Melchor Ocampo #700, Zona Centro CP 22000,Tijuana, Baja California",redes
 Programa de Repatriación Humana (Módulo Tijuana) ,,,,,OSC / ONG,"Garita Internacional El Chaparral, S/N, Col. Federal, C.P. 22010,Tijuana, Baja California",redes
" Movimiento JUVENTUD2000, Secc. Tijuana A. C. ",,,,,OSC / ONG,"Av. Constitución #205, esquina con Fernando Sanchez Ayala, Zona Norte CP 22000,Tijuana, Baja California",redes
 Madres y familias deportadas en acción ,,,,,OSC / ONG,"Vía de la Juventud Ote 8800, Defensores de Baja California, CP 22010,Tijuana, Baja California",redes
 Fundacion Mano con Mano por Baja California A.C. ,,,,,OSC / ONG,"Real de San Antonio 5834 Col. Real de San Antonio CP 22666,Tijuana, Baja California",redes
" Federación de Asociaciones Cristianas de Jóvenes de la República Mexicana, A.C. ""Casas YMCA para menores Migrantes"" ",,,,,OSC / ONG,"Blvd. Cuauhtémoc Sur # 3170 Colonia Chula Vista CP 22410,Tijuana, Baja California",redes
" Coalición Prodefensa del Migrante, A.C. Módulo de Atención ",,,,,OSC / ONG,"Garita Puerta México/ Garita Mesa de Otay,Tijuana, Baja California",redes
 Club Amigos de Codet ,,,,,OSC / ONG,"Ave. Padre Kino 10159 Zona Río CP 22320,Tijuana, Baja California",redes
 Centro Binacional de Derechos Humanos A.C. ,,,,,OSC / ONG,"Avda. Paseo del Centenario # 3-B Oficina 11 Zona Río Tijuana contraesquina de Palacio Municipal CP 22320,Tijuana, Baja California",redes
 Instituto Madre Assunta ,,,,,OSC / ONG,"Calle Galileo # 2305 Colonia Postal CP 22416,Tijuana, Baja California",redes
" Casa Hogar Cavit Alejandro, A.C. ",,,,,OSC / ONG,"Francisco I. Madero No. 104 Colonia Divina Providencia CP 22525,Tijuana, Baja California",redes
" Casa del Migrante en Tijuana, A.C. ",,,,,OSC / ONG,"Calle Galileo # 239 Colonia Postal CP 22416,Tijuana, Baja California",redes
 Albergue Temporal Zona Norte ,,,,,OSC / ONG,"Calle Arias Bernal # 112 CP 22100,Tijuana, Baja California",redes
 Albergue Ejército de Salvación Puerta de la Esperanza ,,,,,OSC / ONG,"Calle 17 #550, Adolfo Ruiz Cortinez, Col. Libertad, Parte Baja  CP 22400,Tijuana, Baja California",redes
 Albergue Ejército de Salvación ,,,,,OSC / ONG,"Av. Aquiles Serdan 11585, Colonia Libertad, Parte Baja CP 22300,Tijuana, Baja California",redes
" Agencia Familiar Binacional, AC (AFABI) ",,,,,OSC / ONG,"Av. Mexico No. 8281 Int. 7-8, Zona Centro CP 22000,Tijuana, Baja California",redes
 Casa del Migrante Nuestra Señora de Guadalupe ,,,,,OSC / ONG,"Sta. Teresa 1398, El Descanso C.P. 21478,Tijuana, Baja California",redes
" Casa de Oración del Migrante, A.C. ",,,,,OSC / ONG,"735 Carlota Sosa y 1ra Sur Esquina de Carlota Sosa, Colonia Anexa del Río,Tijuana, Baja California",redes
 INM Grupo Beta Mexicali ,,,,,OSC / ONG,"Av. Melgar No. 1, Garita, Centro Cívico, 21000 Mexicali, B.C.,Tijuana, Baja California",redes
" Módulo Fronterizo ""Juntos en el Camino"" ",,,,,OSC / ONG,"Garita número 1, Carretera Mexicali-Calexico, Módulo # 3,Mexicali, Baja California",redes
 Módulo de Atención Centro de Apoyo al Trabajador Migrante y Albergue del Desierto ,,,,,OSC / ONG,"Carpinteros 1515 G y H Col. Industrial C. P. 21010,Mexicali, Baja California",redes
 Grupo de Ayuda para el Migrante de Mexicali A.C. ,,,,,OSC / ONG,"Av. Michoacan #1377, entre la 5ta y 6ta, Col. Pueblo Nuevo C.P. 21120,Mexicali, Baja California",redes
 El camino a un Nuevo Amanecer ,,,,,OSC / ONG,"Pte. Canal Pacifico , km 15, 5 Ej. Hipolito Renteria,Mexicali, Baja California",redes
 Dispensario Médico Dr. Cañedo ,,,,,OSC / ONG,"Calle Sur # 701,Mexicali, Baja California",redes
" Coordinadora del Programa de Apoyo al Trabajador Migrante Deportado, A.C. ""Casa Betania"" ",,,,,OSC / ONG,"Lago Hudson # 2408 Col. Xochimilco, C.P. 21380,Mexicali, Baja California",redes
 Centro Pastoral Mana de Mexicali IAP ,,,,,OSC / ONG,"Av. Jesús García 1799, Col. Nacozari C.P. 21030,Mexicali, Baja California",redes
" Centro de Reintegración Familiar de Menores Migrantes, A.C. ""Albergue del Desierto"" ",,,,,OSC / ONG,"Carpinteros 1515 G y H Col. Industrial C. P. 21010,Mexicali, Baja California",redes
 Centro de Apoyo al Trabajador Migrante: Comité de Promoción para el Desarrollo de Mexicali ,,,,,OSC / ONG,"Calle Jabonera #6, Colonia Nueva, Mexicali, Baja California 21100,Mexicali, Baja California",redes
 Casa de Ayuda Alfa y Omega ,,,,,OSC / ONG,"Av, Benito Juárez #92, Col. Zona Centro, C.P. 21100,Mexicali, Baja California",redes
" Comedor Cobina, A.C. ",,,,,OSC / ONG,"Av. Lerdo 416, Col. Centro, C.P. 21200,Mexicali, Baja California",redes
" Cáritas Región Mexicali, A.C. El Buen Samaritano ",,,,,OSC / ONG,"Celaya S/N, Parroquia San José Obrero, Col. Bellavista, C.P. 21150,Mexicali, Baja California",redes
" Casa de Oración del Migrante, A.C. ",,,,,OSC / ONG,"Niños Héroes 981, Col. General Jesús Munguia, C.P.22840,Ensenada, Baja California",redes
" Albergue San Vicente: Instituto de Derechos Humanos de Indigentes y Migrantes, A.C. ",,,,,OSC / ONG,"Calle Novena #691, Colonia Bustamante, Ensenada, Baja California 22840,Ensenada, Baja California",redes
 Centro de Derechos Humanos Fray Matías de Córdova CDHFMC ,,,,,OSC / ONG,"Cuarta Avenida Sur #6, Col. Los Naranjos, Centro C.P. 30830,Tapachula, Chiapas",redes
" Centro de Atención a niñas, niños y jóvenes migrantes ",,,,,OSC / ONG,"Calle Quinta, Privada sur #29, esquina 4ta Oriente C.P. 30830,Tapachula, Chiapas",redes
 Albergue Jesús el buen pastor ,,,,,OSC / ONG,"Carretera a Raymundo Enrique, 500 metros hacia dentro. C.P. 30700,Tapachula, Chiapas",redes
 Albergue infantil La Esperanza ,,,,,OSC / ONG,"3ra. Calle Ote. #37, Col. Centro C.P. 30830,Tapachula, Chiapas",redes
 Albergue Diocesano Belén Congregación de los Misioneros de Scalabrini ,,,,,OSC / ONG,"Miguel Hidalgo 94, Col. San Antonio Cahoacán, C.P. 30789,Tapachula, Chiapas",redes
 Boca de Polen Red de Comunicadores ,,,,,OSC / ONG,"Josefa Ortiz de Dominguez No 28 Int. 1, Barrio de Santa Lucia C.P. 29250,San Cristóbal Las Casas, Chiapas",redes
 Casa del Caminante Jtatic Samuel Ruiz ,,,,,OSC / ONG,"Ninos Heroes 051 C.P. 29960,Palenque, Chiapas",redes
 Casa del Migrante Hogar de la Misericordia ,,,,,OSC / ONG,"Calle Quinta Sur #1420, Col. Playa Fina C.P. 30450,Arriaga, Chiapas",redes
 Programa YMCA de Desarrollo Comunitario y Asistencia Social. Casas YMCA para Menores Migrantes ,,,,,OSC / ONG,"Mariana Varela 191, Col. Chavena, Cd Juarez CP 32060,Ciudad Juárez, Chihuahua",redes
" Derechos Humanos Integrales en Acción, A.C. ",,,,,OSC / ONG,"20 de Noviembre 4305 Col. El Colegio,Juárez, Chih. CP 32310 Ciudad Ciudad Juárez, Chihuahua",redes
 Casa del Migrante en Juárez A.C. ,,,,,OSC / ONG,"Calle Neptuno # 1855 Colonia Satélite CP 32540,Ciudad Juárez, Chihuahua",redes
 Uno de siete migrando A.C. ,,,,,OSC / ONG,"Calle Camargo #101, Col. Revolución C.P. 31135,Chihuahua, Chihuahua",redes
 Bienestar Familiar Lagunero A.C. ,,,,,OSC / ONG,"Calle Popocatepetl 510 Fracc. Carolinas CP 27040,Torreón, Coahuila",redes
 Frontera con Justicia A.C. Casa del Migrante de Saltillo ,,,,,OSC / ONG,"Juan de Erbáez # 2406 Col. Landín CP 25070,Saltillo, Coahuila",redes
 Ejército de Salvación A.C. Centro Comunitario y Comedor Infantil ,,,,,OSC / ONG,"Victoria # 805 Col. Mundo Nuevo CP 26092,Piedras Negras, Coahuila",redes
" Casa YMCA Piedras Negras Programa YMCA de Desarrollo Comunitario y Asistencia Social, A.C. ",,,,,OSC / ONG,"Xicotencatl Norte # 1802 A Col. Mundo Nuevo CP 26010,Piedras Negras, Coahuila",redes
 Casa del Peregrino de Piedras Negras A.C. Frontera Digna Casa del Migrante ,,,,,OSC / ONG,"Anáhuac # 605 Oriente Col. Centro CP 26000,Piedras Negras, Coahuila",redes
" Frontera y Dignidad de Acuña A.C. ""Casa del Migrante EMAUS"" ",,,,,OSC / ONG,"Doctor Coss 47, Col. Centro C.P.26200,Ciudad Acuña, Coahuila",redes
 CAFEMIN ,,,,,OSC / ONG,"Constantino #251, Col. Vallejo CP 7870,Delegación Gustavo A. Madero, Ciudad de México",redes
 Pro Ayuda a la Mujer Origen A.C. ,,,,,OSC / ONG,"Juan O´Donojú 221 Lomas Virreyes, Lomas de Chapultepec IV Secc. CP 11000,Delegación Miguel Hidalgo, Ciudad de México",redes
 Comisión Nacional de los Derechos Humanos ,,,,,OSC / ONG,"Periférico Sur 3469, Col. San Jerónimo Lídice,Ciudad de México, Ciudad de México",redes
" Casa Refugiados, AC ",,,,,OSC / ONG,"Prolongacion Orizaba s/n, dentro del Parque Ramon Lopez Velarde,Delegación Cuauhtémoc, Ciudad de México",redes
 Instituto de Liderazgo Simone de Beauvoir (ILSB) ,,,,,OSC / ONG,"Tabasco 68 Int. 3, col. Roma,Delegación Cuauhtémoc, Ciudad de México",redes
" Iniciativa Ciudadana para la Promoción de la Cultura del Diálogo, AC ",,,,,OSC / ONG,"Tepic 83 Col. Roma Sur,Delegación Cuauhtémoc, Ciudad de México",redes
 Comisión Mexicana para la Defensa y Promoción de los Derechos Humanos ,,,,,OSC / ONG,"Tehuantepec #142, Col. Roma Sur,Delegación Cuauhtémoc, Ciudad de México",redes
 Fundación Fraternidad Sin Frontera IAP ,,,,,OSC / ONG,"Canal Nacional 1057, Coapa, Villa Quietud,Delegación Coyoacán, Ciudad de México",redes
" Fundar, Centro de Análisis e Investigación, AC ",,,,,OSC / ONG,"Cerrada de Alberto Zamora 21, Col. Villa Coyoacán.,Delegación Coyoacán, Ciudad de México",redes
" Iniciativa Ciudadana y Desarrollo Social, AC (Incide Social) ",,,,,OSC / ONG,"Hilario Pérez de León No. 80, Col. Niños Héroes de Chapultepec,Delegación Benito Juárez, Ciudad de México",redes
 Ejército de Salvación Salvation Army ,,,,,OSC / ONG,"San Borja #1456, Col. Vértiz Narvarte,Delegación Benito Juárez, Ciudad de México",redes
" Instituto para la Seguridad y la Democracia, AC (INSYDE) ",,,,,OSC / ONG,"Carolina 80, Cd. de los Deportes, Noche Buena, 03710,Delegación Benito Juárez, Ciudad de México",redes
 Adolescentes en el Camino ,,,,,OSC / ONG,"Axopilco #5, Unidad Habitacional El Recreo, C.P. 02070,Delegación Azcapotzalco, Ciudad de México",redes
" Asociación Mexicana Pro Naciones Unidas, AC ",,,,,OSC / ONG,"Blvd. Adolfo López Mateos 1661 Edificio A12 Despacho 904 Col. Lomas de Plateros.CP 01480,Delegación Álvaro Obregón, Ciudad de México",redes
 Albergue de Migrantes Casa Tochán ,,,,,OSC / ONG,"Calle Pavo Real Entre 40 y 41, Colonia Pino Suárez, C.P. 01141,Delegación Álvaro Obregón, Ciudad de México",redes
 The Rhizome Center for Migrants ,,,,,OSC / ONG,"Contactar vía página web o por teléfono.,Guadalajara, Jalisco",redes
 Puente TJ United ,,,,,OSC / ONG,"No disponible,Tijuana, Baja California",redes
 Madres Soñadoras Internacionales / DREAMers Moms USA / Tijuana A.C. ,,,,,OSC / ONG,"No disponible,Tijuana, Baja California",redes
 Espacio Migrante ,,,,,OSC / ONG,"Avenida Miguel Negrete 8350, Zona Urbana Rio Tijuana,Tijuana, Baja California",redes
 Casa La Banda ,,,,,OSC / ONG,"No disponible,Ciudad de México, Ciudad de México",redes
 Médicos sin fronteras ,,,,,OSC / ONG,"Fernando Montes de Oca 56, Col. Condesa, Del. Cuauhtémoc,Ciudad de México, Ciudad de México",redes
" Corrientes, artísticas, sociales, ambientales. ",,,,,OSC / ONG,"Marroquí 83 esquina con Ayuntamiento, Col. Centro, Del. Cuauhtémoc,Ciudad de México, Ciudad de México",redes
 Cooperativa Fotosíntesis ,,,,,OSC / ONG,"Fray Juan de Torquemada No. 76 Colonia Obrera C.P 06800,Ciudad de México, Ciudad de México",redes
 Fondo Semillas ,,,,,OSC / ONG,"Fragonard 84, Col. San Juan, Del. Benito Juárez,Ciudad de México, Ciudad de México",redes
 Colectivo de Prácticas Narrativas ,,,,,OSC / ONG,"Gobernador Luis G. Viera 38, Col. San Miguel Chapultepec II Sección,,Ciudad de México, Ciudad de México",redes
 Fundación para la justicia y el estado democrático de derecho ,,,,,OSC / ONG,"Calle Palenque 269, Col. Narvarte Oriente, Del. Benito Juárez,Ciudad de México, Ciudad de México",redes
 América sin muros ,,,,,OSC / ONG,"Paseo de la Reforma 296, Piso 19, Del. Benito Juárez,Ciudad de México, Ciudad de México",redes
 Fundación Loyola A.C ,,,,,OSC / ONG,"Mariano Matamoros # 75 Col. del Carmen,Delegación Coyoacán, Estado de México",redes
 Casa del migrante Galilea ,,,,,OSC / ONG,"Calle Independencia 878 esquina con calle Río Balsas. Col. Barrio de San Miguel,León, Guanajuato",redes
 Servicios para una educación alternativa A.C. (EDUCA) ,,,,,OSC / ONG,"Escuadrón 202 No. 203, Col. Antiguo Aeropuerto,Oaxaca, Oaxaca",redes
 Iniciativa Ciudadana para la promoción de la cultura y el diálogo A.C. ,,,,,OSC / ONG,"Calle 7 Poniente # 509 Interior 10,Puebla, Puebla",redes
" La 72, Hogar -Refugio para personas migrantes ",,,,,OSC / ONG,"Estación Nueva,Tenosique, Tabasco",redes
 Hecate Society Tijuana ,,,,,OSC / ONG,"No disponible,Tijuana, Baja California",redes
 Casa de Luz ,,,,,OSC / ONG,"No disponible,Tijuana, Baja California",redes
 Casa Hogar El Puente ,,,,,OSC / ONG,"De Los Toros 14103, Amparo Sanchez, 22183 Tijuana, B.C.,Tijuana, Baja California",redes
 Contra Viento y Marea ,,,,,OSC / ONG,"No disponible,Tijuana, Baja California",redes
 Hecate Society Tapachula ,,,,,OSC / ONG,"No disponible,Tapachula, Chiapas",redes
 Border  Line Crisis Center A. C. ,,,,,OSC / ONG,"MIGUEL NEGRETE LAS CALIFORNIA'S PARK 22000 TIJUANA, B.C. Mexico,Tijuana, Baja California",redes
 Las Vanders ,,,,,OSC / ONG,"No disponible,Ciudad de México, Ciudad de México",redes
 HIAS Monterrey ,,,,,OSC / ONG,"Eglantina 1709, Jardín de Las Torres, 64754 Monterrey, N.L.,Monterrey, Nuevo León",redes
 HIAS Tijuana ,,,,,OSC / ONG,"Ricardo Flores Magón 8119, Zona Centro, 22000 Tijuana, B.C.,Tijuana, Baja California",redes
 HIAS Cd. Juárez ,,,,,OSC / ONG,"Calle Henry Dunant 4505-oficina 2, Zona Pronaf Condominio La Plata, 32310 Cd Juárez, Chih.,Ciudad Juárez, Chihuahua",redes
 HIAS Mexicali ,,,,,OSC / ONG,"Calle México 151, Primera, 21100 Mexicali, B.C. A un costado de la Secretaria de relaciones Exteriores.,Mexicali, Baja California",redes
 HIAS Nuevo Laredo ,,,,,OSC / ONG,"Sin oficina por el momento, solo atención vía telefónica.,Nuevo Laredo, Tamaulipas",redes
 HIAS Matamoros ,,,,,OSC / ONG,"Av. Tamaulipas 241, Jardín, 87330 Heroica Matamoros, Tamps.edificio RCM,Matamoros, Tamaulipas",redes
 HIAS Reynosa ,,,,,OSC / ONG,"Sin oficina por el momento, solo atención para asesoría legal vía telefónica.,Reynosa, Tamaulipas",redes
 Las Vanders Honduras ,,,,,OSC / ONG,"No disponible Email contacto@lasvanders.org Teléfono 00525513901786 Fecha de fundación 2020 Página web Facebook Twitter Instagram Tipo de Iniciativa Organización Tipo de Ayuda Acompañamiento en solicitudes de asilo Alimentación o vestido Arte, cultura y activismo Asesoría en trámites de identificación Asesoría financiera Asesoría legal Asesoría psicológica Asesorías de español Capacitación o Entrenamiento Educación y difusión comunitaria Gestión de transporte Servicios educativos de inclusión Talleres de desarrollo y promoción comunitaria Descripción Las Vanders somos una organización feminista que trabaja a favor de los derechos de mujeres, niñas, jóvenes y personas de la diversidad sexual. Tenemos una base en la,de México desde donde acompañamos a mujeres en procesos migratorios y en situaciones de violencias letales. Desde 2020 abrimos una nueva base en Tegucigalpa para trabajar la migración desde los lugares de origen y en favor de la erradicación de la violencia en contra de mujeres, niñas, jóvenes y personas de la diversidad sexual. Ademas de los servicios que se enlistan ofrecemos: Sistematización de procesos y elaboración de informes; Referencia a refugios seguros; Apoyo en inclusión laboral; Acompañamiento en atención médica (parto, aborto, enfermedades crónicas, servicios de atención a personas con VIH/SIDA, etc.), ",redes
 SMR: Scalabrinianas Misión con Migrantes y Refugiados ,,,,,OSC / ONG,"No disponible,Ciudad de México, Ciudad de México",redes
 SMR: Scalabrinianas Misión con Migrantes y Refugiados en Tapachula ,,,,,OSC / ONG,"5ᵃ̵  Avenida Nte. 46, esquina con 9ª Oriente, Los Naranjos, Centro, 30830 Tapachula de Córdova y Ordoñez, Chiapas.,Tapachula, Chiapas",redes
