name,descripcion,latitud,longitud,coordenadas,tipo,direccion,bd,cruzado,con
Centro de Atención Integral al Tránsito Fronterizo CAITF HUIXTLA,Centro Detención INM,,,"15.16274926829836, -92.53298711377242",GOB,"5F78+2Q, 30649 Salto de Agua, Chis.",GLOBALDETENTIONPROJECT,no,
"Centro de Atención Integral al Tráfico Fronterizo ""La Trinitaria""",Centro Detención INM,,,"16.149934265965072, -92.07211097989494",GOB,"Km 185 de la Carretera Federal 190, del tramo Comitan de Dominguez a la Trinitaria, Municipio de la Trinitaria, Chiapas, 30160",GLOBALDETENTIONPROJECT,no,
Acayucan Estación Migratoria,Centro Detención INM,,,"18.00185137606842, -94.92107650273852",GOB,"Carretera del Golfo Miguel Alemán 221 96000 Acayucan, Ver. México",GLOBALDETENTIONPROJECT,no,
Agua Prieta Estacion Provisional,Centro Detención INM,,,"31.3329465838, -109.5603740215",GOB,"Calle Primero, Av. 3, Línea Internacional, Col. Centro, C.P.84200, Agua Prieta, Sonora.",GLOBALDETENTIONPROJECT,no,
Aguascalientes Estacion Migratoria,Centro Detención INM,,,"21.9295505321, -102.3202228546",GOB,"Calle Juan de Montoro Núm. 223, Col. Centro, C.P. 20000, Aguascalientes,",GLOBALDETENTIONPROJECT,no,
Campeche Estacion Provisional,Centro Detención INM,,,"19.8456600896, -90.5397409201",GOB,"Av. 16 de Septiembre S/n Palacio Federal, Planta Baja, C.P.24000, Centro Histórico, Campeche, Campeche.",GLOBALDETENTIONPROJECT,no,
Chetumal Estacion Migratoria,Centro Detención INM,,,"18.5262955, -88.2833324",GOB,"Calzada Centenario Núm. 582, Col. Isabel Tenorio, Municipio Othon Blanco, C.P. 77010, Chetumal, Quintana Roo.",GLOBALDETENTIONPROJECT,no,
Chihuahua Estacion Migratoria,Centro Detención INM,,,"28.6422573348, -106.0844027996",GOB,"Calle Antonio de Montes Núm. 2116, Col. San Felipe, C.P. 32140, Chihuahua, Chihuahua.",GLOBALDETENTIONPROJECT,no,
Ciudad Cuauhtémoc Estacion Provisional,Centro Detención INM,,,"15.6676681597, -92.0023441315",GOB,"Av. Central Sur 19, Las Champas, 30150 Cd Cuauhtémoc, Chis.",GLOBALDETENTIONPROJECT,no,
Ciudad del Carmen Estacion Provisional,Centro Detención INM,,,"18.6426261197, -91.8236070871",GOB,"Calle 31, Núm. 144, entre 42B y 42C, Col. Tacubaya, C.P.24189 Cd. del Carmen, Campeche",GLOBALDETENTIONPROJECT,no,
Ciudad Juarez Estacion Migratoria,Centro Detención INM,,,"31.7455859739, -106.4839641005",GOB,"General Rivas Guillen Núm. 950, Zona Centro, Cd. Juárez, Chihuahua.C.P. 032000",GLOBALDETENTIONPROJECT,no,
Colima Estancia Provisional,Centro Detención INM,,,"18.5262955, -88.2833324",GOB,"77010 Chetumal, Q.R.",GLOBALDETENTIONPROJECT,no,
Comitán Estacion Provisional,Centro Detención INM,,,"16.2143243177, -92.1155762672",GOB,"Carretera Internacional, S/n Entronque a Tzimol, C.P. 30000, Comitán de Domínguez,",GLOBALDETENTIONPROJECT,no,
Echegaray Estacion Provisional,Centro Detención INM,,,"15.654755, -93.149776",GOB,"Carretera Costera Km. 151*800 (a 200 mts. Del Puente Echegaray), Municipio de Pijijiapan, Chiapas.",GLOBALDETENTIONPROJECT,no,
El Ceibo Estacion Provisional,Centro Detención INM,,,"17.2602872621919, -90.98837286181923",GOB,86928 Tab.,GLOBALDETENTIONPROJECT,no,
El Hueyate Estacion Provisional,Centro Detención INM,,,"15.1605676, -92.5157851",GOB,"Carretera Costera Km. 242-700 (a 800 mts. De la Caseta de Cobro), Municipio de Huixtla, Chiapas.",GLOBALDETENTIONPROJECT,no,
Escarcega Estacion Migratoria,Centro Detención INM,,,"18.6066451798, -90.7393884659",GOB,"Av. Justo Sierra Méndez, S/n, Col. Salsipuedes, C.P. 24350, Carretera Escarcega,",GLOBALDETENTIONPROJECT,no,
Guadalajara Estacion Provisional,Centro Detención INM,,,"20.7269666347, -103.3450627327",GOB,"Av. Prol. Alcalde 1011-Int 39, Hogares del Batan, 45190 Zapopan, Jal.",GLOBALDETENTIONPROJECT,no,
Hermosillo Estacion Migratoria,Centro Detención INM,,,"29.0795712124, -110.9552621841",GOB,"García Morales, Centro, 83000 Hermosillo, Son.",GLOBALDETENTIONPROJECT,no,
Huatulco Estancia Provisional,Centro Detención INM,,,"15.827777, -96.320882",GOB,"Av. Benito Juárez 1221, Deportiva, 70980 Santa María Huatulco, Oax.",GLOBALDETENTIONPROJECT,no,
Huehuetan Estacion Provisional,Centro Detención INM,,,"15.0196034, -92.3931781",GOB,"Carretera Costera Km. 268+000 (a 200 mts. De la entrada al Pueblo de Huehuetan), Municipio de Huhuetan, Chiapas.",GLOBALDETENTIONPROJECT,no,
Iztapalapa Estacion Migratoria (Estacion Migratoria de la Ciudad de Mexico),Centro Detención INM,,,"19.3164691213, -99.0832042694",GOB,"Agujas Esq. con Jacarandas S/n, Col. El Vergel Iztapalapa, C.P. 09880, México, D.F.",GLOBALDETENTIONPROJECT,no,
Janos Estacion Migratoria,Centro Detención INM,,,"30.8848425322, -108.1943893433",GOB,"calle Aguas Calientes S/N Mz. 45 Sector 1, Municipio de Janos, Chihuahua, C.P¨. 33077",GLOBALDETENTIONPROJECT,no,
La Ventosa Estacion Provisional,Centro Detención INM,,,"16.5483416313, -94.9486541748",GOB,"Carretera Panamericana Km.2.5, C.P.70102, La Ventosa, Juchitan, Oaxaca.",GLOBALDETENTIONPROJECT,no,
Matamoros Estacion Migratoria,Centro Detención INM,,,"25.8908475977, -97.5031471252",GOB,"Av. De las Américas S/n, Puente Internacional 1er. Piso, C.P.87330, Matamoros, Tamaulipas.",GLOBALDETENTIONPROJECT,no,
Mazatlan Estacion Migratoria,Centro Detención INM,,,"23.192815224, -106.4196896553",GOB,"Prolongación Aquiles Serdán S/n, Esq. Playas Gemelas, Fracc. Playa Sur, C.P. 82140,",GLOBALDETENTIONPROJECT,no,
Merida Estacion Migratoria,Centro Detención INM,,,"20.9872158071, -89.6271300316",GOB,"Colón Núm. 507, Esq. Calle 8, Col. García Jiménez, C.P.97070, Mérida, Yuc.",GLOBALDETENTIONPROJECT,no,
Mexicali Estacion Migratoria,Centro Detención INM,,,"32.5858471793, -115.438939333",GOB,"Av. Melgar Núm. 1, Garita Internacional No. 1, Mexicali, B.C.N. C.P: 21100",GLOBALDETENTIONPROJECT,no,
Miguel Aleman Estacion Provisional,Centro Detención INM,,,"26.3979434248, -99.0301179886",GOB,"Av. Hidalgo y Calle primera S/n, Puente Internacional C.P.88300, Ciudad Miguel Alemán",GLOBALDETENTIONPROJECT,no,
Monterrey Estacion Provisional,Centro Detención INM,,,"25.6427257262, -100.31873703",GOB,"C. P.º María Elena 841A, Ampliación Valle del Mirador, 66260 San Pedro Garza García, N.L.",GLOBALDETENTIONPROJECT,no,
Nuevo Laredo Estacion Migratoria,Centro Detención INM,,,"27.4980889528, -99.5072078705",GOB,"Puente Internacional Miguel Alemán, entre Av. Guerrero y 15 de Junio S/n. 2º. Piso, Sector Centro, C.P. 88000, Nuevo Laredo,",GLOBALDETENTIONPROJECT,no,
Oaxaca Estacion Migratoria,Centro Detención INM,,,"17.0613488849, -96.7223131657",GOB,"Calle Pensamientos Núm. 104, Col. Reforma, C.P. 68050 Cd. Oaxaca de Juárez, Oax.",GLOBALDETENTIONPROJECT,no,
Pachuca Estacion Migratoria,Centro Detención INM,,,"20.0847523299, -98.7593650818",GOB,"Antigua Carretera La Paz, 42086 Pachuca de Soto, Hgo.",GLOBALDETENTIONPROJECT,no,
Palenque Estacion Migratoria,Centro Detención INM,,,"17.494728952, -91.9861221313",GOB,"Carretera a Playa de Catazaja, S/n Km. 6, C.P. 29960 Palenque, Chiapas,",GLOBALDETENTIONPROJECT,no,
Piedras Negras Estacion Provisional,Centro Detención INM,,,"28.6803802726, -100.5735039711",GOB,"C. Puente Internacional 1625, Acoros, 26083 Piedras Negras, Coah.",GLOBALDETENTIONPROJECT,no,
Playas de Catazaja Estacion Provisional,Centro Detención INM,,,"17.7212180954, -92.0159912109",GOB,"Carretera a Villahermos y Palenque, con entronque a Playas de Catazaja, Chiapas.",GLOBALDETENTIONPROJECT,no,
Puebla Estacion Migratoria,Centro Detención INM,,,"19.0598463913, -98.2273221016",GOB,"Av. Independencia Núm. 349, Carretera Federal Amozoc, Col. Chapultepec, C.P. 72320",GLOBALDETENTIONPROJECT,no,
Saltillo Estacion Migratoria,Centro Detención INM,,,"25.4224430572, -100.9447860718",GOB,"Calle 17 s/n, Col. Ampliación Morelos, Col. Centro C.P.25017 en Saltillo, Coahuila.",GLOBALDETENTIONPROJECT,no,
San Cristobal de las Casas Estacion Provisional,Centro Detención INM,,,"16.7344615875, -92.6491641998",GOB,"Diagonal Hermanos Pan y Agua, No. 28, Barrio San Ramón, C.P. 29240, San Cristóbal de las Casas, Chiapas.",GLOBALDETENTIONPROJECT,no,
San Gregorio Chamic Estacion Provisional,Centro Detención INM,,,"15.6802292948, -92.0056915283",GOB,"Km. 231, 5 Carretera Panamericana 190, México, Cd. Cuahutémoc, San Gregorio Chamic",GLOBALDETENTIONPROJECT,no,
San Luis Potosi Estacion Migratoria,Centro Detención INM,,,"22.143597377, -100.9977650642",GOB,"Prolongación Santos Degollado Núm.1185, Fracc. Tangamanga, C.P. 78270, SLP",GLOBALDETENTIONPROJECT,no,
San Pedro Tapanatepec Estacion Provisional,Centro Detención INM,,,"16.3697624504, -94.1923570633",GOB,"Carretera Panamericana Km. 85.5, C.P. 70180, San Pedro Tapanatepec, Oax.",GLOBALDETENTIONPROJECT,no,
Tampico Estacion Migratoria,Centro Detención INM,,,"22.2631939604, -97.7958029509",GOB,"Emiliano Carranza Núm. 302, Esq. Sor Juana Inés de la Cruz, Col. Centro, C.P. 89000, Tampico, Tamaulipas.",GLOBALDETENTIONPROJECT,no,
Tapachula Estacion Migratoria (Siglo XXI),Centro Detención INM,,,"14.9201954792, -92.259106636",GOB,"Carretera Nueva Alemania, Km. 1.5 a un costado del Hospital, COFAL, C.P. 30710, Tapachula, Chiapas.",GLOBALDETENTIONPROJECT,no,
Tenosique Estacion Migratoria,Centro Detención INM,,,"17.4577651556, -91.4452171326",GOB,"Carretera Federal Tenosique, Emiliano Zapata Km.1; C.P.86901, Col. Estación Nueva,",GLOBALDETENTIONPROJECT,no,
Tijuana Estacion Migratoria,Centro Detención INM,,,"32.4713011026, -117.0136857033",GOB,"Boulevar Esmeralda S/N, Fracc. La Esmeralda, C.P. 22640, Tijuana B.C",GLOBALDETENTIONPROJECT,no,
Tlaxcala Estacion Migratoria,Centro Detención INM,,,"19.3366264861, -98.193397522",GOB,"Calle Santos Degollado Núm. 62, Col. Centro, C.P. 90600, San Pablo Apetatitlan, Tlaxcala.",GLOBALDETENTIONPROJECT,no,
Torreón Estacion Provisional,Centro Detención INM,,,"25.5388592, -103.4533536",GOB,"Palacio Federal Planta Baja, Zona Centro C.P. 27000",GLOBALDETENTIONPROJECT,no,
Tuxtla Gutierrez Estacion Migratoria,Centro Detención INM,,,"16.753920429, -93.1052684784",GOB,"Libramiento Norte Oriente S/n, Fracc. Las Palmas (junto a la Universidad Pablo",GLOBALDETENTIONPROJECT,no,
Veracruz Estacion Migratoria,Centro Detención INM,,,"19.1994851593, -96.1401128769",GOB,"Miguel Lerdo Núm. 311, Esq. 5 de Mayo, Col. Centro, C.P.91700, Veracruz, Ver.",GLOBALDETENTIONPROJECT,no,
Villahermosa Estacion Migratoria,Centro Detención INM,,,"17.9899559, -92.9429324",GOB,"Av. Paseo Usumacinta Núm. 927, Fracc. José Colomo, C.P.86100, Villahermosa, Tabasco.",GLOBALDETENTIONPROJECT,no,
Zacatecas Estacion Migratoria,Centro Detención INM,,,"22.7658140374, -102.5780582428",GOB,"Av. De la Constitución Núm. 122, Col. Lomas de la Soledad, C.P. 98040, Zacatecas, Zacatecas.",GLOBALDETENTIONPROJECT,no,
Zihuatanejo Estacion Migratoria,Centro Detención INM,,,"17.6442469586, -101.5539693832",GOB,"H. Heroico Colegio Milita Nún. 115, Col. Centro C.P. 40880, Zihuatanejo, Guerrero.",GLOBALDETENTIONPROJECT,no,