name,descripcion,latitud,longitud,coordenadas,tipo,direccion,bd
Oficinas de Atención a Migrante - Baja California,Oficinas de Atención a Migrante,32.51180341314272,-116.98500225046757,"32.51180341314272, -116.98500225046757",GOB,"5, Blvd. Gustavo Díaz Ordaz 12649-Interior 37, El Paraiso, 22106 Tijuana, B.C.",Oficinas de Atención a Migrantes (OFAMs)
Oficinas de Atención a Migrante - Campeche,Oficinas de Atención a Migrante,19.82749138455163,-90.53067579458845,"19.82749138455163, -90.53067579458845",GOB,"Niebla No.2, Fracciorama 2000, C.P.24090,",Oficinas de Atención a Migrantes (OFAMs)
Oficinas de Atención a Migrante - Jalisco,Oficinas de Atención a Migrante,20.6699553213728,-103.35357558478287,"20.6699553213728, -103.35357558478287",GOB,"Calle Pavo No. 457, Esq. La Paz. 2 Pisa, Col.  Centro, C.P. 44100, Guadalajara, Jalisco.",Oficinas de Atención a Migrantes (OFAMs)
Oficinas de Atención a Migrante - Sonora,Oficinas de Atención a Migrante,29.083537222084892,-110.94425387596134,"29.083537222084892, -110.94425387596134",GOB,"Del Razo 16, Centro, 83079 Centro, Son.",Oficinas de Atención a Migrantes (OFAMs)
"COMAR - Tenosique, Tabasco",COMAR,17.46970192289758,-91.43035837908077,"17.46970192289758, -91.43035837908077",GOB,Calle 2 S/N esquina Calle 55. Col. Pueblo Nuevo. C.P. 86900,COMAR
Defensoría de los Derechos Humanos de Querétaro,CNDH,20.577546873062715,-100.3751551973854,"20.577546873062715, -100.3751551973854",OSC / ONG,"Av. Luis Vega Monrroy 1101, zona dos extendida, Plazas del Sol 1ra Secc, 76099 Santiago de Querétaro, Qro.",Directorio OIM
 SEMIGRANTE (Tlazazalca) ,Centros de Atención Social,19.971460912355205,-102.05671822486107,"19.971460912355205, -102.05671822486107",OSC / ONG,"Interior Palacio Municipal S/N, Col. Centro, C.P. 58740,Tlazazalca, Michoacán",redes
 INM Grupo Beta Mexicali ,Centros de Atención Social,32.62454916171159,-115.4522609914491,"32.62454916171159, -115.4522609914491",OSC / ONG,"Av. Melgar No. 1, Garita, Centro Cívico, 21000 Mexicali, B.C.,Tijuana, Baja California",redes
"Juárez, A.C.",Centros de Asistencia Social,31.682995202942667,-106.379755270684,"31.682995202942667, -106.379755270684",OSC / ONG,"Neptuno 1855, Col. Satélite C.P. 32540",Directorio OIM
Madre Teresa,Centros de Asistencia Social,28.392710618466992,-106.90661827513563,"28.392710618466992, -106.90661827513563",OSC / ONG,"Calle 106 y Las Águilas, Col. Tierra Nueva C.P. 31528",Directorio OIM
Nazareth,Centros de Asistencia Social,27.487533874252485,-99.4848691617733,"27.487533874252485, -99.4848691617733",OSC / ONG,"Maderos 350, Col. Victoria C.P. 88030",Directorio OIM
Amar,Centros de Asistencia Social,27.492227187228693,-99.50213433501482,"27.492227187228693, -99.50213433501482",OSC / ONG,"Canales 2112, Sector Centro C.P. 88160",Directorio OIM
Decanal Guadalupano,Centros de Asistencia Social,18.437472734458677,-96.34913655899858,"18.437472734458677, -96.34913655899858",OSC / ONG,"Hermanos Aldama 50, Tierra Blanca el Viejo, 95180 Tierra Blanca, Ver.",Directorio OIM
"Centro de Asistencia Social de Niñas, Niños y Adolescentes Migrantes",Centro de Asistencia Social,21.863269781853507,-102.29748832140456,"21.863269781853507, -102.29748832140456",OSC / ONG,"Argentina 710, Col. Agricultura Aguascalientes, Ags. C. P. 20234",Directorio OIM
Casa Hogar El Altísimo A.C.,Centro de Asistencia Social,26.89171964182915,-111.98646761366965,"26.89171964182915, -111.98646761366965",OSC / ONG,"Mulegé, Las Palomas, B.C.S.",Directorio OIM
Grupo Beta Tecate,Grupos Beta,32.56928991503085,-116.6523372581046,"32.56928991503085, -116.6523372581046",OSC / ONG,"Calle 18, esq. con Tanamá s/n, Col. Bella Vista, C.P. 21440, Tecate, B.C.",Directorio OIM
Instituto Estatal de las Mujeres,Mujeres,25.673329656110607,-100.31052250438748,"25.673329656110607, -100.31052250438748",OSC / ONG,"5 de Mayo 525, Centro, 64000 Monterrey, N.L.",Directorio OIM
Instituto Queretano de la Mujeres,Mujeres,20.58757817940338,-100.40221584686071,"20.58757817940338, -100.40221584686071",OSC / ONG,"Calle José María Pino Suárez 229, Centro, 76000 Santiago de Querétaro, Qro.",Directorio OIM
Consulado General de El Salvador en Tapachula,Oficina Consular,14.904385864444395,-92.26479186047307,"14.904385864444395, -92.26479186047307",GOB,"Central Sur 43, Los Naranjos, Centro, 30830 Tapachula de Córdova y Ordoñez, Chis.",Directorio OIM
Agencia Consular de Guatemala en Arriaga,Oficina Consular,16.236244809041146,-93.8979013585973,"16.236244809041146, -93.8979013585973",GOB,"Calle Primera Nte 136, Centro, Capricho, 30450 Arriaga, Chis.",Directorio OIM
Consulado Honorario de Honduras en Mérida,Oficina Consular,21.04446446040176,-89.57199002341079,"21.04446446040176, -89.57199002341079",GOB,"C. 64 418, Parque Santa Ana, Centro, 97000 Mérida, Yuc.",Directorio OIM
Esfera Cultural García,Centros de Atención Social,25.82530061565843,-100.47656562855241,"25.82530061565843, -100.47656562855241",OSC / ONG,"Real de Minas, Valle de Lincoln, 66026 García, N.L.",ACNUR servicios
Esfera Cultural Buena Vista,Centros de Atención Social,25.855512988327963,-100.3747108547102,"25.855512988327963, -100.3747108547102",OSC / ONG,"Av. Vista Regia, Buenavista, 66583 Carmen, N.L.",ACNUR servicios
CAMMI,Centros de Atencion Social,20.60274305481267,-100.38459962272411,"20.60274305481267, -100.38459962272411",OSC / ONG,"76160, Avenida Universidad 235, Las Brujas, 76000 Santiago de Querétaro, Qro.",ACNUR albergues
DIF Estatal Colima,DIF,19.238676569870204,-103.74132147087097,"19.238676569870204, -103.74132147087097",GOB,"Calle Encino 530, Col. Rinconada del Pereyra, C.P. 28077, Colima, Col.",Directorio OIM
