name,ciudad,estado,tipo,subtipo,latitud,longitud,ID_Poligono,direccion
Angeles Sin Fronteras,"Mexicali, Baja California",Baja California,OSC / ONG,Centros de Asistencia Social,32.66293698,-115.4949834,PG132,"Av. Reforma 244, Altos Zona Centro C.P.21100"
Centro de Apoyo al Trabajor Migrante,"Mexicali, Baja California",Baja California,OSC / ONG,Centros de Asistencia Social,32.66084772,-115.4794935,PG132,"Jabonera 6, Col. Nueva C.P. 21100"
Centro de Apoyo al Trabajador Migrante: Comite de Promocion para el Desarrollo de Mexicali ,"Mexicali, Baja California",Baja California,OSC / ONG,Centros de Asistencia Social,32.6603047,-115.4597261,PG132,"Calle Jabonera #6, Colonia Nueva, Mexicali, Baja California 21100,Mexicali, Baja California"
Comedor Cobina A.C.,"Mexicali, Baja California",Baja California,OSC / ONG,Centros de Asistencia Social,32.66030066,-115.4898749,PG132,"Avenida Lerdo 416, Col. Centro C.P. 21200"
"Comedor Cobina, A.C. ","Mexicali, Baja California",Baja California,OSC / ONG,Centros de Asistencia Social,32.6601716,-115.4923303,PG132,"Av. Lerdo 416, Col. Centro, C.P. 21200,Mexicali, Baja California"
Juntos en el Camino,"Mexicali, Baja California",Baja California,OSC / ONG,Centros de Asistencia Social,32.65895405,-115.565696,PG132,"Garita 1, Carretera Mexicali-Calexico, Modulo 3"
HIAS Mexicali ,"Mexicali, Baja California",Baja California,OSC / ONG,Centros de Asistencia Social,32.6584928,-115.3724971,PG132,"Calle Mexico 151, Primera, 21100 Mexicali, B.C. A un costado de la Secretaria de relaciones Exteriores.,Mexicali, Baja California"
Dispensario Medico Dr. Canedo ,"Mexicali, Baja California",Baja California,OSC / ONG,Centros de Asistencia Social,32.6583229,-115.4371825,PG132,"Calle Sur # 701,Mexicali, Baja California"
Grupo de Ayuda para el Migrante de Mexicali A.C. ,"Mexicali, Baja California",Baja California,OSC / ONG,Centros de Asistencia Social,32.65625303,-115.4983419,PG132,"Av. Michoacan #1377, entre la 5ta y 6ta, Col. Pueblo Nuevo C.P. 21120,Mexicali, Baja California"
"Grupo de Ayuda para el Migrante de Mexicali, A.C.","Mexicali, Baja California",Baja California,OSC / ONG,Centros de Asistencia Social,32.65593506,-115.4987964,PG132,"Michoacan 1377, Col. Pueblo Nuevo C.P. 21120"
Juvenil del Desierto,"Mexicali, Baja California",Baja California,OSC / ONG,Centros de Asistencia Social,32.6545058,-115.4653355,PG132,"Carpinteros 1515, Col. Industrial C.P. 21010"
El Buen Samaritano,"Mexicali, Baja California",Baja California,OSC / ONG,Centros de Asistencia Social,32.65385434,-115.4789914,PG132,"Celaya s/n, Parroquia San Jose Obrero, Col. Bellavista, C.P. 21150"
"Centro de Reintegracion Familiar de Menores Migrantes, A.C. ""Albergue del Desierto"" ","Mexicali, Baja California",Baja California,OSC / ONG,Centros de Asistencia Social,32.65025805,-115.5059043,PG132,"Carpinteros 1515 G y H Col. Industrial C. P. 21010,Mexicali, Baja California"
"Mana de Mexicali, I.B.P.","Mexicali, Baja California",Baja California,OSC / ONG,Centros de Asistencia Social,32.6457407,-115.458184,PG132,"Av. Jesus Garcia 1799, Col. Nacozari C.P.21030"
Centro Pastoral Mana de Mexicali IAP ,"Mexicali, Baja California",Baja California,OSC / ONG,Centros de Asistencia Social,32.6457407,-115.458184,PG132,"Av. Jesus Garcia 1799, Col. Nacozari C.P. 21030,Mexicali, Baja California"
"Caritas Region Mexicali, A.C. El Buen Samaritano ","Mexicali, Baja California",Baja California,OSC / ONG,Centros de Asistencia Social,32.639538,-115.498107,PG132,"Celaya S/N, Parroquia San Jose Obrero, Col. Bellavista, C.P. 21150,Mexicali, Baja California"
Albergue Temporal Mexicali,"Mexicali, Baja California",Baja California,OSC / ONG,Centros de Asistencia Social,32.637519,-115.498128,PG132,"Salina Cruz 1253, Col. Guajardo Mexicali, Baja California. C. P. 21050"
El camino a un Nuevo Amanecer ,"Mexicali, Baja California",Baja California,OSC / ONG,Centros de Asistencia Social,32.62655285,-115.3650196,PG132,"Pte. Canal Pacifico , km 15, 5 Ej. Hipolito Renteria,Mexicali, Baja California"
"Modulo Fronterizo ""Juntos en el Camino"" ","Mexicali, Baja California",Baja California,OSC / ONG,Centros de Asistencia Social,32.62370026,-115.4428449,PG132,"Garita numero 1, Carretera Mexicali-Calexico, Modulo # 3,Mexicali, Baja California"
"Casa de Oracion del Migrante, A.C. ","Mexicali, Baja California",Baja California,OSC / ONG,Centros de Asistencia Social,32.60976727,-115.4336842,PG132,"Ninos Heroes 981, Col. General Jesus Munguia, C.P.22840,Ensenada, Baja California"
"Coordinadora del Programa de Apoyo al Trabajador Migrante Deportado, A.C. ""Casa Betania"" ","Mexicali, Baja California",Baja California,OSC / ONG,Centros de Asistencia Social,32.6072504,-115.4436791,PG132,"Lago Hudson # 2408 Col. Xochimilco, C.P. 21380,Mexicali, Baja California"
Casa de Ayuda Alfa y Omega ,"San Luis Rio Colorado, Sonora",Sonora,OSC / ONG,Centros de Asistencia Social,32.56754405,-114.9958286,PG159,"Av, Benito Juarez #92, Col. Zona Centro, C.P. 21100,Mexicali, Baja California"
Nuestra Senora de Guadalupe,"Playas de Rosarito, Baja California",Baja California,OSC / ONG,Centros de Asistencia Social,32.56267732,-116.6044826,PG105,"Mision Santa Teresa 1400, Col. El Descanso C.P.21478"
"Albergue para migrantes ""El Buen Samaritano""","Juarez, Chihuahua",Chihuahua,OSC / ONG,Centros de Asistencia Social,32.5481449,-106.5256603,PG375,"Calle Islas Esmeraldas # 2012 Col. Luis Echeverria. Ciudad Juarez, Chihuahua"
"Coalicion Prodefensa del Migrante, A.C. Modulo de Atencion ","Playas de Rosarito, Baja California",Baja California,OSC / ONG,Centros de Asistencia Social,32.5443709,-116.8915208,PG105,"Garita Puerta Mexico/ Garita Mesa de Otay,Tijuana, Baja California"
"Agencia Familiar Binacional, AC (AFABI) ","Tijuana, Baja California",Baja California,OSC / ONG,Centros de Asistencia Social,32.54132743,-117.0183359,PG78,"Av. Mexico No. 8281 Int. 7-8, Zona Centro CP 22000,Tijuana, Baja California"
"Movimiento JUVENTUD2000, Secc. Tijuana A. C.","Tijuana, Baja California",Baja California,OSC / ONG,Centros de Asistencia Social,32.54048862,-117.0393266,PG78,"Av. Constitucion #205, esquina con Fernando Sanchez Ayala, Zona Norte CP 22000,Tijuana, Baja California"
Albergue Temporal Zona Norte ,"Tijuana, Baja California",Baja California,OSC / ONG,Centros de Asistencia Social,32.540333,-117.0515263,PG78,"Calle Arias Bernal # 112 CP 22100,Tijuana, Baja California"
"Movimiento Juventud 2000 Seccion Tijuana, A.C.","Tijuana, Baja California",Baja California,OSC / ONG,Centros de Asistencia Social,32.5403172,-117.0393303,PG78,"Constitucion 205, Zona Norte C.P. 22100"
La Vina de Tijuana,"Tijuana, Baja California",Baja California,OSC / ONG,Centros de Asistencia Social,32.5393864,-117.0523311,PG78,"Calle Ing. Fernando Sanchez Ayala 7534, Zona Nte., 22000 Tijuana, B.C."
Espacio Migrante,"Tijuana, Baja California",Baja California,OSC / ONG,Centros de Asistencia Social,32.5385082,-117.034304,PG78,"Av. Miguel Negrete No. 8350, Zona Urbana Rio"
Programa de Repatriacion Humana (Modulo Tijuana) ,"Tijuana, Baja California",Baja California,OSC / ONG,Centros de Asistencia Social,32.53808867,-117.0368087,PG78,"Garita Internacional El Chaparral, S/N, Col. Federal, C.P. 22010,Tijuana, Baja California"
Madres y familias deportadas en accion ,"Tijuana, Baja California",Baja California,OSC / ONG,Centros de Asistencia Social,32.5375158,-117.0296459,PG78,"Via de la Juventud Ote 8800, Defensores de Baja California, CP 22010,Tijuana, Baja California"
Enclave Caracol ,"Tijuana, Baja California",Baja California,OSC / ONG,Centros de Asistencia Social,32.5370643,-117.036046,PG78,"1er Andador 8250 CP 22000,Tijuana, Baja California"
Espacio Migrante ,"Tijuana, Baja California",Baja California,OSC / ONG,Centros de Asistencia Social,32.5370491,-117.0339699,PG78,"Avenida Miguel Negrete 8350, Zona Urbana Rio Tijuana,Tijuana, Baja California"
"Salesiano de Tijuana Desayunador ""Padre Chava"" ","Tijuana, Baja California",Baja California,OSC / ONG,Centros de Asistencia Social,32.5367633,-117.0321805,PG78,"Av. Melchor Ocampo #700, Zona Centro CP 22000,Tijuana, Baja California"
Albergue Ejercito de Salvacion ,"Tijuana, Baja California",Baja California,OSC / ONG,Centros de Asistencia Social,32.5353256,-117.012417,PG78,"Av. Aquiles Serdan 11585, Colonia Libertad, Parte Baja CP 22300,Tijuana, Baja California"
Ejercito de Salvacion,"Tijuana, Baja California",Baja California,OSC / ONG,Centros de Asistencia Social,32.5338243,-117.0067312,PG78,"Calle 17 550, Col. Libertad Parte Baja C.P. 22400"
Albergue Ejercito de Salvacion Puerta de la Esperanza ,"Tijuana, Baja California",Baja California,OSC / ONG,Centros de Asistencia Social,32.5338243,-117.0067312,PG78,"Calle 17 #550, Adolfo Ruiz Cortinez, Col. Libertad, Parte Baja  CP 22400,Tijuana, Baja California"
"Casa de Oracion del Migrante, A.C. ","Playas de Rosarito, Baja California",Baja California,OSC / ONG,Centros de Asistencia Social,32.53060863,-116.9979549,PG105,"735 Carlota Sosa y 1ra Sur Esquina de Carlota Sosa, Colonia Anexa del Rio,Tijuana, Baja California"
Casa de Oracion del Migrante A.C.,"Playas de Rosarito, Baja California",Baja California,OSC / ONG,Centros de Asistencia Social,32.5304891,-116.997945,PG105,"Carlota Sosa 735, Col. Anexa Rio C.P. 22416"
"Pueblo Sin Fronteras, A.C","Tijuana, Baja California",Baja California,OSC / ONG,Centros de Asistencia Social,32.5296458,-117.0354734,PG78,"Calle Hermenegildo Galeana Lt. 7, entre Guaymas y Empalme, Col. Burocrata C.P.8570"
Club Amigos de Codet ,"Tijuana, Baja California",Baja California,OSC / ONG,Centros de Asistencia Social,32.5260874,-117.0087706,PG78,"Ave. Padre Kino 10159 Zona Rio CP 22320,Tijuana, Baja California"
Casa del Migrante Nuestra Senora de Guadalupe ,"Playas de Rosarito, Baja California",Baja California,OSC / ONG,Centros de Asistencia Social,32.52467068,-116.9997965,PG105,"Sta. Teresa 1398, El Descanso C.P. 21478,Tijuana, Baja California"
Instituto Madre Assunta ,"Tijuana, Baja California",Baja California,OSC / ONG,Centros de Asistencia Social,32.52378451,-117.0008055,PG78,"Calle Galileo # 2305 Colonia Postal CP 22416,Tijuana, Baja California"
Madre Asunta,"Tijuana, Baja California",Baja California,OSC / ONG,Centros de Asistencia Social,32.52350414,-117.0013849,PG78,"Galileo 2305, Col. Postal C.P. 22416"
HIAS Tijuana ,"Playas de Rosarito, Baja California",Baja California,OSC / ONG,Centros de Asistencia Social,32.5231727,-116.9373809,PG105,"Ricardo Flores Magon 8119, Zona Centro, 22000 Tijuana, B.C.,Tijuana, Baja California"
"Casa del Migrante en Tijuana, A.C. ","Tijuana, Baja California",Baja California,OSC / ONG,Centros de Asistencia Social,32.52290054,-117.0016623,PG78,"Calle Galileo # 239 Colonia Postal CP 22416,Tijuana, Baja California"
"Union de Comites Comunitarios de Tijuana, A.C. Modulo de Atencion al Migrante Chiapaneco ","Playas de Rosarito, Baja California",Baja California,OSC / ONG,Centros de Asistencia Social,32.5216801,-116.9930421,PG105,"Av. Las Lomas # 590 Colonia Buena Vista CP 22010,Tijuana, Baja California"
"Federacion de Asociaciones Cristianas de Jovenes de la Republica Mexicana, A.C. ""Casas YMCA para menores Migrantes"" ","Tijuana, Baja California",Baja California,OSC / ONG,Centros de Asistencia Social,32.51394463,-117.0212405,PG78,"Blvd. Cuauhtemoc Sur # 3170 Colonia Chula Vista CP 22410,Tijuana, Baja California"
Centro Binacional de Derechos Humanos A.C. ,"Playas de Rosarito, Baja California",Baja California,OSC / ONG,Centros de Asistencia Social,32.505976,-116.9497659,PG105,"Avda. Paseo del Centenario # 3-B Oficina 11 Zona Rio Tijuana contraesquina de Palacio Municipal CP 22320,Tijuana, Baja California"
"Casa Hogar Cavit Alejandro, A.C. ","Tijuana, Baja California",Baja California,OSC / ONG,Centros de Asistencia Social,32.496316,-117.0838684,PG78,"Francisco I. Madero No. 104 Colonia Divina Providencia CP 22525,Tijuana, Baja California"
Albergue Temporal Tijuana,"Playas de Rosarito, Baja California",Baja California,OSC / ONG,Centros de Asistencia Social,32.4956248,-116.8620993,PG105,"De los Taxistas s/n, 3ra Etapa del Rio Tijuana, Baja California. C.P. 22226"
"Asociacion Casa del Migrante La Divina Providencia, I.A.P. ","San Luis Rio Colorado, Sonora",Sonora,OSC / ONG,Centros de Asistencia Social,32.4761753,-114.7765312,PG159,"Avenida Zaragoza # 912, Col. Comercial, C.P. 83449,San Luis Rio Colorado, Sonora"
"El Camino a un Nuevo Amanecer, A.C","Tijuana, Baja California",Baja California,OSC / ONG,Centros de Asistencia Social,32.47416681,-117.0656388,PG78,"Pte. Canal Pacifico, Km 15.5, Ej. Hipolito Renteria"
"Roca de Salvacion, A.C.","Playas de Rosarito, Baja California",Baja California,OSC / ONG,Centros de Asistencia Social,32.47232885,-116.9065817,PG105,"Calle Ampliacion Hujicori 20704, Col. Azteca Canon 1 de La Raza C.P. 22224"
Casa Hogar El Puente ,"Playas de Rosarito, Baja California",Baja California,OSC / ONG,Centros de Asistencia Social,32.4685104,-116.9611622,PG105,"De Los Toros 14103, Amparo Sanchez, 22183 Tijuana, B.C.,Tijuana, Baja California"
Diocesana de Torreon,"Tijuana, Baja California",Baja California,OSC / ONG,Centros de Asistencia Social,32.4649811,-117.0067088,PG78,"Av. La Paz 300, Col. Nueva California C.P. 27089"
"Pueblo Sin Fronteras, A.C.","San Luis Rio Colorado, Sonora",Sonora,OSC / ONG,Centros de Asistencia Social,32.4623633,-114.8066277,PG159,"Av. Lopez Collado, Col. Eleazar Ortiz C.P. 83621"
Border  Line Crisis Center A. C. ,"Playas de Rosarito, Baja California",Baja California,OSC / ONG,Centros de Asistencia Social,32.4531281,-116.8646068,PG105,"MIGUEL NEGRETE LAS CALIFORNIA'S PARK 22000 TIJUANA, B.C. Mexico,Tijuana, Baja California"
Fundacion Mano con Mano por Baja California A.C. ,"Tijuana, Baja California",Baja California,OSC / ONG,Centros de Asistencia Social,32.4406334,-117.0322012,PG78,"Real de San Antonio 5834 Col. Real de San Antonio CP 22666,Tijuana, Baja California"
"Casa de Oracion del Migrante, A.C.","Ensenada, Baja California",Baja California,OSC / ONG,Centros de Asistencia Social,31.8708036,-116.5867126,PG104,"Ninos Heroes 981, Col. Jesus Munguia C.P. 22840"
"Albergue San Vicente: Instituto de Derechos Humanos de Indigentes y Migrantes, A.C. ","Ensenada, Baja California",Baja California,OSC / ONG,Centros de Asistencia Social,31.86697,-116.6009704,PG104,"Calle Novena #691, Colonia Bustamante, Ensenada, Baja California 22840,Ensenada, Baja California"
HIAS Cd. Juarez ,"Juarez, Chihuahua",Chihuahua,OSC / ONG,Centros de Asistencia Social,31.74619643,-106.4602883,PG374,"Calle Henry Dunant 4505-oficina 2, Zona Pronaf Condominio La Plata, 32310 Cd Juarez, Chih.,Ciudad Juarez, Chihuahua"
"Gonzalez y Martinez, A.C.","Juarez, Chihuahua",Chihuahua,OSC / ONG,Centros de Asistencia Social,31.7402009,-106.4831076,PG374,"Antigua Estacion Bernal, C.P. 76776"
"Derechos Humanos Integrales en Accion, A.C. ","Juarez, Chihuahua",Chihuahua,OSC / ONG,Centros de Asistencia Social,31.7347737,-106.4790691,PG374,"20 de Noviembre 4305 Col. El Colegio,Juarez, Chih. CP 32310 Ciudad Ciudad Juarez, Chihuahua"
Programa YMCA de Desarrollo Comunitario y Asistencia Social. Casas YMCA para Menores Migrantes ,"Juarez, Chihuahua",Chihuahua,OSC / ONG,Centros de Asistencia Social,31.73043212,-106.4833476,PG374,"Mariana Varela 191, Col. Chavena, Cd Juarez CP 32060,Ciudad Juarez, Chihuahua"
Mexico Mi Hogar,"Juarez, Chihuahua",Chihuahua,OSC / ONG,Centros de Asistencia Social,31.69652634,-106.4235326,PG374,"Bolivia 605 Nte. Col. Hidalgo Ciudad Juarez, Chihuahua."
Casa del Migrante en Juarez A.C. ,"Juarez, Chihuahua",Chihuahua,OSC / ONG,Centros de Asistencia Social,31.68209526,-106.3777248,PG374,"Calle Neptuno # 1855 Colonia Satelite CP 32540,Ciudad Juarez, Chihuahua"
Frontera Norte en Mexico,"Nogales, Sonora",Sonora,OSC / ONG,Centros de Asistencia Social,31.33265378,-110.9475794,PG266,"Linea Internacional, Garita 2, Interseccion de Reforma y Periferico Luis Donaldo Colosio 55, Col. Del Rosario C.P. 84000"
"Centro de Atencion a Migrantes Deportados (CAMDEP), Iniciativa Kino para la Frontera ","Nogales, Sonora",Sonora,OSC / ONG,Centros de Asistencia Social,31.3301058,-110.9644867,PG266,"Bulevard Luis Donaldo Colosio # 55 Col. Del Rosario, C.P. 84000,Nogales, Sonora"
"Naco Casa Hogar Emmanuel, A. C.","Agua Prieta, Sonora",Sonora,OSC / ONG,Centros de Asistencia Social,31.32882932,-109.9473944,PG293,"Blvd. Aviacion 11 Col. Barrio Nuevo Naco, Sonora. C.P. 84180"
Casa Hogar Nuestros Pequenos Hermanos ,"Nogales, Sonora",Sonora,OSC / ONG,Centros de Asistencia Social,31.3247237,-110.9643924,PG266,"Pima 1, Lomas de Fatima, Nogales, Sonora C.P. 84020,Nogales, Sonora"
Casa YMCA para menores migrantes ,"Agua Prieta, Sonora",Sonora,OSC / ONG,Centros de Asistencia Social,31.3232513,-109.5547837,PG293,"Calle 1a entre 12 y 13 Agua Prieta, Sonora 84200,Agua Prieta, Sonora"
"Albergue para migrantes San Juan Bosco, I.A.P. ","Nogales, Sonora",Sonora,OSC / ONG,Centros de Asistencia Social,31.31668888,-110.9458534,PG266,"Montano # 1063-A Colonia Municipal C.P. 84060,Nogales, Sonora"
"San Juan Bosco, I.A.P.","Nogales, Sonora",Sonora,OSC / ONG,Centros de Asistencia Social,31.31377366,-110.9439385,PG266,"Calle Montano 1063-A, Col. Municipal C.P. 84035"
"Centro de Atencion al Migrante Exodus, A.C. (CAME) ","Agua Prieta, Sonora",Sonora,OSC / ONG,Centros de Asistencia Social,31.31126215,-109.5357251,PG293,"Av. Anahuac 108 Colonia Centro Ferrocarril C.P. 84200,Agua Prieta, Sonora"
Comedor Iniciativa Kino para La Frontera ,"Nogales, Sonora",Sonora,OSC / ONG,Centros de Asistencia Social,31.3082998,-110.9583265,PG266,"Bulevar Luis Donaldo Colosio SN/N Col. del Rosario C.P. 84000,Nogales, Sonora"
Casa hogar para ninas Madre Conchita ,"Nogales, Sonora",Sonora,OSC / ONG,Centros de Asistencia Social,31.29090327,-110.9538632,PG266,"Tecnologico 33, Col. El Greco C.P. 84066,Nogales, Sonora"
Centro Comunitario de Atencion al Migrante y Necesitado (CCAMYN) ,"Altar, Sonora",Sonora,OSC / ONG,Centros de Asistencia Social,30.71891158,-111.8394591,PG238,"Av. Gonzalo Celdain # 78 Colonia Buenos Aires, C.P. 83750,Altar, Sonora"
CCAMYN,"Altar, Sonora",Sonora,OSC / ONG,Centros de Asistencia Social,30.71832126,-111.8397381,PG238,"Gonzalo Senday 79, Col. Buenos Aires CP. 83750"
Centro de Ayuda al Migrante,"Caborca, Sonora",Sonora,OSC / ONG,Centros de Asistencia Social,30.71281832,-112.1557398,PG211,"Blvd. Benito Juarez s/n , Col. Industrial C.P. 83600 (Domicilio de Parroquia)"
Casa del Migrante Emaus ,"Acuna, Coahuila",Coahuila,OSC / ONG,Centros de Asistencia Social,29.32369093,-100.9266841,PG534,"Diaz Miron 607,entre Gochicoa y Alarcon, Col. Casjal, C.P.89280,Tampico, Tamaulipas"
"Frontera y Dignidad de Acuna A.C. ""Casa del Migrante EMAUS"" ","Acuna, Coahuila",Coahuila,OSC / ONG,Centros de Asistencia Social,29.3115169,-100.9227355,PG534,"Doctor Coss 47, Col. Centro C.P.26200,Ciudad Acuna, Coahuila"
"Casa Esperanza para Ninos, I.A.P.","Hermosillo, Sonora",Sonora,OSC / ONG,Centros de Asistencia Social,29.1596917,-110.8811105,PG264,"Romulo Cordova y Cuauhtemoc s/n, San Pedro el Saucito, Hermosillo, Sonora."
Comedor y Dispensario San Luis Gonzaga,"Hermosillo, Sonora",Sonora,OSC / ONG,Centros de Asistencia Social,29.12620772,-110.8929385,PG264,"Cayaco 12, Ejido La Victoria Punta Bella C.P.  83304"
Hogar Temporal para Menores en Situacion de Calle JINESEKI,"Hermosillo, Sonora",Sonora,OSC / ONG,Centros de Asistencia Social,29.1189964,-110.9749588,PG264,"Av. Ley Federal del Trabajo 160 Col. Bugambilia, Hermosillo, Sonora. C.P. 83150"
"Casa Guadalupe Libre, I. A. P","Hermosillo, Sonora",Sonora,OSC / ONG,Centros de Asistencia Social,29.09463624,-111.0176385,PG237,"Blvd. Garcia Morales Km 6, Col. Quinta Emilia, Hermosillo, Sonora. CP 83220"
CAIM UNACARI,"Hermosillo, Sonora",Sonora,OSC / ONG,Centros de Asistencia Social,29.08485907,-110.9252355,PG264,"Periferico Oriente 15 Col. Los Naranjos Hermosillo, Sonora. C.P. 83060"
"""Ciudad de los Ninos"" Comision de Proteccion y Asistencia del Menor, A. C.","Hermosillo, Sonora",Sonora,OSC / ONG,Centros de Asistencia Social,29.00595175,-110.9201633,PG264,"Blvd. Cimarron oriente final s/n, Col. Las Diligencias, Hermosillo, Sonora."
Casa YMCA para menores migrantes,"Guerrero, Coahuila",Coahuila,OSC / ONG,Centros de Asistencia Social,28.71822894,-100.5302223,PG533,"Av. 1ro de Mayo 1403 Int - 1, Col. Santa Rita C.P. 31240"
"Casa YMCA Piedras Negras Programa YMCA de Desarrollo Comunitario y Asistencia Social, A.C. ","Guerrero, Coahuila",Coahuila,OSC / ONG,Centros de Asistencia Social,28.71125487,-100.5181877,PG533,"Xicotencatl Norte # 1802 A Col. Mundo Nuevo CP 26010,Piedras Negras, Coahuila"
Ejercito de Salvacion A.C. Centro Comunitario y Comedor Infantil ,"Guerrero, Coahuila",Coahuila,OSC / ONG,Centros de Asistencia Social,28.70883554,-100.5215168,PG533,"Victoria # 805 Col. Mundo Nuevo CP 26092,Piedras Negras, Coahuila"
Casa del Peregrino de Piedras Negras A.C. Frontera Digna Casa del Migrante ,"Guerrero, Coahuila",Coahuila,OSC / ONG,Centros de Asistencia Social,28.7048519,-100.5219842,PG533,"Anahuac # 605 Oriente Col. Centro CP 26000,Piedras Negras, Coahuila"
Agua Prieta,"Guerrero, Coahuila",Coahuila,OSC / ONG,Centros de Asistencia Social,28.70174186,-100.5160946,PG533,"Calle Primera, Av. 3, s/n, C.P. 26000"
Uno de siete migrando A.C. ,"Chihuahua, Chihuahua",Chihuahua,OSC / ONG,Centros de Asistencia Social,28.7009818,-106.104707,PG371,"Calle Camargo #101, Col. Revolucion C.P. 31135,Chihuahua, Chihuahua"
Madre Teresa,"Chihuahua, Chihuahua",Chihuahua,OSC / ONG,Centros de Asistencia Social,28.392710618467,-106.906618275136,PG371,"Calle 106 y Las Aguilas, Col. Tierra Nueva C.P. 31528"
"Casa Hogar para Menores ""Elim"", A.C.","Nuevo Laredo, Tamaulipas",Tamaulipas,OSC / ONG,Centros de Asistencia Social,27.53313255,-99.56857947,PG559,"Union M-24 L-9 Col. Union del Recuerdo Nuevo Laredo, Tamaulipas. C.P. 88150"
Amar,"Nuevo Laredo, Tamaulipas",Tamaulipas,OSC / ONG,Centros de Asistencia Social,27.4920063,-99.5026535,PG559,"Calle canales No. 2112, col. Sector Centro, Nuevo Laredo"
Casa del Migrante Nazareth A.C. ,"Nuevo Laredo, Tamaulipas",Tamaulipas,OSC / ONG,Centros de Asistencia Social,27.4875676,-99.484875,PG559,"Calle Francisco I. Madero 350, Colonia Viveros, 88070 Nuevo Laredo, Tamps.,Nuevo Laredo, Tamaulipas"
HIAS Nuevo Laredo ,"Nuevo Laredo, Tamaulipas",Tamaulipas,OSC / ONG,Centros de Asistencia Social,27.48542415,-99.55008879,PG559,"Sin oficina por el momento, solo atencion via telefonica.,Nuevo Laredo, Tamaulipas"
"Red Paisano Mexico-USA, AC. ","Nuevo Laredo, Tamaulipas",Tamaulipas,OSC / ONG,Centros de Asistencia Social,27.3880753,-99.5561154,PG559,"Obregon 1810, Nuevo Laredo, Tamaulipas C.P 88000,Nuevo Laredo, Tamaulipas"
Ejercito de Salvacion,"Cajeme, Sonora",Sonora,OSC / ONG,Centros de Asistencia Social,27.1908302,-109.9096325,PG289,"Labradores 85, Col. Morelos C.P. 15270"
Casa Hogar El Altisimo A.C.,"Las Palomas, Baja California Sur
",Baja California Sur,OSC / ONG,Centros de Asistencia Social,26.8917196418292,-111.98646761367,PG234,"Mulege, Las Palomas, B.C.S."
Casa del Migrante Senda de Vida ,"Reynosa, Tamaulipas",Tamaulipas,OSC / ONG,Centros de Asistencia Social,26.0990021,-98.2974517,PG585,"Calle Bordo de Proteccion No. 5,Reynosa, Tamaulipas"
Albergue del Migrante Nuestra Senora de Guadalupe A.C. ,"Reynosa, Tamaulipas",Tamaulipas,OSC / ONG,Centros de Asistencia Social,26.09748892,-98.28658309,PG585,"Nogal-aldama 501, Col. Aquiles Serdan I, 88520 Reynosa, Tamaulipas, Mexico.,Reynosa, Tamaulipas"
Casa Hogar La Esperanza,"Loreto, Baja California Sur",Baja California Sur,OSC / ONG,Centros de Asistencia Social,26.00977531,-111.3532566,PG234,"Paseo Nicolas Tamaral e/Padre Kino y H. de Independencia Col. Centro Loreto, Baja California Sur."
"Centro de atencion al menor fronterizo CAMEF, DIF","Matamoros, Tamaulipas",Tamaulipas,OSC / ONG,Centros de Asistencia Social,25.88735953,-97.50660638,PG611,"Privada 5 de mayo No. 107, entre Av. Constitucion y Bravo, Zona centro, Matamoros."
HIAS Matamoros ,"Matamoros, Tamaulipas",Tamaulipas,OSC / ONG,Centros de Asistencia Social,25.87949846,-97.50376069,PG611,"Av. Tamaulipas 241, Jardin, 87330 Heroica Matamoros, Tamps.edificio RCM,Matamoros, Tamaulipas"
Casa San Juan Diego y San Francisco de Asis A.C. ,"Matamoros, Tamaulipas",Tamaulipas,OSC / ONG,Centros de Asistencia Social,25.83720269,-97.48587506,PG611,"Avenida Golfo de Mexico No. 49, Colonia Ampliacion Solidaridad C.P. 87456,Matamoros, Tamaulipas"
Casa del Migrante San Juan Diego y San Francisco de Asis A.C. ,"Matamoros, Tamaulipas",Tamaulipas,OSC / ONG,Centros de Asistencia Social,25.83717372,-97.48606818,PG611,"Avenida Golfo de Mexico No. 48, Colonia Ampliacion Solidaridad C.P. 87456,Matamoros, Tamaulipas"
"Paso de Esperanza, A.C ","Saltillo, Coahuila",Coahuila,OSC / ONG,Centros de Asistencia Social,25.75485375,-100.3195801,PG530,"Condominio Acero, Oficina 612, Zaragoza 1000-B esq. con Ocampo,Monterrey, Nuevo Leon"
Albergue Ejercito de Salvacion ,"Saltillo, Coahuila",Coahuila,OSC / ONG,Centros de Asistencia Social,25.7121685,-100.2985977,PG530,"Carvajal y de la Cueva 1716 Norte, Col, Primero de Mayo, 64580,Monterrey, Nuevo Leon"
Hospedaje para trabajadores inmigrantes ,"Saltillo, Coahuila",Coahuila,OSC / ONG,Centros de Asistencia Social,25.70279759,-100.3246175,PG530,"Aldama # 937 entre Ocampo e Hidalgo Colonia Centro,Monterrey, Nuevo Leon"
Institucion Normativa de los Indigentes (Casa INDI) ,"Saltillo, Coahuila",Coahuila,OSC / ONG,Centros de Asistencia Social,25.6998424,-100.3259301,PG530,"Av Bernardo Reyes 2616 Bella Vista, 64400 Monterrey, N.L.,Monterrey, Nuevo Leon"
Ayuda Humanitaria al Migrante Casa Monarca ,"Saltillo, Coahuila",Coahuila,OSC / ONG,Centros de Asistencia Social,25.6944425,-100.4998078,PG530,"Priv. Nicolas Bravo 510, Col. Nueva Santa Catarina C.P. 66350,Santa Catarina, Nuevo Leon"
Casa del Forastero Santa Martha ,"Saltillo, Coahuila",Coahuila,OSC / ONG,Centros de Asistencia Social,25.69107496,-100.3198497,PG530,"Jose Maria Bocanegra Pte. No. 801 esquina con Amado Nervo Col. Industrial (Parroquia Santa Maria Goretti),Monterrey, Nuevo Leon"
Albergue y Comedor Publico para Mujeres Migrantes Vislumbrando un Nuevo Horizonte ,"Saltillo, Coahuila",Coahuila,OSC / ONG,Centros de Asistencia Social,25.6768957,-100.3393574,PG530,"Av. 5 de Mayo 494, Col. Centro C.P. 64000,Monterrey, Nuevo Leon"
Hogar de las Bienaventuranzas A.C. ,"Saltillo, Coahuila",Coahuila,OSC / ONG,Centros de Asistencia Social,25.67542125,-100.293736,PG530,"Emilio Carranza 301 Norte Esquina con Alvino Espinoza, Col. Centro,Monterrey, Nuevo Leon"
Casa Monarca,"Saltillo, Coahuila",Coahuila,OSC / ONG,Centros de Asistencia Social,25.6694898,-100.4617456,PG530,"Priv. Nicolas Bravo 510, Col. Nueva Santa Catarina, C.P. 66350"
Casa de Migrantes Casa Nicolas Tolentino ,"Saltillo, Coahuila",Coahuila,OSC / ONG,Centros de Asistencia Social,25.66444527,-100.2144739,PG530,"Emiliano Zapata 4417 esq. con Serafin Pena. Col. Guadalupe Victoria C.P. 67180,Ciudad Guadalupe, Nuevo Leon"
HIAS Monterrey ,"Saltillo, Coahuila",Coahuila,OSC / ONG,Centros de Asistencia Social,25.6373305,-100.308514,PG530,"Eglantina 1709, Jardin de Las Torres, 64754 Monterrey, N.L.,Monterrey, Nuevo Leon"
Casa Hogar Nuestra Senora del Rosario,"Angostura, Sinaloa",Sinaloa,OSC / ONG,Centros de Asistencia Social,25.56820559,-108.4672064,PG314,"Silvia Miriam Chavez 687, Col. Union de los Colonos, Guasave, Sinaloa."
Bienestar Familiar Lagunero A.C. ,"Torreon, Coahuila",Coahuila,OSC / ONG,Centros de Asistencia Social,25.5323748,-103.430479,PG449,"Calle Popocatepetl 510 Fracc. Carolinas CP 27040,Torreon, Coahuila"
Jesus Torres,"Torreon, Coahuila",Coahuila,OSC / ONG,Centros de Asistencia Social,25.49892435,-103.3996363,PG449,"Yucatan 171, Col. Las Julietas C.P. 27296"
Refugio de los necesitados A.C.,"Saltillo, Coahuila",Coahuila,OSC / ONG,Centros de Asistencia Social,25.430834,-101.0063541,PG503,"Muzquiz 472 poniente, col centro, c.p. 25000 Saltillo."
Asistencia y Ropero del Pobre A.C.,"Saltillo, Coahuila",Coahuila,OSC / ONG,Centros de Asistencia Social,25.4243847,-100.9985202,PG530,"Calle Hidalgo 637, Centro, 25000 Saltillo."
Casa San Juan Diego. Albergue del peregrino A.C.,"Saltillo, Coahuila",Coahuila,OSC / ONG,Centros de Asistencia Social,25.4120659,-101.0018165,PG503,"Calle Ojo de Agua no. 642 Col. Ojo de Agua, c.p. 25000 Saltillo."
Casa de los Ninos y las Ninas Seccion Casa Cuna,"Saltillo, Coahuila",Coahuila,OSC / ONG,Centros de Asistencia Social,25.41022,-100.9930569,PG530,"Paseo de los Nogales 922, Col. Chapultepec Saltillo, Coahuila. C.P. 25050"
Albergue Transitorio,"Saltillo, Coahuila",Coahuila,OSC / ONG,Centros de Asistencia Social,25.4055802,-101.034223,PG503,"Pedro Ampudia s/n, Col. Guayulera Saltillo, Coahuila."
Frontera con Justicia A.C. Casa del Migrante de Saltillo ,"Saltillo, Coahuila",Coahuila,OSC / ONG,Centros de Asistencia Social,25.4042551,-101.0248406,PG503,"Juan de Erbaez # 2406 Col. Landin CP 25070,Saltillo, Coahuila"
Casa del Migrante Saltillo,"Saltillo, Coahuila",Coahuila,OSC / ONG,Centros de Asistencia Social,25.4042551,-101.0248406,PG503,"Juan de Erbaez No. 2406, Col. Landin, Saltillo."
"Modelo de Atencion para Adolescentes Institucionalizados y Migrantes no Acompanados ""Casa Crecemos""","Durango, Durango",Durango,OSC / ONG,Centros de Asistencia Social,24.39530875,-104.3239542,PG421,"Avenida del Hierro s/n, Fracc. Fidel Velazquez, Durango, Durango. C.P. 34227"
Lasos de Union por Durango AC ,"Durango, Durango",Durango,OSC / ONG,Centros de Asistencia Social,23.974331,-104.0465283,PG420,"Villa Union Poanas, Durango,Durango, Durango"
Fundacion Despierta al Mundo A.C. ,"Jaumave, Tamaulipas",Tamaulipas,OSC / ONG,Centros de Asistencia Social,23.7149186,-99.1467543,PG555,"Villa de Aguayo 255, Fracc. Haciendas del Santuario, Cd. Victoria, Tamaulipas, Mexico,Ciudad Victoria, Tamaulipas"
"Caritas Mazatlan, I.A.P (Albergue al peregrino) ","Mazatlan, Sinaloa",Sinaloa,OSC / ONG,Centros de Asistencia Social,23.254348,-106.4268821,PG366,"Toma de Celaya 86, Col. Francisco Villa, C.P. 82127,Mazatlan, Sinaloa"
Una Gota en el Oceano,"Mazatlan, Sinaloa",Sinaloa,OSC / ONG,Centros de Asistencia Social,23.2375837,-106.3860717,PG366,"Bahia Magdalena 20, Col. Rincon de Urias C.P. 82070"
Albergue Una Gota en el Oceano ,"Mazatlan, Sinaloa",Sinaloa,OSC / ONG,Centros de Asistencia Social,23.2375837,-106.3860717,PG366,"Bahia Magdalena 20, Col. Rincon de Urias, C.P. 82070,Mazatlan, Sinaloa"
CAVI Centro de Atencion a la Violencia Intrafamiliar ,"Mazatlan, Sinaloa",Sinaloa,OSC / ONG,Centros de Asistencia Social,23.22572888,-106.4208727,PG366,"Av. Ejercito Mexicano 2017, Palos Prietos, 82010"
Albergue Ejercito de Salvacion ,"Mazatlan, Sinaloa",Sinaloa,OSC / ONG,Centros de Asistencia Social,23.2107755,-106.4197138,PG366,"C. Gutierrez Najera #514 Colonia Centro 82000,Mazatlan, Sinaloa"
"ALBERGUE ""MI ANGEL DE LA GUARDA""","Mazatlan, Sinaloa",Sinaloa,OSC / ONG,Centros de Asistencia Social,23.20714342,-106.4127998,PG366,"Corona 1729, Col. Centro Mazatlan, Sinaloa. C. P. 82000"
Casa Hogar Maria Angela,"Los Cabos, Baja California Sur",Baja California Sur,OSC / ONG,Centros de Asistencia Social,22.9971918,-109.728566,PG284,"vista Hermosa, San Jose del Cabo. Los Cabos, Baja California Sur."
"Centro de los Derechos del Migrante, Inc (CDM) ","Aguascalientes, Aguascalientes",Aguascalientes,OSC / ONG,Centros de Asistencia Social,22.77156717,-102.5720402,PG473,"Calle Victor Rosales #164, Col. Centro, C.P. 98000,Zacatecas, Zacatecas"
"Federacion Zacatecana, AC (FEDZAC) ","Aguascalientes, Aguascalientes",Aguascalientes,OSC / ONG,Centros de Asistencia Social,22.75498849,-102.5029034,PG473,"Francisco Villa #11 Colonia Revolucion Mexicana,Guadalupe, Zacatecas"
Albergue Semillas de Amor,"Altamira, Tamaulipas",Tamaulipas,OSC / ONG,Centros de Asistencia Social,22.23668367,-97.86021671,PG608,"Tomas G. Urbina entre Norte y Sur 208 Col. Francisco Villa, Tampico, Tamaulipas."
Centro Crecer Tepezala ,"Aguascalientes, Aguascalientes",Aguascalientes,OSC / ONG,Centros de Asistencia Social,22.21902162,-102.1642429,PG473,"Av. 12 de Diciembre S/N Unidad Deportiva Blvd. Granados Roldan,Aguascalientes, Aguascalientes"
Emaus,"Altamira, Tamaulipas",Tamaulipas,OSC / ONG,Centros de Asistencia Social,22.21778133,-97.86290054,PG608,"Diaz Miron 607, entre Gochicoa y Alarcon, Col. Casjal C.P. 89280"
Frontera Digna,"Altamira, Tamaulipas",Tamaulipas,OSC / ONG,Centros de Asistencia Social,22.1996177,-97.85395699,PG608,"Anahuac 605, Col. Centro C.P. 26000"
Casa de la Caridad Cristiana CCC ,"San Luis Potosi, San Luis Potosi",San Luis Potosi,OSC / ONG,Centros de Asistencia Social,22.1647974,-100.9775358,PG527,"Calle Juan Alvarez #210, esquina via Mexico-Laredo, barrio de Tlaxcala,San Luis Potosi, San Luis Potosi"
Casa Del Migrante San Luis Potosi. Programa de Caritas SLP ,"San Luis Potosi, San Luis Potosi",San Luis Potosi,OSC / ONG,Centros de Asistencia Social,22.15287,-100.9770271,PG527,"Alvaro Obregon 626, Centro Historico, 78000,San Luis Potosi, San Luis Potosi"
"Instituto de Reintegracion Social ""Rafael Nieto""","San Luis Potosi, San Luis Potosi",San Luis Potosi,OSC / ONG,Centros de Asistencia Social,22.1513209,-100.9959592,PG527,"Agustin Vera 915, Col. Tequisquiapan San Luis Potosi, San Luis Potosi."
"Casa Hogar ""Inmaculada Concepcion""","San Luis Potosi, San Luis Potosi",San Luis Potosi,OSC / ONG,Centros de Asistencia Social,22.131201,-100.9062281,PG527,"3a Privada Bahia Blanca 315-A, Fracc. Las Palmas. San Luis Potosi."
Centro Crecer San Francisco De Los Romo ,"Aguascalientes, Aguascalientes",Aguascalientes,OSC / ONG,Centros de Asistencia Social,22.0741242,-102.2701389,PG473,"Av. Mexico esquina Venezuela Fracc. San Jose Buenavista,Aguascalientes, Aguascalientes"
"Casa Hogar ""BETESDA""","Antiguo Morelos, Tamaulipas",Tamaulipas,OSC / ONG,Centros de Asistencia Social,22.018423,-99.0146463,PG554,"Cascada 100, esq. Cielo, Col. Garita San Luis Potosi."
Centro Crecer San Marcos ,"Jesus Maria, Aguascalientes",Aguascalientes,OSC / ONG,Centros de Asistencia Social,21.9989758,-102.1995373,PG472,"Av. Aguascalientes #604 Col. San Marcos,Aguascalientes, Aguascalientes"
Centro Crecer Jose Maria Matamoros ,"Jesus Maria, Aguascalientes",Aguascalientes,OSC / ONG,Centros de Asistencia Social,21.9641777,-102.3496074,PG472,"Matamoros #704 Centro Jesus Maria,Aguascalientes, Aguascalientes"
Centro Crecer Rincon De Romos ,"Jesus Maria, Aguascalientes",Aguascalientes,OSC / ONG,Centros de Asistencia Social,21.96408705,-102.283281,PG472,"Fracc. Haciendas de San Jose del Rincon,Aguascalientes, Aguascalientes"
Centro Crecer Olivares Santana ,"Jesus Maria, Aguascalientes",Aguascalientes,OSC / ONG,Centros de Asistencia Social,21.9615899,-102.2704338,PG472,"Benjamin de la Mora S/N Fracc. Olivares Santana,Aguascalientes, Aguascalientes"
Centro Crecer La Salud ,"Jesus Maria, Aguascalientes",Aguascalientes,OSC / ONG,Centros de Asistencia Social,21.9311864,-102.2688076,PG472,"Calle De La Luna 125, Laurel, Barrio de la Salud, C.P. 20240,Aguascalientes, Aguascalientes"
Centro Crecer Constitucion ,"Jesus Maria, Aguascalientes",Aguascalientes,OSC / ONG,Centros de Asistencia Social,21.93065,-102.2849828,PG472,"Art. 24 esquina con Art. 14 Col. Constitucion,Aguascalientes, Aguascalientes"
Centro Crecer Palomino Dena ,"Jesus Maria, Aguascalientes",Aguascalientes,OSC / ONG,Centros de Asistencia Social,21.91666694,-102.2511348,PG472,"Gilberto Lopez Velarde #314, Lic Benito Palomino Dena, C. P. 20172,Aguascalientes, Aguascalientes"
Centro Crecer Primo Verdad ,"Jesus Maria, Aguascalientes",Aguascalientes,OSC / ONG,Centros de Asistencia Social,21.90958392,-102.3186746,PG472,"Av. Guadalupe Gonzalez #611 Col. Primo Verdad,Aguascalientes, Aguascalientes"
Centro Crecer Nazario Ortiz Garza ,"Jesus Maria, Aguascalientes",Aguascalientes,OSC / ONG,Centros de Asistencia Social,21.9049946,-102.26619,PG472,"Calle Agustin Pradillo #302, Col. Progreso, C. P. 20179,Aguascalientes, Aguascalientes"
Centro Crecer Miravalle ,"Jesus Maria, Aguascalientes",Aguascalientes,OSC / ONG,Centros de Asistencia Social,21.89145522,-102.3110766,PG472,"Calle Felipe Ruiz de Chavez #614, Col. Miravalle, C. P. 20040,Aguascalientes, Aguascalientes"
Casa Migrante Camino a la Vida ,"Jesus Maria, Aguascalientes",Aguascalientes,OSC / ONG,Centros de Asistencia Social,21.88601,-102.307635,PG472,"Jose Guadalupe Posada #828, (a un lado del Panteon de la Cruz) C.P 20050,Aguascalientes, Aguascalientes"
Centro Crecer La Estrella ,"Jesus Maria, Aguascalientes",Aguascalientes,OSC / ONG,Centros de Asistencia Social,21.8806701,-102.2753972,PG472,"Calle La Lira #1009, Col. La Estrella, C. P. 20150,Aguascalientes, Aguascalientes"
Centro Crecer Jesus Teran (Gomez Portugal) ,"Jesus Maria, Aguascalientes",Aguascalientes,OSC / ONG,Centros de Asistencia Social,21.87361796,-102.2652612,PG472,"Av. Palmas Esq Olivos Fracc. Jesus Teran,Aguascalientes, Aguascalientes"
Centro Crecer Jesus Maria Jonacatique ,"Jesus Maria, Aguascalientes",Aguascalientes,OSC / ONG,Centros de Asistencia Social,21.8727297,-102.2757964,PG472,"C. Diego Flores #126 Fracc. Solar de Jonacatique,Aguascalientes, Aguascalientes"
Centro Crecer Pirules ,"Jesus Maria, Aguascalientes",Aguascalientes,OSC / ONG,Centros de Asistencia Social,21.86795796,-102.3203422,PG472,"Actualmente se cuenta con 26 centros CRECER distribuidos en todo el estado, funcionando con mas de 72 clases o talleres, con alrededor de 25 000 beneficiarios mensuales.,Aguascalientes, Aguascalientes"
Centro Crecer Guadalupe Peralta ,"Jesus Maria, Aguascalientes",Aguascalientes,OSC / ONG,Centros de Asistencia Social,21.86744488,-102.2390822,PG472,"Av. La Salud #302 esquina Catedraticos Fracc. J. Guadalupe Peralta,Aguascalientes, Aguascalientes"
"Centro de Asistencia Social de Ninas, Ninos y Adolescentes Migrantes","Jesus Maria, Aguascalientes",Aguascalientes,OSC / ONG,Centros de Asistencia Social,21.8632697818535,-102.297488321405,PG472,"Argentina 710, Col. Agricultura Aguascalientes, Ags. C. P. 20234"
Centro Crecer Cosio ,"Jesus Maria, Aguascalientes",Aguascalientes,OSC / ONG,Centros de Asistencia Social,21.85895467,-102.2540634,PG472,"Prol. Esteban Castorena S/N a un costado de Seguridad Publica,Aguascalientes, Aguascalientes"
Centro Crecer Obraje ,"Jesus Maria, Aguascalientes",Aguascalientes,OSC / ONG,Centros de Asistencia Social,21.8586252,-102.3053952,PG472,"Prof. Enrique Olivares Santana #119, Col. Obraje, C. P. 20230,Aguascalientes, Aguascalientes"
Centro Crecer Solidaridad ,"Jesus Maria, Aguascalientes",Aguascalientes,OSC / ONG,Centros de Asistencia Social,21.849846,-102.2466439,PG472,"Av. Mariano Hidalgo #102 Frac Solidaridad,Aguascalientes, Aguascalientes"
Centro Crecer Insurgentes ,"Jesus Maria, Aguascalientes",Aguascalientes,OSC / ONG,Centros de Asistencia Social,21.84945298,-102.2474071,PG472,"Actualmente se cuenta con 26 centros CRECER distribuidos en todo el estado, funcionando con mas de 72 clases o talleres, con alrededor de 25 000 beneficiarios mensuales.,Aguascalientes, Aguascalientes"
Centro Crecer Mujeres Ilustres ,"Jesus Maria, Aguascalientes",Aguascalientes,OSC / ONG,Centros de Asistencia Social,21.84713695,-102.2477187,PG472,"C. Angela Peralta #228 esquina Margarita Maza de Juarez Fracc. Mujeres Ilustres,Aguascalientes, Aguascalientes"
Migrante Hagamos un puente contigo SEDESO ,"Jesus Maria, Aguascalientes",Aguascalientes,OSC / ONG,Centros de Asistencia Social,21.84124658,-102.289416,PG472,"Plan de Ayala numero 825 Plaza Cristal local 26 y 27a 3er nivel Teopanzolco C.P. 62350 Cuernavaca, Morelos,Cuernavaca, Morelos"
Centro Crecer Calvillo ,"Jesus Maria, Aguascalientes",Aguascalientes,OSC / ONG,Centros de Asistencia Social,21.8411316,-102.7150395,PG472,"Serapio Figueroa 119, Ejidal, 20804,Aguascalientes, Aguascalientes"
Centro Crecer Pabellon De Arteaga ,"Jesus Maria, Aguascalientes",Aguascalientes,OSC / ONG,Centros de Asistencia Social,21.7167602,-102.4114054,PG472,"C. Pedro Parga S/N Frac Trojes de San Pedro,Aguascalientes, Aguascalientes"
Casa de la Esperanza San Jose ,"Tepic, Nayarit",Nayarit,OSC / ONG,Centros de Asistencia Social,21.5088255,-104.8892938,PG418,"Padre Enrique Mejia 194, Col. Centro, C.P. 63000,Tepic, Nayarit"
Centro Casa Origen Nayarit ,"Tepic, Nayarit",Nayarit,OSC / ONG,Centros de Asistencia Social,21.501593,-104.895176,PG418,"Privada Margarita No. 32, Col. Villas de San Juan, C.P. 63130,Tepic, Nayarit"
"Casa de Ninos Frank Gonzalez, A.C.","Tepic, Nayarit",Nayarit,OSC / ONG,Centros de Asistencia Social,21.48583966,-104.9083274,PG418,"Prolongacion Sabino 138, Col. Cuauhtemoc Tepic, Nayarit."
"Materno Infantil de la Asuncion de Maria, A.C.","Tepic, Nayarit",Nayarit,OSC / ONG,Centros de Asistencia Social,21.449164,-104.8196438,PG418,"Roble 47, Col. San Juan, Tepic, Nayarit."
Santo Toribio,"Leon, Guanajuato",Guanajuato,OSC / ONG,Centros de Asistencia Social,21.3680904,-101.9280848,PG499,"Hernando de Martell 14-A, Col. La Luz C.P. 47400"
Mision derechos humanos de la sierra gorda de Queretaro A.C. ,"Jalpan de Serra, Queretaro",Guanajuato,OSC / ONG,Centros de Asistencia Social,21.2141788,-99.4762632,PG553,"Mariano Matamoros No. 14 Zona Centro 76340 Jalpan de Serra, Queretaro, Mexico,Jalpan de Serra, Queretaro"
Casa Fuente de Apoyo a Mujeres Ninas y Ninos Victimas de Violencia A.C.,"Leon, Guanajuato",Guanajuato,OSC / ONG,Centros de Asistencia Social,21.1794407,-101.6360908,PG499,"piedra prieta numero 4 colonia la cascada, alcadia, Alvaro Obregon, codigo postal 01490 ciudad de mexico"
Casa Hogar San Jose de los Huerfanos,"San Luis de la Paz, Guanajuato",Guanajuato,OSC / ONG,Centros de Asistencia Social,21.1532626,-100.929166,PG526,"Prolongacion Independencia 163, Col. La Armonia, Colima, Colima. C.P. 28020"
Casa del migrante Galilea ,"Leon, Guanajuato",Guanajuato,OSC / ONG,Centros de Asistencia Social,21.10733877,-101.6820344,PG499,"Calle Independencia 878 esquina con calle Rio Balsas. Col. Barrio de San Miguel,Leon, Guanajuato"
Hmnas de San Jose de Lyon (albergue Decanal Guadalupano) ,"Ozuluama de Mascarenas, Veracruz",Veracruz,OSC / ONG,Centros de Asistencia Social,21.08140337,-97.37691806,PG607,"Calle Aldama #50, entre Tuxpan y Lafragua Tierra Blanca, Col. El Viejo, C.P. 95180,Tierra Blanca de Ignacio de la Llave, Veracruz"
Albergue Obsidiana ,"Tepic, Nayarit",Nayarit,OSC / ONG,Centros de Asistencia Social,21.03953669,-104.3708381,PG418,"Calle Amado Nervo 164 A, Col. Everardo Pena Navarro C.P. 63940,Ixtlan del Rio, Nayarit"
Casa del Migrante para Ninas y Ninos No Acompanados,"Progreso, Yucatan",Yucatan,OSC / ONG,Centros de Asistencia Social,21.0171873,-89.57724918,PG823,"Avenida Bonampak, esquina Chocol-Ha s/n, Col. Maya Laca"
Instituto para el desarrollo de la cultura Maya del estado de Yucatan INDEMAYA ,"Merida, Yucatan",Yucatan,OSC / ONG,Centros de Asistencia Social,20.96686275,-89.62718863,PG822,"Calle 66 num 532 x 63 y 65 col centro cp. 97000,Merida, Yucatan"
Casa hogar para ancianos de Silao,"Salamanca, Guanajuato",Guanajuato,OSC / ONG,Centros de Asistencia Social,20.9439214,-101.439425,PG498,"Guanajuato 28, De los Angeles, 36125 Silao, Gto."
Caminamos Juntos ,"Celaya, Guanajuato",Guanajuato,OSC / ONG,Centros de Asistencia Social,20.9122595,-100.7445762,PG525,"Abierto por cita. Solicitar cita previa. Zona Centro 37700 San Miguel de Allende, Guanajuato,San Miguel de Allende, Guanajuato"
San Juan de Dios,"Salamanca, Guanajuato",Guanajuato,OSC / ONG,Centros de Asistencia Social,20.6999218,-101.3497475,PG498,"Rio Silao 1897, esq. Rio Balsas, Col. La Pradera C.P. 36670"
Fundacion Comunitaria del Bajio ,"Salamanca, Guanajuato",Guanajuato,OSC / ONG,Centros de Asistencia Social,20.6760812,-101.3498669,PG498,"Manuel Altamirano No. 480-1 C.P. 35600,Irapuato, Guanajuato"
Instituto Jalisciense para los Migrantes ,"Tlajomulco de Zuniga, Jalisco",Jalisco,OSC / ONG,Centros de Asistencia Social,20.674638,-103.3661476,PG444,"Calle Penitenciaria 180, Colonia Americana, CP. 44160,Guadalajara, Jalisco"
"Irapuato Vive, AC ","Salamanca, Guanajuato",Guanajuato,OSC / ONG,Centros de Asistencia Social,20.6729881,-101.3490121,PG498,"Jesus Garcia 356 Zona Centro C.P. 36510,Irapuato, Guanajuato"
Aldea Arcoiris,"Tlajomulco de Zuniga, Jalisco",Jalisco,OSC / ONG,Centros de Asistencia Social,20.6715739,-103.3155908,PG444,"Metalurgia No. 2878, Col. Alamo Industrial, San Pedro Tlaquepaque."
"Dignidad y Justicia en el Camino, AC (FM4-Paso Libre)","Tlajomulco de Zuniga, Jalisco",Jalisco,OSC / ONG,Centros de Asistencia Social,20.6674802,-103.3790077,PG444,"Calderon de la Barca #468-A, Col. Arcos Vallarta, C.P. 44130,Guadalajara, Jalisco"
FM4 Paso libre,"Tlajomulco de Zuniga, Jalisco",Jalisco,OSC / ONG,Centros de Asistencia Social,20.6674802,-103.3790077,PG444,"Calderon de la Barca No. 468-A, Col. Barrera, Guadalajara, Jalisco."
Albergue Infantil de Irapuato,"Salamanca, Guanajuato",Guanajuato,OSC / ONG,Centros de Asistencia Social,20.6641103,-101.3350695,PG498,"Vasco de Quiroga 1384, Valle de las Flores, 36585 Irapuato, Gto."
"Villas Juveniles San Juan, A.C.","Tlajomulco de Zuniga, Jalisco",Jalisco,OSC / ONG,Centros de Asistencia Social,20.6500061,-103.450271,PG444,"Chicozapote 1109, Paraisos del Colli Zapopan, Jalisco. C.P. 45070"
Exodus,"Tlajomulco de Zuniga, Jalisco",Jalisco,OSC / ONG,Centros de Asistencia Social,20.64748061,-103.3457003,PG444,"Calle 6 y Avenida Anahuac, Col. Ferrocarril, C.P. 84200"
"Albergue para migrantes Toribio Romo, A.C. ","Celaya, Guanajuato",Guanajuato,OSC / ONG,Centros de Asistencia Social,20.6416217,-100.3984202,PG525,"Priv. Campesinos 1, Col. San Pedrito Penuelas, C.P. 76140,Queretaro, Queretaro"
Casa Monarca,"Tlajomulco de Zuniga, Jalisco",Jalisco,OSC / ONG,Centros de Asistencia Social,20.6100081,-103.3375723,PG444,"Calle Hidalgo #100 entre Manuel Ordonez y Benito Juarez col. Centro Santa Catarina, N.L."
"Vida y Familia Queretaro, A.C.","Celaya, Guanajuato",Guanajuato,OSC / ONG,Centros de Asistencia Social,20.6093964,-100.377501,PG525,"Nogaleda 202, Col. Arboledas del Parque Queretaro, Queretaro, C.P. 76140"
The Rhizome Center for Migrants ,"Tlajomulco de Zuniga, Jalisco",Jalisco,OSC / ONG,Centros de Asistencia Social,20.60851254,-103.3481204,PG444,"Contactar via pagina web o por telefono.,Guadalajara, Jalisco"
La casa del migrante del Cerro del Cuatro ,"Tlajomulco de Zuniga, Jalisco",Jalisco,OSC / ONG,Centros de Asistencia Social,20.605528,-103.370684,PG444,"Constitucion 332 esquina con Ignacio Mejia, Col. Cerro del 4 C.P. 45599,Tlaquepaque, Jalisco"
El Refugio,"Tlajomulco de Zuniga, Jalisco",Jalisco,OSC / ONG,Centros de Asistencia Social,20.60263499,-103.3479408,PG444,"Constitucion 350, entre Melchor Ocampo e Ignacio Mejia, Col. Cerro del Cuatro C.P. 45599"
Centro de Apoyo Marista al Migrante  (CAMMI) ,"Celaya, Guanajuato",Guanajuato,OSC / ONG,Centros de Asistencia Social,20.6016889,-100.3850034,PG525,"Marte No. 2 Esq. Av. Universidad Col. Centro CP. 76000 Queretaro, Qro. (Universidad Marista de Queretaro),Queretaro, Queretaro"
Hogar de Proteccion Infantil DIF Caminando Juntos,"Celaya, Guanajuato",Guanajuato,OSC / ONG,Centros de Asistencia Social,20.59115495,-100.4130026,PG525,"Av. Universidad s/n, Col. Cerro de las Campanas, Queretaro, Queretaro C.P. 76010"
Caritas de Queretaro I.A.P.,"Celaya, Guanajuato",Guanajuato,OSC / ONG,Centros de Asistencia Social,20.5902405,-100.3888379,PG525,"Calle Vergara Sur #35-A, Centro, C. P.76000."
Casa San Carlos Borromeo ,"Salamanca, Guanajuato",Guanajuato,OSC / ONG,Centros de Asistencia Social,20.5611765,-101.2012816,PG498,"Moroleon #107, Col. Guanajuato C.P. 36790,Salamanca, Guanajuato"
Casa del migrante ABBA ,"Celaya, Guanajuato",Guanajuato,OSC / ONG,Centros de Asistencia Social,20.5458105,-100.7950601,PG525,"Calle, Eufemio Zapata #216. Colonia, Emiliano Zapata. Celaya Guanajuato. C.P 38030,Celaya, Guanajuato"
"Albergue Manos Extendidas para los Necesitados, AC ","Celaya, Guanajuato",Guanajuato,OSC / ONG,Centros de Asistencia Social,20.5275419,-100.8030489,PG525,"16 de Septiembre 428 Celaya, Guanajuato, C.P. 38057 (casi enfrente del templo del Barrio del Zapote),Celaya, Guanajuato"
Centro Regional de la Red de Mujeres de Bajio ACCEREMUBA ,"Celaya, Guanajuato",Guanajuato,OSC / ONG,Centros de Asistencia Social,20.5230916,-100.8135865,PG525,"Alvaro Obregon 381-5, Planta Alta, zona Centro, CP 3800,Celaya, Guanajuato"
Estancia Gonzalez y Martinez A.C ,"Ixmiquilpan, Hidalgo",Hidalgo,OSC / ONG,Centros de Asistencia Social,20.50956805,-99.8631679,PG552,"Antigua Estacion Bernal, Calle Juarez oriente C.P 76776,Tequisquiapan, Queretaro"
Padre Chava,"Celaya, Guanajuato",Guanajuato,OSC / ONG,Centros de Asistencia Social,20.4536004,-100.6167234,PG525,"Melchor Ocampo 700, Zona Centro C.P. 22000"
"Nuestra Senora de Guadalupe, A.C.","Alamo Temapache, Veracruz",Veracruz,OSC / ONG,Centros de Asistencia Social,20.4463728,-97.3258503,PG606,"Maria J. Gonzalez 501, Col. Aquiles Serdan C.P. 88540"
San Carlos Borromeo,"Salamanca, Guanajuato",Guanajuato,OSC / ONG,Centros de Asistencia Social,20.3781593,-101.1593774,PG498,"2a Privada de Morelon 107, Col. Guanajuato C.P. 36780"
ABBA,"Salamanca, Guanajuato",Guanajuato,OSC / ONG,Centros de Asistencia Social,20.3641739,-101.9746263,PG498,"Eufemio Zapata 216, Col. Emiliano Zapata C.P. 03800"
"Casa Hogar Annabel de Vallejo, A.C. (Casa de Varones)","Tlajomulco de Zuniga, Jalisco",Jalisco,OSC / ONG,Centros de Asistencia Social,20.1600133,-103.1147188,PG444,"Carretera a Tizapan el Alto 51, Localidad de Mismaloya, Tizapan El Alto, Jalisco."
"El Diamante de Fuego, AC ","Pachuca de Soto, Hidalgo",Hidalgo,OSC / ONG,Centros de Asistencia Social,20.1265924,-98.7543876,PG579,"V Carranza 528, San Clemente C.P. 42070,Pachuca, Hidalgo"
El Santuario,"Pachuca de Soto, Hidalgo",Hidalgo,OSC / ONG,Centros de Asistencia Social,20.0858249,-104.1105118,PG417,Capilla de Macuspana (Estacion de tren)
Casa del Migrante El Samaritano ,"Ixmiquilpan, Hidalgo",Hidalgo,OSC / ONG,Centros de Asistencia Social,20.0438802,-99.2473813,PG552,"Av. del Bosque 360, U.H. Antonio Osorio de Leon, Col. Bojay, Atitalaquia, Hidalgo. C.P. 42970,Atitalaquia, Hidalgo"
"HERMANAS de los Sagrados Corazones Casa del Migrante ""El Samaritano"" ","Ixmiquilpan, Hidalgo",Hidalgo,OSC / ONG,Centros de Asistencia Social,20.043333,-99.244722,PG552,"Av. del Bosque 360, U.H. Antonio Osorio de Leon, Col. Bojay, Atitalaquia, Hidalgo.,Bojay, Hidalgo"
San Juan Diego,"Gustavo A. Madero, Ciudad de Mexico",Ciudad de Mexico,OSC / ONG,Centros de Asistencia Social,19.83545746,-99.2052551,PG551,"Camino Tequixquiac Km 50.5, Barrio San Bartolo C.P. 54680"
Albergue Casa del Migrante San Juan Diego ,"Gustavo A. Madero, Ciudad de Mexico",Ciudad de Mexico,OSC / ONG,Centros de Asistencia Social,19.5793867,-99.7581572,PG551,"Camino Tequixquiac km 50.5, Barrio San Bartolo,Huehuetoca, Estado de Mexico"
Senda de Vida,"Gustavo A. Madero, Ciudad de Mexico",Ciudad de Mexico,OSC / ONG,Centros de Asistencia Social,19.5504175,-99.0757521,PG551,"Bordo de Proteccion 5, Col. 21 de Marzo"
Estancia Temporal para Menores Migrantes No Acompanados,"Xalapa, Veracruz",Veracruz,OSC / ONG,Centros de Asistencia Social,19.5501478,-96.9276091,PG632,"Chihuahua 114, Col. Progreso Macuiltepetl, Xalapa, Veracruz. C.P. 91130"
Aldea Emelia Exsome Ninos,"Xalapa, Veracruz",Veracruz,OSC / ONG,Centros de Asistencia Social,19.5449017,-96.91470863,PG632,"Cerro de Malacatepec s/n esquina Paricutin, Fraccionamiento Lomas del Coyol, Veracruz, Veracruz. C.P. 91729"
Aldea Meced,"Xalapa, Veracruz",Veracruz,OSC / ONG,Centros de Asistencia Social,19.54473795,-96.91522727,PG632,"Justino Sarmiento s/n, esquina Jorge Serdan, Col. Juan de la Luz Enriquez, Xalapa, Veracruz. C.P. 91130"
CAFEMIN,"Gustavo A. Madero, Ciudad de Mexico",Ciudad de Mexico,OSC / ONG,Centros de Asistencia Social,19.5075188,-99.152906,PG551,"Constantino 251, Col. Vallejo, Gustavo A. Madero, Mexico"
AS Movilidad AC ,"Gustavo A. Madero, Ciudad de Mexico",Ciudad de Mexico,OSC / ONG,Centros de Asistencia Social,19.49760965,-99.1752356,PG551,"Avenida Mexico Coyoacan # 295 PB 1,de Mexico, 03330 Ciudad Ciudad de Mexico, Ciudad de Mexico"
Deportados Unidos en la Lucha ,"Gustavo A. Madero, Ciudad de Mexico",Ciudad de Mexico,OSC / ONG,Centros de Asistencia Social,19.4912701,-99.0574659,PG551,"Valle de Arriba 66-2 Valle de Aragon 1era seccion., 57100,Nezahualcoyotl,, de Mexico Ciudad Ciudad Nezahualcoyotl Estado Estado de Mexico"
SMR Scalabrin,"Gustavo A. Madero, Ciudad de Mexico",Ciudad de Mexico,OSC / ONG,Centros de Asistencia Social,19.4910144,-99.1481213,PG551,"Constantino 251, Col. Vallejo, Del. Gustavo A. Madero C.P 07870"
Otros Dreams en Accion ,"Gustavo A. Madero, Ciudad de Mexico",Ciudad de Mexico,OSC / ONG,Centros de Asistencia Social,19.4873745,-99.1934659,PG551,"Jose Maria Marroqui 83 Colonia Centro, Centro, 06000 Centro, CDMX,Ciudad de Mexico, Ciudad de Mexico"
Adolescentes en el Camino ,"Gustavo A. Madero, Ciudad de Mexico",Ciudad de Mexico,OSC / ONG,Centros de Asistencia Social,19.47435005,-99.18267887,PG551,"Axopilco #5, Unidad Habitacional El Recreo, C.P. 02070,Delegacion Azcapotzalco, Ciudad de Mexico"
CAFEMIN ,"Gustavo A. Madero, Ciudad de Mexico",Ciudad de Mexico,OSC / ONG,Centros de Asistencia Social,19.46399064,-99.13008302,PG551,"Constantino #251, Col. Vallejo CP 7870,Delegacion Gustavo A. Madero, Ciudad de Mexico"
Fundacion Carlos Slim ,"Gustavo A. Madero, Ciudad de Mexico",Ciudad de Mexico,OSC / ONG,Centros de Asistencia Social,19.4632715,-99.0409468,PG551,"Lago Zurich 245, Col. Ampliacion Granada,Ciudad de Mexico, Ciudad de Mexico"
UVEMAC ,"Gustavo A. Madero, Ciudad de Mexico",Ciudad de Mexico,OSC / ONG,Centros de Asistencia Social,19.4612583,-99.0437537,PG551,"Av. Lago Xochimilco # 381. Col. Ampliacion Vicente Villada,Nezahualcoyotl, 57710  Ciudad Ciudad Nezahualcoyotl, Estado de Mexico"
Centro de Estancia de Transitoria de la PGJDF,"Gustavo A. Madero, Ciudad de Mexico",Ciudad de Mexico,OSC / ONG,Centros de Asistencia Social,19.4463572,-99.1555081,PG551,"Dr. Lavista 78 Col. Doctores Del. Cuauhtemoc, Ciudad de Mexico."
Casa de los Amigos A.C. APOFAM ,"Gustavo A. Madero, Ciudad de Mexico",Ciudad de Mexico,OSC / ONG,Centros de Asistencia Social,19.4380716,-99.154505,PG551,"Ignacio Mariscal 132,Ciudad de Mexico, Ciudad de Mexico"
SEMIGRANTE (Zitacuaro) ,"Zinapecuaro, Michoacan",Michoacan,OSC / ONG,Centros de Asistencia Social,19.43719572,-100.3574278,PG524,"Interior Palacio Municipal, Ocampo Poniente No. 13, Col. Centro, C.P. 61500,Zitacuaro, Michoacan"
New Comienzos A.C. ,"Gustavo A. Madero, Ciudad de Mexico",Ciudad de Mexico,OSC / ONG,Centros de Asistencia Social,19.43270105,-99.13315494,PG551,"Plaza de la Republica Centro Historico, CDMX,Ciudad de Mexico, Ciudad de Mexico"
SMR: Scalabrinianas Mision con Migrantes y Refugiados ,"Gustavo A. Madero, Ciudad de Mexico",Ciudad de Mexico,OSC / ONG,Centros de Asistencia Social,19.4326296,-99.1331785,PG551,"No disponible,Ciudad de Mexico, Ciudad de Mexico"
Las Vanders ,"Gustavo A. Madero, Ciudad de Mexico",Ciudad de Mexico,OSC / ONG,Centros de Asistencia Social,19.4326296,-99.1331785,PG551,"No disponible,Ciudad de Mexico, Ciudad de Mexico"
Casa Refugio Citlaltepetl ,"Gustavo A. Madero, Ciudad de Mexico",Ciudad de Mexico,OSC / ONG,Centros de Asistencia Social,19.4326296,-99.1331785,PG551,"Citlaltepetl # 25,de Mexico, 6170 Ciudad Ciudad de Mexico, Ciudad de Mexico"
Casa La Banda ,"Gustavo A. Madero, Ciudad de Mexico",Ciudad de Mexico,OSC / ONG,Centros de Asistencia Social,19.4326296,-99.1331785,PG551,"No disponible,Ciudad de Mexico, Ciudad de Mexico"
Mi Valedor ,"Gustavo A. Madero, Ciudad de Mexico",Ciudad de Mexico,OSC / ONG,Centros de Asistencia Social,19.4315171,-99.1514848,PG551,"Bucareli 69 C,Ciudad de Mexico, Ciudad de Mexico"
Maria Auxiliadora,"Xalapa, Veracruz",Veracruz,OSC / ONG,Centros de Asistencia Social,19.4305705,-96.9643952,PG632,"Calle 78 Pte. 915, Col. 20 de Noviembre C.P. 62230"
America sin muros ,"Gustavo A. Madero, Ciudad de Mexico",Ciudad de Mexico,OSC / ONG,Centros de Asistencia Social,19.42734345,-99.16521488,PG551,"Paseo de la Reforma 296, Piso 19, Del. Benito Juarez,Ciudad de Mexico, Ciudad de Mexico"
Servicios Jesuitas a Migrantes SJM ,"Gustavo A. Madero, Ciudad de Mexico",Ciudad de Mexico,OSC / ONG,Centros de Asistencia Social,19.4245972,-99.15204001,PG551,"Orizaba 39 Roma Nte. Cuauhtemoc 06700,de Mexico, CDMX Ciudad Ciudad de Mexico, Ciudad de Mexico"
Fundacion Loyola A.C ,"Gustavo A. Madero, Ciudad de Mexico",Ciudad de Mexico,OSC / ONG,Centros de Asistencia Social,19.42209963,-99.16047264,PG551,"Mariano Matamoros # 75 Col. del Carmen,Delegacion Coyoacan, Estado de Mexico"
Pro Ayuda a la Mujer Origen A.C. ,"Gustavo A. Madero, Ciudad de Mexico",Ciudad de Mexico,OSC / ONG,Centros de Asistencia Social,19.42030352,-99.20532622,PG551,"Juan O'Donoju 221 Lomas Virreyes, Lomas de Chapultepec IV Secc. CP 11000,Delegacion Miguel Hidalgo, Ciudad de Mexico"
Instituto de Liderazgo Simone de Beauvoir (ILSB) ,"Gustavo A. Madero, Ciudad de Mexico",Ciudad de Mexico,OSC / ONG,Centros de Asistencia Social,19.41987063,-99.1564017,PG551,"Tabasco 68 Int. 3, col. Roma,Delegacion Cuauhtemoc, Ciudad de Mexico"
Un Mundo Una Nacion A. C. ,"Texcoco, Estado de Mexico",Estado de Mexico,OSC / ONG,Centros de Asistencia Social,19.41983484,-98.15381815,PG578,"6a Avenida No. 2903, Col. El Carmen,Apizaco, Tlaxcala"
Asociacion Mexicana de Uniones de Credito del Sector Social (AMUCSS) ,"Gustavo A. Madero, Ciudad de Mexico",Ciudad de Mexico,OSC / ONG,Centros de Asistencia Social,19.4183227,-99.1625655,PG551,"Hermosillo 14 codigo 2, Roma Sur Cuauhtemoc 06760,de Mexico, CDMX Ciudad Ciudad de Mexico, Ciudad de Mexico"
"Albergue para migrantes ""La Sagrada familia"" ","Texcoco, Estado de Mexico",Estado de Mexico,OSC / ONG,Centros de Asistencia Social,19.4166882,-98.13201818,PG578,"3a Privada Alvaro Obregon s/n, Col. Ferrocarrilera,Apizaco, Tlaxcala"
"Iniciativa Ciudadana para la Promocion de la Cultura del Dialogo, AC ","Gustavo A. Madero, Ciudad de Mexico",Ciudad de Mexico,OSC / ONG,Centros de Asistencia Social,19.415222,-99.165413,PG551,"Tepic 83 Col. Roma Sur,Delegacion Cuauhtemoc, Ciudad de Mexico"
Medicos sin fronteras ,"Gustavo A. Madero, Ciudad de Mexico",Ciudad de Mexico,OSC / ONG,Centros de Asistencia Social,19.4148639,-99.176429,PG551,"Fernando Montes de Oca 56, Col. Condesa, Del. Cuauhtemoc,Ciudad de Mexico, Ciudad de Mexico"
Fundacion Origen A.C. ,"Gustavo A. Madero, Ciudad de Mexico",Ciudad de Mexico,OSC / ONG,Centros de Asistencia Social,19.414389,-99.2147747,PG551,"Juan O'donoju 221, Lomas Virreyes, Lomas de Chapultepec IV Secc, 11000,de Mexico, CDMX Ciudad Ciudad de Mexico, Ciudad de Mexico"
"Casa Refugiados, AC ","Gustavo A. Madero, Ciudad de Mexico",Ciudad de Mexico,OSC / ONG,Centros de Asistencia Social,19.40998157,-99.15644468,PG551,"Prolongacion Orizaba s/n, dentro del Parque Ramon Lopez Velarde,Delegacion Cuauhtemoc, Ciudad de Mexico"
Cooperativa Fotosintesis ,"Gustavo A. Madero, Ciudad de Mexico",Ciudad de Mexico,OSC / ONG,Centros de Asistencia Social,19.4084336,-99.1394535,PG551,"Fray Juan de Torquemada No. 76 Colonia Obrera C.P 06800,Ciudad de Mexico, Ciudad de Mexico"
Colectivo de Practicas Narrativas ,"Gustavo A. Madero, Ciudad de Mexico",Ciudad de Mexico,OSC / ONG,Centros de Asistencia Social,19.4070945,-99.1878396,PG551,"Gobernador Luis G. Viera 38, Col. San Miguel Chapultepec II Seccion,,Ciudad de Mexico, Ciudad de Mexico"
Comision Mexicana para la Defensa y Promocion de los Derechos Humanos ,"Gustavo A. Madero, Ciudad de Mexico",Ciudad de Mexico,OSC / ONG,Centros de Asistencia Social,19.403565,-99.1701222,PG551,"Tehuantepec #142, Col. Roma Sur,Delegacion Cuauhtemoc, Ciudad de Mexico"
Casa Mambre,"Gustavo A. Madero, Ciudad de Mexico",Ciudad de Mexico,OSC / ONG,Centros de Asistencia Social,19.4005199,-99.1817365,PG551,"Martires de La Conquista 86, Escandon I Secc, Miguel Hidalgo, 11800 Ciudad de Mexico, CDMX"
Albergue de Migrantes Casa Tochan ,"Gustavo A. Madero, Ciudad de Mexico",Ciudad de Mexico,OSC / ONG,Centros de Asistencia Social,19.397957,-99.1956197,PG551,"Calle Pavo Real Entre 40 y 41, Colonia Pino Suarez, C.P. 01141,Delegacion Alvaro Obregon, Ciudad de Mexico"
Hogares Providencia,"Gustavo A. Madero, Ciudad de Mexico",Ciudad de Mexico,OSC / ONG,Centros de Asistencia Social,19.3975535,-99.1410065,PG551,"Isabel la Catolica 745, Col. Alamos Del. Benito Juarez, Ciudad de Mexico."
Casa Tochan,"Gustavo A. Madero, Ciudad de Mexico",Ciudad de Mexico,OSC / ONG,Centros de Asistencia Social,19.3961144,-99.1981474,PG551,"Pavoreal 40, Jose Maria Pino Suarez, Alvaro Obregon, 01140 Ciudad de Mexico, CDMX"
"Iniciativa Ciudadana y Desarrollo Social, AC (Incide Social) ","Gustavo A. Madero, Ciudad de Mexico",Ciudad de Mexico,OSC / ONG,Centros de Asistencia Social,19.38415196,-99.14045527,PG551,"Hilario Perez de Leon No. 80, Col. Ninos Heroes de Chapultepec,Delegacion Benito Juarez, Ciudad de Mexico"
Fundacion para la justicia y el estado democratico de derecho ,"Gustavo A. Madero, Ciudad de Mexico",Ciudad de Mexico,OSC / ONG,Centros de Asistencia Social,19.3837691,-99.1669696,PG551,"Calle Palenque 269, Col. Narvarte Oriente, Del. Benito Juarez,Ciudad de Mexico, Ciudad de Mexico"
"Corrientes, artisticas, sociales, ambientales. ","Gustavo A. Madero, Ciudad de Mexico",Ciudad de Mexico,OSC / ONG,Centros de Asistencia Social,19.3837691,-99.1669696,PG551,"Marroqui 83 esquina con Ayuntamiento, Col. Centro, Del. Cuauhtemoc,Ciudad de Mexico, Ciudad de Mexico"
Fondo Semillas ,"Gustavo A. Madero, Ciudad de Mexico",Ciudad de Mexico,OSC / ONG,Centros de Asistencia Social,19.38343475,-99.17825995,PG551,"Fragonard 84, Col. San Juan, Del. Benito Juarez,Ciudad de Mexico, Ciudad de Mexico"
"Instituto para la Seguridad y la Democracia, AC (INSYDE) ","Gustavo A. Madero, Ciudad de Mexico",Ciudad de Mexico,OSC / ONG,Centros de Asistencia Social,19.3833943,-99.1792214,PG551,"Carolina 80, Cd. de los Deportes, Noche Buena, 03710,Delegacion Benito Juarez, Ciudad de Mexico"
Ejercito de Salvacion Salvation Army ,"Gustavo A. Madero, Ciudad de Mexico",Ciudad de Mexico,OSC / ONG,Centros de Asistencia Social,19.3831142,-99.1741181,PG551,"San Borja #1456, Col. Vertiz Narvarte,Delegacion Benito Juarez, Ciudad de Mexico"
Misioneras de San Carlos Borromeo Scalabrinianas ,"Gustavo A. Madero, Ciudad de Mexico",Ciudad de Mexico,OSC / ONG,Centros de Asistencia Social,19.3829715,-99.18009787,PG551,"Calle Zapote 31, San Fernando,Ciudad de Mexico, Ciudad de Mexico"
Humanitaria a Migrantes en Transito,"Texcoco, Estado de Mexico",Estado de Mexico,OSC / ONG,Centros de Asistencia Social,19.3817116,-98.531076,PG578,"Calle 45 Norte 206, Col. Aquiles Serdan C.P.72140"
Sin Fronteras IAP ,"Gustavo A. Madero, Ciudad de Mexico",Ciudad de Mexico,OSC / ONG,Centros de Asistencia Social,19.3770818,-99.1943878,PG551,"Carlos Dolci # 96. Col. Alfonso XII,de Mexico, 01460 Ciudad Ciudad de Mexico, Ciudad de Mexico"
"Yolia Ninas de la Calle, A.C.","Gustavo A. Madero, Ciudad de Mexico",Ciudad de Mexico,OSC / ONG,Centros de Asistencia Social,19.3749298,-99.207294,PG551,"Av. Hidalgo Lote 19 Manzana 54, Col. Olivar Del Conde, Segunda Seccion, Del. Alvaro Obregon, Ciudad de Mexico.C.P. 01408"
"Asociacion Mexicana Pro Naciones Unidas, AC ","Gustavo A. Madero, Ciudad de Mexico",Ciudad de Mexico,OSC / ONG,Centros de Asistencia Social,19.371541,-99.1938194,PG551,"Blvd. Adolfo Lopez Mateos 1661 Edificio A12 Despacho 904 Col. Lomas de Plateros.CP 01480,Delegacion Alvaro Obregon, Ciudad de Mexico"
Casa Frida Refugio LGBT,"Gustavo A. Madero, Ciudad de Mexico",Ciudad de Mexico,OSC / ONG,Centros de Asistencia Social,19.3684659,-99.1194601,PG551,"C. Sur 105 434, Sector Popular, Heroes de Churubusco, Iztapalapa, 09090 Ciudad de Mexico, CDMX"
"Fundacion Dar y Amar Daya, I.A.P.","Gustavo A. Madero, Ciudad de Mexico",Ciudad de Mexico,OSC / ONG,Centros de Asistencia Social,19.3650389,-99.2919906,PG551,"Calle Puebla 77, Col. Cuajimalpa Del. Cuajimalpa, Ciudad de Mexico."
Santa Martha,"Texcoco, Estado de Mexico",Estado de Mexico,OSC / ONG,Centros de Asistencia Social,19.35994841,-98.99528662,PG578,Capilla Santa Marta (Estacion de tren)
"Instituto de Estudios y Divulgacion sobre Migracion, AC (INEDIM) ","Gustavo A. Madero, Ciudad de Mexico",Ciudad de Mexico,OSC / ONG,Centros de Asistencia Social,19.3576908,-99.1226831,PG551,"Calle Mexicali 4 Hipodromo 06100,de Mexico, CDMX Ciudad Ciudad de Mexico, Ciudad de Mexico"
La Sagrada Familia,"Gustavo A. Madero, Ciudad de Mexico",Ciudad de Mexico,OSC / ONG,Centros de Asistencia Social,19.3552466,-99.2476459,PG551,"3ra Priv. de Alvaro Obregon s/n, Col. Ferrocarrilera C.P. 90342"
"Centro Nacional Modelo de Atencion, Investigacion y Capacitacion Casa Cuna Tlalpan","Gustavo A. Madero, Ciudad de Mexico",Ciudad de Mexico,OSC / ONG,Centros de Asistencia Social,19.3532236,-99.1450381,PG551,"Calz. De Tlalpan 1677, Col. del San Diego Churubusco, Tlalpan, Ciudad de Mexico. C.P. 04120"
Centro Constitucion de 1917 Alcoholismo y Drogadiccion A.C.,"Gustavo A. Madero, Ciudad de Mexico",Ciudad de Mexico,OSC / ONG,Centros de Asistencia Social,19.351435,-99.0639852,PG551,"Av. Luis Manuel Rojas Ndeg 19, Constitucion de 1917, Iztapalapa, 09260 Ciudad de Mexico, CDMX"
Albergue Balsamo de Amor A.C.,"Gustavo A. Madero, Ciudad de Mexico",Ciudad de Mexico,OSC / ONG,Centros de Asistencia Social,19.3513347,-99.0634657,PG551,"Amilcar Vidal 93, Constitucion de 1917, Iztapalapa, 09260 Ciudad de Mexico, CDMX"
"Centro Nacional Modelo de Atencion, Investigacion y Capacitacion Casa Cuna Coyoacan","Gustavo A. Madero, Ciudad de Mexico",Ciudad de Mexico,OSC / ONG,Centros de Asistencia Social,19.3509824,-99.1580661,PG551,"Moctezuma 46, Col. Del Carmen Coyoacan, Ciudad de Mexico. C.P. 04100"
Centro Amanecer para Ninos,"Gustavo A. Madero, Ciudad de Mexico",Ciudad de Mexico,OSC / ONG,Centros de Asistencia Social,19.3487782,-99.1726868,PG551,"Callejon del Rio 33, Col. Barrio Santa Catarina, Coyoacan, Ciudad de Mexico. C.P. 04010"
"Fundacion Casa Alianza Mexico, I.A.P.","Gustavo A. Madero, Ciudad de Mexico",Ciudad de Mexico,OSC / ONG,Centros de Asistencia Social,19.340689,-99.1385495,PG551,"Cerro Churitzio 118, Col. Campestre Churubusco, Del. Coyoacan, Ciudad de Mexico."
Comision Nacional de los Derechos Humanos ,"Gustavo A. Madero, Ciudad de Mexico",Ciudad de Mexico,OSC / ONG,Centros de Asistencia Social,19.3250371,-99.2284244,PG551,"Periferico Sur 3469, Col. San Jeronimo Lidice,Ciudad de Mexico, Ciudad de Mexico"
"Centro de los Derechos del Migrante, Inc ","Gustavo A. Madero, Ciudad de Mexico",Ciudad de Mexico,OSC / ONG,Centros de Asistencia Social,19.32160295,-99.18493018,PG551,"Calle Zamora #169-4 C.P. 06140,Ciudad de Mexico, Ciudad de Mexico"
"Fundar, Centro de Analisis e Investigacion, AC ","Gustavo A. Madero, Ciudad de Mexico",Ciudad de Mexico,OSC / ONG,Centros de Asistencia Social,19.3178414,-99.1419825,PG551,"Cerrada de Alberto Zamora 21, Col. Villa Coyoacan.,Delegacion Coyoacan, Ciudad de Mexico"
Centro Fray Julian Garces A. C. ,"Texcoco, Estado de Mexico",Estado de Mexico,OSC / ONG,Centros de Asistencia Social,19.3116764,-98.2442069,PG578,"Calle 11 No. 214,Loma Xicohtencatl, Tlaxcala"
Instituto Nacional de Salud Publica (INSP) ,"Gustavo A. Madero, Ciudad de Mexico",Ciudad de Mexico,OSC / ONG,Centros de Asistencia Social,19.30766112,-99.15713104,PG551,"Universidad No. 655 Colonia Santa Maria Ahuacatitlan, Cerrada Los Pinos y Caminera C.P. 62100, Cuernavaca, Morelos. Mexico,Cuernavaca, Morelos"
"Centro Nacional Modelo de Atencion, Investigacion y Capacitacion Casa Hogar para Ninas","Gustavo A. Madero, Ciudad de Mexico",Ciudad de Mexico,OSC / ONG,Centros de Asistencia Social,19.3058538,-99.1900616,PG551,"Av. Insurgentes Sur 3700-A, Col. Insurgentes Cuicuilco Coyoacan, Ciudad de Mexico. C.P. 04530"
Fundacion Fraternidad Sin Frontera IAP ,"Gustavo A. Madero, Ciudad de Mexico",Ciudad de Mexico,OSC / ONG,Centros de Asistencia Social,19.30102127,-99.10092886,PG551,"Canal Nacional 1057, Coapa, Villa Quietud,Delegacion Coyoacan, Ciudad de Mexico"
Centro Casa Origen ,"Gustavo A. Madero, Ciudad de Mexico",Ciudad de Mexico,OSC / ONG,Centros de Asistencia Social,19.3008141,-99.7743733,PG551,"Calle sin nombre CP 50960,Villa Victoria, Estado de Mexico"
Albergue Temporal Infantil,"Gustavo A. Madero, Ciudad de Mexico",Ciudad de Mexico,OSC / ONG,Centros de Asistencia Social,19.2791783,-99.658784,PG551,"Paseo Colon 600, Col. Villa Hogar Toluca, Estado de Mexico."
Instituto del Rincon A.C. ,"Gustavo A. Madero, Ciudad de Mexico",Ciudad de Mexico,OSC / ONG,Centros de Asistencia Social,19.26749032,-99.60971699,PG551,"Avenida Morelos No. 124 CP 52440,Malinalco, Estado de Mexico"
COMI,"Gustavo A. Madero, Ciudad de Mexico",Ciudad de Mexico,OSC / ONG,Centros de Asistencia Social,19.1996151,-99.5003113,PG551,"Callejon de Guadalupe Victoria s/n, Col. Centro C.P. 68000"
Aldea Emelia Exsome Ninas,"Xalapa, Veracruz",Veracruz,OSC / ONG,Centros de Asistencia Social,19.18236338,-96.14691843,PG632,"Calle 16 s/n, entre Echeven y Cortes, Col. Pocitos y Rivera, Veracruz, Veracruz. C.P. 91729"
San Felipe Hueyotlipan,"Texcoco, Estado de Mexico",Estado de Mexico,OSC / ONG,Centros de Asistencia Social,19.0859633,-98.2109754,PG578,"Calle 5 de Febrero 1, Col. San Felipe Hueyotlipan C.P. 72030"
Nuestra Senora de los Desamparados,"Texcoco, Estado de Mexico",Estado de Mexico,OSC / ONG,Centros de Asistencia Social,19.07006069,-98.20776444,PG578,"Av. 36 Poniente 3308, Col. Nueva Aurora (atras de la Central de Autobuses de Puebla) C.P. 42070"
Iniciativa Ciudadana para la promocion de la cultura y el dialogo A.C. ,"Texcoco, Estado de Mexico",Estado de Mexico,OSC / ONG,Centros de Asistencia Social,19.0656727,-98.2347693,PG578,"Calle 7 Poniente # 509 Interior 10,Puebla, Puebla"
Casa del Migrante de la Parroquia de Nuestra Senora de los Desamparados ,"Texcoco, Estado de Mexico",Estado de Mexico,OSC / ONG,Centros de Asistencia Social,19.05750662,-98.20295176,PG578,"Av. 36 Poniente 3308, Col. Nueva Aurora, atras de la Central de Autobuses, C.P. 42070,Puebla, Puebla"
Casa de la Ninez Poblana,"Texcoco, Estado de Mexico",Estado de Mexico,OSC / ONG,Centros de Asistencia Social,19.03491584,-98.25812983,PG578,"Km. 4.5 Carr. Federal Puebla-Atlixco Col. Emiliano Zapata, San Andres Cholula, Puebla."
Parroquia de la Asuncion Ayuda Humanitaria a Migrantes en Transito ,"Jantetelco, Morelos",Morelos,OSC / ONG,Centros de Asistencia Social,18.9570892,-98.270555,PG577,"Calle 45 Norte 206, Col. Aquiles Serdan C.P. 72140,Puebla, Puebla"
Centro de Asistencia Social para Adolescentes,"Xochitepec, Morelos",Morelos,OSC / ONG,Centros de Asistencia Social,18.8397425,-99.2155391,PG550,"Av. Miguel Hidalgo s/n, Col. Miguel Hidalgo Temixco, Morelos."
"Pro Chavos, A.C. Centro de Rehabilitacion de Jovenes Prob. Drogas y Alcohol","Xochitepec, Morelos",Morelos,OSC / ONG,Centros de Asistencia Social,18.8343175,-99.2416735,PG550,"20 de Nov. 10, Col. Ruben Jaramillo, Temixco, Morelos."
Comedor para migrantes Las Patronas ,"San Jose Tenango, Oaxaca",Oaxaca,OSC / ONG,Centros de Asistencia Social,18.8131068,-96.9262761,PG631,"Calle 14 s/n Col. Guadalupe Amatlan de los Reyes,Amatlan de los Reyes, Veracruz"
"Albergue Infantil ""Maria Palmira Lavalle"" del DIF Estatal Campeche","Carmen, Campeche",Campeche,OSC / ONG,Centros de Asistencia Social,18.6533451,-91.7920685,PG766,"Av. Juan Escutia s/n, Col.Buenavista, San Francisco de Campeche, Campeche. C.P.24040"
Meced Arrecife,"Carmen, Campeche",Campeche,OSC / ONG,Centros de Asistencia Social,18.644268,-91.7825531,PG766,"Av. Puerto de Campeche s/, Col. Santa Isabel, Carmen, Campeche, C.P. 24157"
Decanal Guadalupano,"San Jose Tenango, Oaxaca",Oaxaca,OSC / ONG,Centros de Asistencia Social,18.4374727344587,-96.3491365589986,PG631,"Hermanos Aldama 50, Tierra Blanca el Viejo, 95180 Tierra Blanca, Ver."
Casa de Atencion al Migrante El Santuario ,"Palizada, Campeche",Campeche,OSC / ONG,Centros de Asistencia Social,18.40556287,-92.48796682,PG739,"Capilla de Macuspana (Estacion de tren),Macuspana, Tabasco"
Casa del Migrante Santa Faustina Kowalska ,"Coatzacoalcos, Veracruz",Veracruz,OSC / ONG,Centros de Asistencia Social,18.1626665,-94.5529821,PG685,"Calle La Venta 434 Col. Dunas,Coatzacoalcos, Veracruz"
"Diocesis de Coatzacoalcos, A.R.","Coatzacoalcos, Veracruz",Veracruz,OSC / ONG,Centros de Asistencia Social,18.14096495,-94.48905996,PG685,"Rio Panuco s/n, entre Rio Tuxpan y Rio Calzadas, Col. Coatzacoalcos, C.P. 96499"
Casa del Migrante Diocesis de Coatzacoalcos A.C. ,"Coatzacoalcos, Veracruz",Veracruz,OSC / ONG,Centros de Asistencia Social,18.12686362,-94.45159628,PG685,"Albergue para mujeres: Calle Soledad del Doblado, esquina Pascual Orozco, cerca del puente de Av.1 Coatzacoalcos,Coatzacoalcos, Veracruz"
Mons. Guillermo Ranzahuer,"Jesus Carranza, Veracruz",Veracruz,OSC / ONG,Centros de Asistencia Social,17.9327562,-94.9017008,PG684,Calle Ignacio Allende 926 Barrio Cuarto C.P.96160
Casa de Migrantes Mons. Guillermo Ranzahuer ,"Jesus Carranza, Veracruz",Veracruz,OSC / ONG,Centros de Asistencia Social,17.9272722,-94.893736,PG684,"Calle Miguel Hidalgo 604, Barrio Primero, 96160 Oluta, Veracruz, Mexico,Acayucan, Veracruz"
Albergue casa El Caminante J'tatic,"Palenque, Chiapas",Chiapas,OSC / ONG,Centros de Asistencia Social,17.5425238,-91.989465,PG765,"Col. Pakal Na, Barrio San Francisco s/n, cercana a La estacion del Ferrocarril y al parque de Pakalna. Palenque, Chiapas"
"Centro de Derechos Humanos de la Montana Tlachinollan, AC ","Santiago Juxtlahuaca, Oaxaca",Oaxaca,OSC / ONG,Centros de Asistencia Social,17.5408669,-98.5947901,PG576,"Mina #77 Col. Centro C.P 41300,Tlapa, Guerrero"
Jtatic Samuel Ruiz,"Palenque, Chiapas",Chiapas,OSC / ONG,Centros de Asistencia Social,17.5382112,-91.9882207,PG765,"Calle del Caminante/ Ninos Heroes 51, Barrio San Francisco, Col. Pakal-na C.P 29960"
La72: Hogar-Refugio para personas migrantes,"Palenque, Chiapas",Chiapas,OSC / ONG,Centros de Asistencia Social,17.47213825,-91.40776533,PG765,"Prolongacion 20 S/N, Estacion Nueva 86901, Tenosique de Pino Suarez, Tabasco,Tenosique, Tabasco"
"La 72, Hogar -Refugio para personas migrantes","Palenque, Chiapas",Chiapas,OSC / ONG,Centros de Asistencia Social,17.4603172,-91.43313845,PG765,"Estacion Nueva,Tenosique, Tabasco"
Casa del Caminante Jtatic Samuel Ruiz ,"Palenque, Chiapas",Chiapas,OSC / ONG,Centros de Asistencia Social,17.2519767,-91.5630216,PG765,"Ninos Heroes 051 C.P. 29960,Palenque, Chiapas"
Centro de orientacion del migrante de Oaxaca ,"San Jacinto Amilpas, Oaxaca",Oaxaca,OSC / ONG,Centros de Asistencia Social,17.1080622,-96.7167234,PG630,"Callejon de Guadalupe Victoria s/n, Col. Centro, C.P. 68000,Oaxaca, Oaxaca"
Servicios para una educacion alternativa A.C. (EDUCA) ,"San Jacinto Amilpas, Oaxaca",Oaxaca,OSC / ONG,Centros de Asistencia Social,17.08176541,-96.70567367,PG630,"Escuadron 202 No. 203, Col. Antiguo Aeropuerto,Oaxaca, Oaxaca"
Papa Francisco,"Comitan de Dominguez, Chiapas",Chiapas,OSC / ONG,Centros de Asistencia Social,16.91400204,-92.0973802,PG737,"2a Calle Norte Pte. s/n, entre 2a y 3a Av. Poniente Nte."
Casa del Migrante Ruchagalu ,"Matias Romero Avendano, Oaxaca",Oaxaca,OSC / ONG,Centros de Asistencia Social,16.8928423,-95.0401948,PG656,"Av. Primero de mayo #1110, Col. Rincon Viejo, Santa Maria Petapa, C.P. 70370,Matias Romero, Oaxaca"
Centro Casa Origen ,"Acapulco de Juarez, Guerrero",Guerrero,OSC / ONG,Centros de Asistencia Social,16.85862817,-99.84405793,PG548,"Unidad Habitacional Colosio, Condominio Obsidiana No. 51, Puerto Marquez, Acapulco, Guerrero. C.P. 39890,Acapulco, Guerrero"
Los Ninos son de Cristo,"Chiapa de Corzo, Chiapas",Chiapas,OSC / ONG,Centros de Asistencia Social,16.78385353,-93.10146727,PG710,"Calle Chicoasen 309, Col. Cruz con Casitas Tuxtla Gutierrez, Chiapas."
Jesus Esperanza en el Camino,"Chiapa de Corzo, Chiapas",Chiapas,OSC / ONG,Centros de Asistencia Social,16.74115429,-93.11949535,PG710,"1a calle Pte y 16 sur 1664, Barrio San Francisco C.P. 26066"
Boca de Polen Red de Comunicadores ,"Comitan de Dominguez, Chiapas",Chiapas,OSC / ONG,Centros de Asistencia Social,16.7347597,-92.6348168,PG737,"Josefa Ortiz de Dominguez No 28 Int. 1, Barrio de Santa Lucia C.P. 29250,San Cristobal Las Casas, Chiapas"
San Martin de Porres,"Comitan de Dominguez, Chiapas",Chiapas,OSC / ONG,Centros de Asistencia Social,16.728848,-92.6370824,PG737,"Prol. Insurgentes 87, Barrio de San Diego C.P. 29200"
Casa Hogar Alegre Odres Nuevos A.C.,"Chiapa de Corzo, Chiapas",Chiapas,OSC / ONG,Centros de Asistencia Social,16.72488586,-93.08896792,PG710,"Calle Marcelino Alvarez No. 450 Col. Rivera Cerro Hueco. Tuxtla Gutierrez, Chiapas."
Capilla-Albergue Hermanos en el Camino A.C. ,"Matias Romero Avendano, Oaxaca",Oaxaca,OSC / ONG,Centros de Asistencia Social,16.5489586,-95.1027582,PG656,"Av. Ferrocarril Pte. #60, Barrio ""La Soledad"" C.P. 70110,Ciudad Ixtepec, Oaxaca"
Casa del Migrante Hogar de la Misericordia ,"Chiapa de Corzo, Chiapas",Chiapas,OSC / ONG,Centros de Asistencia Social,16.26845702,-93.88857735,PG710,"Calle Quinta Sur #1420, Col. Playa Fina C.P. 30450,Arriaga, Chiapas"
El Faro de Esperanza A. C.,"Chiapa de Corzo, Chiapas",Chiapas,OSC / ONG,Centros de Asistencia Social,16.2355405,-93.90028174,PG710,"Carretera Panamericana Km. 980, Cintalapa, Chiapas."
Hogar de la Misericordia,"Chiapa de Corzo, Chiapas",Chiapas,OSC / ONG,Centros de Asistencia Social,16.23520437,-93.89927484,PG710,"5ta. Sur 1420, Col. Playa fina C.P. 30450"
Mambre,"Comitan de Dominguez, Chiapas",Chiapas,OSC / ONG,Centros de Asistencia Social,16.1997149,-92.13122646,PG737,"Real Chichima s/n, Col. Chichima Guadalupe C.P. 30000"
Hermanos del Camino,"Comitan de Dominguez, Chiapas",Chiapas,OSC / ONG,Centros de Asistencia Social,16.12003261,-92.0520058,PG737,"Ejido Emiliano Zapata, por carretera Palenque- La Trinitaria, Km. 60 (Domicilio conocido)"
San Pedro Apostol,"Pijijiapan, Chiapas",Chiapas,OSC / ONG,Centros de Asistencia Social,15.6764001,-93.208182,PG709,"3a Sur s/n, esquina 2a Oriente C.P. 30560"
"Casa de Paso del Migrante, A.C.","Huixtla, Chiapas",Chiapas,OSC / ONG,Centros de Asistencia Social,15.14024821,-92.46734182,PG736,"Avenida Galeana #9-A, Colonia Centro, C.P. 30640, Huixtla, Chiapas, Mexico"
Albergue infantil La Esperanza ,"Tapachula, Chiapas",Chiapas,OSC / ONG,Centros de Asistencia Social,14.9249056,-92.2560801,PG735,"3ra. Calle Ote. #37, Col. Centro C.P. 30830,Tapachula, Chiapas"
"Centro de Atencion a ninas, ninos y jovenes migrantes ","Tapachula, Chiapas",Chiapas,OSC / ONG,Centros de Asistencia Social,14.9185043,-92.2514658,PG735,"Calle Quinta, Privada sur #29, esquina 4ta Oriente C.P. 30830,Tapachula, Chiapas"
Todo por Ellos,"Tapachula, Chiapas",Chiapas,OSC / ONG,Centros de Asistencia Social,14.91297408,-92.2680892,PG735,"Calle 14 Norte 30, Col. Centro C.P. 30700"
Albergue Municipal para Ninas y Ninos Migrantes,"Tapachula, Chiapas",Chiapas,OSC / ONG,Centros de Asistencia Social,14.9105486,-92.2700666,PG735,"6a. Norte y 19a. Poniente, Col. Centro Tapachula, Chiapas. C.P. 30700"
SMR: Scalabrinianas Mision con Migrantes y Refugiados en Tapachula ,"Tapachula, Chiapas",Chiapas,OSC / ONG,Centros de Asistencia Social,14.90972013,-92.25802443,PG735,"5a  Avenida Nte. 46, esquina con 9a Oriente, Los Naranjos, Centro, 30830 Tapachula de Cordova y Ordonez, Chiapas.,Tapachula, Chiapas"
Albergue Ejercito de Salvacion,"Tapachula, Chiapas",Chiapas,OSC / ONG,Centros de Asistencia Social,14.908866,-92.2645729,PG735,"5 Avenida norte entre Avenidas 33 y 33 Oriente, Frente a 5 de febrero. (Frente a Agua Pacifico). Tapachula, Chiapas. Ingreso al albergue por canalizacion. Ruta Montenegro"
Centro de Derechos Humanos Fray Matias de Cordova CDHFMC ,"Tapachula, Chiapas",Chiapas,OSC / ONG,Centros de Asistencia Social,14.90733344,-92.26514191,PG735,"Cuarta Avenida Sur #6, Col. Los Naranjos, Centro C.P. 30830,Tapachula, Chiapas"
"Ejercito de Salvacion, A.C.","Tapachula, Chiapas",Chiapas,OSC / ONG,Centros de Asistencia Social,14.90686508,-92.26746119,PG735,"5ta Norte entre 31 y 33 Oriente, Col. 05 de Febrero. C.P. 30700"
"Esperanza TAPACHULA, Chiapas","Tapachula, Chiapas",Chiapas,OSC / ONG,Centros de Asistencia Social,14.90662174,-92.25900509,PG735,"3a Calle Ote. 37, Col. Centro C.P. 30700"
"Dando Amor, Vida y Esperanza, A.C.","Tapachula, Chiapas",Chiapas,OSC / ONG,Centros de Asistencia Social,14.90381924,-92.25491425,PG735,"15 Norte 9, Col. Centro C.P. 30700"
Albergue Belen,"Tapachula, Chiapas",Chiapas,OSC / ONG,Centros de Asistencia Social,14.8878428,-92.2443866,PG735,"Av. Hidalgo 2, Col. San Antonio Cahoacan C.P. 30789"
Albergue Diocesano Belen Congregacion de los Misioneros de Scalabrini ,"Tapachula, Chiapas",Chiapas,OSC / ONG,Centros de Asistencia Social,14.8878428,-92.2443866,PG735,"Miguel Hidalgo 94, Col. San Antonio Cahoacan, C.P. 30789,Tapachula, Chiapas"
El Buen Samaritano,"Tapachula, Chiapas",Chiapas,OSC / ONG,Centros de Asistencia Social,14.88468497,-92.254527,PG735,"Calle Iztapalapa 36, Col. Azteca C.P. 30786"
Albergue Jesus el Buen Pastor,"Tapachula, Chiapas",Chiapas,OSC / ONG,Centros de Asistencia Social,14.8766145,-92.3074051,PG735,"Entronque a Raymundo Enriquez (a 500 metros hacia dentro), S/N. col. Ojo de Agua. Tapachula, Chiapas"
Albergue Jesus el buen pastor ,"Tapachula, Chiapas",Chiapas,OSC / ONG,Centros de Asistencia Social,14.86570289,-92.31319493,PG735,"Carretera a Raymundo Enrique, 500 metros hacia dentro. C.P. 30700,Tapachula, Chiapas"
Hecate Society Tapachula ,"Tapachula, Chiapas",Chiapas,OSC / ONG,Centros de Asistencia Social,14.8641054,-92.2885593,PG735,"No disponible,Tapachula, Chiapas"
Albergue Hospitalidad y Solidaridad,"Tapachula, Chiapas",Chiapas,OSC / ONG,Centros de Asistencia Social,14.8292629,-92.3311863,PG735,"Carretera Tapachula-Puerto Madero, Km. 12+500 (a un costado de la Universidad del Sureste UDS). Tapachula, Chiapas. Ingreso al albergue por canalizacion. Ruta Puerto, Ciudad Salud, Zona Naval, Playa Linda"